{"type": "FeatureCollection", "features": [{"type": "Feature", "properties": {"name": "cables-1", "layer": "cables"}, "geometry": {"type": "LineString", "coordinates": [[12.94713, 54.8739], [13.87977, 55.00663]]}}, {"type": "Feature", "properties": {"name": "cables-2", "layer": "cables"}, "geometry": {"type": "LineString", "coordinates": [[11.21548, 54.50436], [11.28111, 54.59829]]}}, {"type": "Feature", "properties": {"name": "cables-3", "layer": "cables"}, "geometry": {"type": "LineString", "coordinates": [[12.01498, 54.39999], [12.02367, 54.37905], [12.05215, 54.37679], [12.05935, 54.37585], [12.06058, 54.37484], [12.10248, 54.27272], [12.11751, 54.23396], [12.12229, 54.21685], [12.14177, 54.19404]]}}, {"type": "Feature", "properties": {"name": "cables-4", "layer": "cables"}, "geometry": {"type": "LineString", "coordinates": [[11.27736, 54.60023], [11.26723, 54.58617], [11.24057, 54.55452], [11.2153, 54.51905], [11.21078, 54.51077], [11.21857, 54.50697], [11.22172, 54.50412]]}}, {"type": "Feature", "properties": {"name": "cables-5", "layer": "cables"}, "geometry": {"type": "LineString", "coordinates": [[12.04538, 54.40837], [12.06644, 54.37404], [12.07983, 54.33905], [12.0821, 54.33023], [12.10016, 54.29137], [12.12841, 54.21262], [12.14084, 54.20015], [12.13941, 54.19778], [12.14196, 54.19551]]}}, {"type": "Feature", "properties": {"name": "cables-6", "layer": "cables"}, "geometry": {"type": "LineString", "coordinates": [[12.03856, 54.40649], [12.08335, 54.30828], [12.11915, 54.2083], [12.13775, 54.19628]]}}, {"type": "Feature", "properties": {"name": "cables-7", "layer": "cables"}, "geometry": {"type": "LineString", "coordinates": [[14.19891, 53.93937], [14.21224, 53.95104], [14.09057, 54.07937], [14.11556, 54.44071], [14.09722, 54.45271], [14.09056, 54.46188], [14.57917, 54.58476]]}}, {"type": "Feature", "properties": {"name": "cables-8", "layer": "cables"}, "geometry": {"type": "LineString", "coordinates": [[12.41745, 54.69078], [12.6108, 54.7357], [12.63145, 54.74193], [12.6352, 54.74134], [12.63943, 54.74193], [12.66184, 54.7469], [12.66871, 54.74918], [12.98457, 54.82369], [12.99352, 54.82686], [13.00896, 54.82727], [13.02256, 54.83227], [13.15273, 54.86166], [13.17393, 54.86351], [13.17971, 54.86035], [13.18836, 54.86218], [13.42363, 54.86544], [13.43095, 54.86729], [13.43982, 54.86737], [13.44875, 54.86568], [13.49977, 54.86631], [13.93107, 54.78259], [13.93913, 54.78234], [13.95245, 54.77706], [13.96857, 54.77655], [13.98188, 54.77127], [13.998, 54.77076], [14.00465, 54.76812], [14.24461, 54.72054], [14.31836, 54.67558], [14.34284, 54.66943], [14.41395, 54.65474], [14.43683, 54.65729]]}}, {"type": "Feature", "properties": {"name": "cables-9", "layer": "cables"}, "geometry": {"type": "MultiLineString", "coordinates": [[[13.23436, 55.01983], [13.24175, 54.97486], [13.24164, 54.96651], [13.14863, 54.88298], [13.08554, 54.85821], [12.68234, 54.70646], [12.66986, 54.70023], [12.38774, 54.52226], [12.31327, 54.45463], [12.2745, 54.41555], [12.23983, 54.38724], [12.22828, 54.38292], [11.95756, 54.38417]], [[11.63595, 54.41428], [11.62308, 54.41554], [11.56201, 54.41705], [11.54667, 54.4139], [11.53311, 54.41276], [11.38025, 54.45602], [11.29048, 54.46824], [11.2739, 54.47204], [11.25561, 54.47834], [11.24512, 54.47838]]]}}, {"type": "Feature", "properties": {"name": "cables-10", "layer": "cables"}, "geometry": {"type": "LineString", "coordinates": [[12.37336, 54.33244], [12.33439, 54.35639], [12.33735, 54.36426], [12.42673, 54.47839], [12.46133, 54.53781], [12.47718, 54.55315], [12.48677, 54.56009], [12.70775, 54.67214], [13.15218, 54.85191], [13.17755, 54.86225], [13.18916, 54.86805], [13.35932, 55.02405]]}}, {"type": "Feature", "properties": {"name": "cables-11", "layer": "cables"}, "geometry": {"type": "MultiLineString", "coordinates": [[[14.02134, 54.94877], [13.69863, 54.89231], [13.68735, 54.88931], [13.67053, 54.88747], [13.6346, 54.8868], [13.61325, 54.88719], [13.59108, 54.88486], [13.55384, 54.87859], [13.52934, 54.87677], [13.51977, 54.87814], [13.51245, 54.88124], [13.48387, 54.90177], [13.47556, 54.90647], [13.42859, 54.94279], [13.41944, 54.94648], [13.40935, 54.94863], [13.3892, 54.9502], [13.30121, 54.94283], [13.09225, 54.91352], [13.08711, 54.91349], [13.06964, 54.91588], [13.01993, 54.9294]], [[12.05489, 54.41099], [12.06587, 54.39139], [12.07283, 54.37538], [12.08302, 54.34535], [12.081, 54.34143], [12.06727, 54.3338], [12.06578, 54.32936], [12.06683, 54.32514], [12.07102, 54.31411], [12.07415, 54.30905], [12.10913, 54.22065], [12.11876, 54.20346], [12.12549, 54.19903], [12.13535, 54.1954]]]}}, {"type": "Feature", "properties": {"name": "cables-12", "layer": "cables"}, "geometry": {"type": "MultiLineString", "coordinates": [[[14.0255, 54.9338], [14.04504, 54.93109]], [[13.63174, 54.50735], [13.64031, 54.50542], [13.68347, 54.51502], [13.81028, 54.59185], [13.81197, 54.59572], [13.80763, 54.61884], [13.84184, 54.68999], [13.86035, 54.72589], [13.86412, 54.72921], [13.91997, 54.7595], [13.92021, 54.76763], [13.92583, 54.77553], [13.94596, 54.77825], [13.95199, 54.7762], [13.95742, 54.77605], [14.00452, 54.78144], [14.02258, 54.78476], [14.0252, 54.78613], [14.02566, 54.78805], [14.01255, 54.82524], [14.0123, 54.83221], [14.01063, 54.83784], [13.98057, 54.92446], [13.9822, 54.92578], [14.0255, 54.9338]]]}}, {"type": "Feature", "properties": {"name": "cables-1", "layer": "cables"}, "geometry": {"type": "LineString", "coordinates": [[11.05201, 54.03279], [11.13504, 54.03286], [11.1376, 54.03191], [11.13833, 54.03283]]}}, {"type": "Feature", "properties": {"name": "cables-2", "layer": "cables"}, "geometry": {"type": "LineString", "coordinates": [[10.9193, 53.97388], [11.05193, 54.03275]]}}, {"type": "Feature", "properties": {"name": "cables-3", "layer": "cables"}, "geometry": {"type": "LineString", "coordinates": [[10.90297, 53.95669], [10.91929, 53.97382]]}}, {"type": "Feature", "properties": {"name": "cables-4", "layer": "cables"}, "geometry": {"type": "LineString", "coordinates": [[10.90365, 53.9565], [10.91915, 53.97384], [11.05815, 54.03551], [11.27549, 54.12651], [11.71549, 54.29169], [12.08401, 54.29203], [12.22384, 54.3917], [12.36051, 54.52487], [12.60718, 54.67171], [12.64086, 54.75531]]}}, {"type": "Feature", "properties": {"name": "cables-5", "layer": "cables"}, "geometry": {"type": "LineString", "coordinates": [[12.02783, 54.40353], [12.06998, 54.30543], [12.1169, 54.18927], [12.11805, 54.18808], [12.13022, 54.1871]]}}, {"type": "Feature", "properties": {"name": "cables-6", "layer": "cables"}, "geometry": {"type": "LineString", "coordinates": [[12.62897, 54.61235], [12.52835, 54.57747], [12.51574, 54.57817], [12.48627, 54.56857], [12.45852, 54.54319], [12.4456, 54.51805], [12.44337, 54.51066], [12.42199, 54.47747], [12.41763, 54.4722], [12.41902, 54.46691], [12.41863, 54.46273], [12.412, 54.45579], [12.4079, 54.44767], [12.34214, 54.36276], [12.33122, 54.34661], [12.30301, 54.31268], [12.30002, 54.31084], [12.3, 54.3092], [12.26201, 54.287], [12.23915, 54.27723], [12.23373, 54.27592], [12.22963, 54.27313], [12.21886, 54.26818], [12.19151, 54.2568], [12.17772, 54.24888], [12.17477, 54.24632], [12.17005, 54.24449], [12.13153, 54.22227], [12.13488, 54.21284], [12.13569, 54.19696], [12.13458, 54.1935]]}}, {"type": "Feature", "properties": {"name": "cables-7", "layer": "cables"}, "geometry": {"type": "LineString", "coordinates": [[12.62978, 54.61282], [12.52859, 54.57797], [12.5153, 54.57848], [12.48585, 54.56877], [12.458, 54.54333], [12.44489, 54.51758], [12.44282, 54.51076], [12.41708, 54.47217], [12.41822, 54.46299], [12.41082, 54.45517], [12.40839, 54.45005], [12.34166, 54.36291], [12.33583, 54.35325], [12.30186, 54.31268], [12.29926, 54.31133], [12.29489, 54.30698], [12.2604, 54.28714], [12.2518, 54.28307], [12.23368, 54.27633], [12.22095, 54.26986], [12.19115, 54.25706], [12.13132, 54.22262], [12.13433, 54.21265], [12.13455, 54.19331]]}}, {"type": "Feature", "properties": {"name": "cables-8", "layer": "cables"}, "geometry": {"type": "LineString", "coordinates": [[13.16166, 54.97209], [13.16367, 54.9699], [13.16784, 54.95925], [13.16619, 54.95737], [13.13128, 54.95041], [13.07876, 54.91099], [13.04051, 54.87892], [13.06289, 54.83987], [13.06321, 54.83777], [13.06875, 54.82958], [13.06402, 54.8223], [12.86412, 54.7432], [12.78731, 54.70904], [12.71163, 54.67921], [12.70878, 54.67678], [12.69804, 54.6621], [12.67183, 54.64388], [12.6301, 54.61291]]}}, {"type": "Feature", "properties": {"name": "cables-9", "layer": "cables"}, "geometry": {"type": "LineString", "coordinates": [[13.16177, 54.97207], [13.16367, 54.97137], [13.16842, 54.95923], [13.16668, 54.95721], [13.13176, 54.9502], [13.07933, 54.91089], [13.05306, 54.88901], [13.05349, 54.88828], [13.05236, 54.88839], [13.04119, 54.87902], [13.06944, 54.82948], [13.06463, 54.82226], [12.86524, 54.74328], [12.78758, 54.70873], [12.71202, 54.67897], [12.69851, 54.66191], [12.63013, 54.61282]]}}, {"type": "Feature", "properties": {"name": "cables-10", "layer": "cables"}, "geometry": {"type": "LineString", "coordinates": [[13.16156, 54.97202], [13.16522, 54.96133], [13.16314, 54.95946], [13.10223, 54.94676], [13.06953, 54.94451], [13.05015, 54.95243]]}}, {"type": "Feature", "properties": {"name": "cables-11", "layer": "cables"}, "geometry": {"type": "LineString", "coordinates": [[13.16156, 54.97202], [13.16576, 54.96136], [13.16346, 54.9592], [13.14404, 54.95531], [13.14147, 54.95405], [13.10242, 54.94632], [13.06585, 54.94384], [13.04811, 54.95089]]}}, {"type": "Feature", "properties": {"name": "cables-12", "layer": "cables"}, "geometry": {"type": "LineString", "coordinates": [[13.07189, 54.831], [13.04543, 54.87712], [13.04575, 54.87953], [13.08162, 54.90965], [13.13319, 54.9483], [13.16828, 54.95565], [13.17774, 54.96471], [13.22135, 54.98321], [13.23705, 55.00155], [13.23469, 55.00528], [13.23491, 55.00766], [13.23317, 55.01142]]}}, {"type": "Feature", "properties": {"name": "cables-13", "layer": "cables"}, "geometry": {"type": "LineString", "coordinates": [[13.65335, 54.15833], [13.64714, 54.16392], [13.6504, 54.18535], [13.72114, 54.2092], [13.72075, 54.23103], [13.72543, 54.23745], [13.85218, 54.32909], [13.83924, 54.34864], [13.86356, 54.36857], [13.86475, 54.37119], [13.8573, 54.38355], [13.85212, 54.45279], [13.84995, 54.46294], [13.8504, 54.475], [13.84767, 54.50692], [13.83887, 54.52646], [13.82201, 54.61821], [13.85545, 54.68802], [13.87356, 54.72282], [13.93381, 54.75581], [13.93517, 54.7576], [13.93388, 54.75987], [13.93056, 54.76137], [13.7173, 54.81043], [13.69526, 54.82014], [13.69134, 54.82034], [13.68019, 54.81794]]}}, {"type": "Feature", "properties": {"name": "cables-14", "layer": "cables"}, "geometry": {"type": "MultiLineString", "coordinates": [[[13.65916, 54.15425], [13.65226, 54.16204], [13.65536, 54.18363], [13.70097, 54.19958], [13.71649, 54.20332], [13.72655, 54.20674], [13.72574, 54.23039], [13.72937, 54.23598], [13.73913, 54.24154], [13.74462, 54.2463], [13.8584, 54.3281], [13.84561, 54.34883], [13.87296, 54.37106], [13.86281, 54.38792], [13.8619, 54.3985], [13.86001, 54.40341], [13.86091, 54.41132], [13.85873, 54.44369]], [[13.85873, 54.44369], [13.85874, 54.44369]], [[13.85874, 54.44369], [13.85681, 54.46206], [13.85506, 54.46629], [13.85597, 54.47209], [13.85305, 54.50767], [13.83288, 54.61758], [13.8396, 54.63149], [13.84094, 54.63207], [13.84106, 54.63442], [13.88314, 54.71968], [13.94558, 54.75356], [13.94695, 54.75614], [13.94381, 54.76544], [13.94701, 54.76829], [14.00518, 54.77514], [14.02028, 54.77805], [14.03032, 54.77914], [14.03545, 54.77797], [14.0382, 54.77359], [14.0406, 54.77223], [14.04391, 54.7718], [14.05086, 54.77256], [14.06117, 54.77412], [14.09768, 54.78695]], [[14.09768, 54.78695], [14.0977, 54.78696], [14.09773, 54.78697], [14.09769, 54.78696], [14.09768, 54.78695]], [[14.09768, 54.78695], [14.09767, 54.7869]]]}}, {"type": "Feature", "properties": {"name": "cables-15", "layer": "cables"}, "geometry": {"type": "MultiLineString", "coordinates": [[[13.65362, 54.15847], [13.6479, 54.16398], [13.651, 54.18509], [13.72222, 54.20895], [13.72154, 54.23117], [13.72627, 54.23737], [13.85272, 54.32851], [13.85155, 54.332], [13.84004, 54.34794], [13.84067, 54.34972], [13.84959, 54.35672]], [[13.84959, 54.35672], [13.85053, 54.35736]], [[13.85053, 54.35736], [13.84958, 54.35671], [13.84959, 54.35672]], [[13.84959, 54.35672], [13.85033, 54.35726], [13.85053, 54.35736]], [[13.85053, 54.35736], [13.85102, 54.35741], [13.8653, 54.36914], [13.8663, 54.37111], [13.8595, 54.38201], [13.8583, 54.38569], [13.8526, 54.45668], [13.85072, 54.46271], [13.85153, 54.46962], [13.84849, 54.50699], [13.84043, 54.52643], [13.82355, 54.61792], [13.85686, 54.68767], [13.87435, 54.72164], [13.87513, 54.72259], [13.87576, 54.72313]], [[13.87576, 54.72313], [13.87577, 54.72314], [13.87576, 54.72313]], [[13.87576, 54.72313], [13.87601, 54.72338], [13.91541, 54.74484], [13.93532, 54.75535], [13.93624, 54.75602], [13.93684, 54.75788], [13.93369, 54.76729], [13.93589, 54.77176], [13.93223, 54.78256]], [[13.93223, 54.78256], [13.93227, 54.78256], [13.93223, 54.78256]], [[13.93223, 54.78256], [13.92, 54.81809], [13.91778, 54.81992], [13.9143, 54.82092], [13.90276, 54.8201], [13.90272, 54.8213], [13.90636, 54.82215]], [[13.90636, 54.82215], [13.90637, 54.82215]], [[13.90637, 54.82215], [13.90638, 54.82215], [13.9064, 54.82216], [13.90637, 54.82215]], [[13.90637, 54.82215], [13.90636, 54.82215]], [[13.90636, 54.82215], [13.90635, 54.82215], [13.90636, 54.82215]], [[13.90636, 54.82215], [13.90665, 54.82221]]]}}, {"type": "Feature", "properties": {"name": "cables-16", "layer": "cables"}, "geometry": {"type": "MultiLineString", "coordinates": [[[13.65366, 54.15885], [13.64935, 54.16339], [13.65232, 54.18464], [13.72354, 54.20841], [13.72305, 54.23101], [13.72751, 54.23685], [13.85477, 54.32877], [13.84154, 54.34859], [13.86608, 54.36831], [13.86745, 54.37055], [13.85939, 54.38456], [13.85416, 54.45652], [13.85223, 54.46301], [13.85273, 54.47502], [13.85, 54.50714], [13.8435, 54.52654], [13.8266, 54.61759], [13.85612, 54.67813], [13.85887, 54.68602], [13.85988, 54.68798], [13.85998, 54.68814]], [[13.85998, 54.68814], [13.86008, 54.68829], [13.85998, 54.68813]], [[13.85998, 54.68813], [13.85992, 54.68804], [13.85995, 54.68809], [13.85998, 54.68813]], [[13.85998, 54.68813], [13.85998, 54.68814]], [[13.85998, 54.68814], [13.86035, 54.68872], [13.86364, 54.69332], [13.87813, 54.72198], [13.93867, 54.75472], [13.94021, 54.75645], [13.93683, 54.76721], [13.93775, 54.77104], [13.92175, 54.81778], [13.91921, 54.82027], [13.91479, 54.82164], [13.90287, 54.82036], [13.90316, 54.82105], [13.90785, 54.82211]]]}}, {"type": "Feature", "properties": {"name": "cables-17", "layer": "cables"}, "geometry": {"type": "LineString", "coordinates": [[14.09781, 54.7869], [14.1007, 54.78762], [14.0991, 54.79215], [14.10242, 54.80344], [14.1008, 54.80532], [14.09523, 54.80831], [14.0845, 54.81871], [14.08428, 54.82143], [14.08739, 54.82766], [14.08653, 54.832], [14.08306, 54.83363], [14.07624, 54.83356], [14.07386, 54.8347]]}}, {"type": "Feature", "properties": {"name": "cables-18", "layer": "cables"}, "geometry": {"type": "LineString", "coordinates": [[13.65904, 54.15418], [13.65158, 54.16214], [13.65447, 54.18389], [13.69352, 54.19769], [13.72556, 54.20741], [13.72495, 54.2304], [13.72869, 54.2362], [13.85757, 54.32838], [13.84474, 54.34887], [13.8721, 54.37127], [13.86208, 54.38773], [13.86125, 54.39817], [13.85931, 54.40321], [13.86014, 54.41157], [13.85748, 54.44447], [13.85667, 54.44489], [13.85614, 54.46193], [13.85427, 54.46663], [13.8552, 54.47209], [13.85234, 54.50738], [13.83134, 54.61759], [13.88167, 54.71999], [13.94404, 54.75402], [13.94526, 54.75652], [13.94194, 54.76599], [13.94488, 54.76889], [14.0051, 54.77602], [14.03101, 54.78029], [14.03348, 54.78136], [14.03476, 54.78316], [14.03167, 54.79343], [14.03452, 54.79648], [14.04673, 54.79846], [14.06276, 54.79988], [14.07463, 54.80286], [14.08738, 54.805], [14.09079, 54.8063], [14.0921, 54.80806], [14.09173, 54.80976], [14.08604, 54.81456], [14.0824, 54.82001], [14.08562, 54.82677], [14.08573, 54.8309], [14.08191, 54.83319], [14.07596, 54.83328], [14.07375, 54.83465]]}}, {"type": "Feature", "properties": {"name": "cables-19", "layer": "cables"}, "geometry": {"type": "LineString", "coordinates": [[13.65892, 54.15411], [13.65007, 54.16299], [13.65302, 54.18439], [13.72451, 54.20822], [13.72423, 54.23056], [13.72812, 54.23653], [13.77436, 54.27009], [13.78583, 54.27743], [13.85575, 54.3288], [13.84238, 54.34807], [13.87039, 54.37134], [13.8605, 54.38773], [13.85827, 54.40618], [13.85672, 54.44431], [13.85588, 54.44458], [13.85494, 54.45677], [13.85305, 54.46303], [13.85392, 54.46929], [13.85079, 54.50746], [13.84501, 54.52695], [13.82822, 54.61742], [13.86195, 54.68621], [13.8613, 54.68681], [13.86223, 54.68689], [13.86594, 54.69455], [13.86689, 54.69471], [13.86624, 54.69525], [13.87881, 54.72076], [13.94051, 54.75448], [13.94187, 54.75704], [13.93833, 54.76739], [13.94111, 54.77023], [14.00372, 54.7776], [14.02684, 54.78061], [14.02995, 54.78159], [14.03169, 54.78474], [14.01825, 54.82301], [14.0189, 54.82548], [14.0222, 54.82712], [14.04243, 54.8296], [14.05929, 54.82969], [14.0739, 54.83472]]}}, {"type": "Feature", "properties": {"name": "cables-20", "layer": "cables"}, "geometry": {"type": "LineString", "coordinates": [[13.88086, 54.7297], [13.93092, 54.757], [13.93198, 54.76148], [13.93107, 54.76903], [13.93318, 54.77124], [13.9395, 54.77214], [13.94582, 54.77199], [14.00588, 54.77885], [14.01753, 54.78137], [14.02721, 54.78249], [14.02938, 54.78356], [14.02976, 54.78505], [14.01563, 54.82599], [14.0153, 54.8357], [14.00124, 54.87617], [14.00244, 54.8781], [14.01082, 54.88157]]}}, {"type": "Feature", "properties": {"name": "HVDC Konti-Skan", "layer": "cables", "kind": "power"}, "geometry": {"type": "LineString", "coordinates": [[10.54184, 57.23383], [10.88542, 57.25041], [10.9035, 57.25243]]}}, {"type": "Feature", "properties": {"name": "HVDC Skagerak 1", "layer": "cables", "kind": "power"}, "geometry": {"type": "LineString", "coordinates": [[9.0546, 57.1531], [9.05899, 57.17192], [9.05415, 57.18068], [9.05338, 57.18622], [9.05112, 57.1891], [9.03505, 57.23162], [9.0278, 57.25179], [9.02776, 57.25713], [9.0243, 57.26106], [9.02456, 57.26519], [9.02274, 57.27062], [9.01892, 57.27276], [9.0, 57.29147]]}}, {"type": "Feature", "properties": {"name": "HVDC Konti-Skan", "layer": "cables", "kind": "power"}, "geometry": {"type": "LineString", "coordinates": [[11.17458, 57.32382], [11.28638, 57.3583]]}}, {"type": "Feature", "properties": {"name": "Kontek", "layer": "cables", "kind": "power"}, "geometry": {"type": "LineString", "coordinates": [[11.96161, 54.56236], [12.02639, 54.4125], [12.11687, 54.18929], [12.11799, 54.18808], [12.12702, 54.18761]]}}, {"type": "Feature", "properties": {"name": "Kontek", "layer": "cables", "kind": "power"}, "geometry": {"type": "LineString", "coordinates": [[11.84176, 55.01996], [11.83892, 55.01692], [11.8425, 54.98361], [11.83952, 54.9593]]}}, {"type": "Feature", "properties": {"name": "HVDC Storebælt I (Great Belt power link)", "layer": "cables", "kind": "power"}, "geometry": {"type": "LineString", "coordinates": [[10.70822, 55.41806], [10.7187, 55.42086], [11.0763, 55.49007], [11.17643, 55.49527]]}}, {"type": "Feature", "properties": {"name": "HVDC Baltic Cable", "layer": "cables", "kind": "power"}, "geometry": {"type": "LineString", "coordinates": [[10.8022, 53.89584], [10.80135, 53.89318], [10.80216, 53.89165], [10.81623, 53.89231], [10.81815, 53.89384], [10.82379, 53.89378], [10.83421, 53.89707], [10.83693, 53.89731], [10.84071, 53.89561], [10.8479, 53.89817], [10.84692, 53.90437], [10.84887, 53.90548], [10.85687, 53.90558], [10.85823, 53.90931], [10.86876, 53.91389], [10.87625, 53.9212], [10.88276, 53.93656], [10.9012, 53.95185], [10.90363, 53.95644], [10.91904, 53.97371], [10.98332, 54.00293], [11.05233, 54.0328], [11.30218, 54.1371], [11.71316, 54.2913], [12.08423, 54.29215], [12.22424, 54.39194], [12.26028, 54.42472], [12.36393, 54.52713], [12.60823, 54.67143], [12.72299, 54.96052]]}}, {"type": "Feature", "properties": {"name": "Baltic 2", "layer": "cables", "kind": "power"}, "geometry": {"type": "LineString", "coordinates": [[12.63, 54.61281], [12.69839, 54.66246], [12.71144, 54.67924], [12.76059, 54.69841], [12.96195, 54.78128], [13.06213, 54.84119], [13.06982, 54.94382], [13.10265, 54.94587], [13.15192, 54.95551], [13.16338, 54.95879], [13.16619, 54.96137], [13.16173, 54.97203]]}}, {"type": "Feature", "properties": {"name": "Graderup-Ryttergård", "layer": "cables", "kind": "power"}, "geometry": {"type": "LineString", "coordinates": [[9.79592, 55.54595], [9.79007, 55.54875], [9.79156, 55.5605], [9.79807, 55.5831], [9.80047, 55.58662], [9.79419, 55.58889], [9.78778, 55.58864]]}}, {"type": "Feature", "properties": {"name": "Abildskov-Sønderborg 150 kV", "layer": "cables", "kind": "power"}, "geometry": {"type": "LineString", "coordinates": [[9.97565, 54.99663], [9.9798, 55.00213], [10.07487, 55.07588]]}}, {"type": "Feature", "properties": {"name": "Kriegers Flak CGS", "layer": "cables", "kind": "power"}, "geometry": {"type": "LineString", "coordinates": [[12.94508, 55.04833], [12.93077, 55.0386], [12.92964, 55.0366], [12.93059, 55.03426], [12.93438, 55.02946], [12.98474, 55.00936], [12.98832, 54.97626], [13.06552, 54.94392], [13.1024, 54.94632], [13.14147, 54.95405], [13.16307, 54.95907], [13.16575, 54.96144], [13.16165, 54.97202]]}}, {"type": "Feature", "properties": {"name": "110kV Świnoujście - Warszów [2]", "layer": "cables", "kind": "power"}, "geometry": {"type": "LineString", "coordinates": [[14.25107, 53.8912], [14.25898, 53.89785]]}}, {"type": "Feature", "properties": {"name": "Ostwind 1 Ltg 261, 281 und 282", "layer": "cables", "kind": "power"}, "geometry": {"type": "LineString", "coordinates": [[13.65894, 54.1542], [13.65159, 54.1619], [13.65422, 54.18387], [13.72617, 54.20768], [13.725, 54.2306], [13.72882, 54.23641], [13.85787, 54.32831], [13.84446, 54.34874], [13.87214, 54.37092], [13.86203, 54.38762], [13.85273, 54.50773], [13.83115, 54.61769], [13.88187, 54.72053], [13.9453, 54.7549], [13.94194, 54.76653], [13.94564, 54.7695], [14.00527, 54.77609], [14.03101, 54.78028]]}}, {"type": "Feature", "properties": {"name": "HVDC Konti-Skan", "layer": "cables", "kind": "power"}, "geometry": {"type": "LineString", "coordinates": [[11.89849, 57.54996], [11.91993, 57.55689]]}}, {"type": "Feature", "properties": {"name": "HVDC Konti-Skan", "layer": "cables", "kind": "power"}, "geometry": {"type": "LineString", "coordinates": [[11.82306, 57.52554], [11.89849, 57.54996]]}}, {"type": "Feature", "properties": {"name": "HVDC Konti-Skan", "layer": "cables", "kind": "power"}, "geometry": {"type": "LineString", "coordinates": [[11.28638, 57.3583], [11.39122, 57.39061]]}}, {"type": "Feature", "properties": {"name": "HVDC Konti-Skan", "layer": "cables", "kind": "power"}, "geometry": {"type": "LineString", "coordinates": [[11.55939, 57.44236], [11.69354, 57.48359]]}}, {"type": "Feature", "properties": {"name": "HVDC Konti-Skan", "layer": "cables", "kind": "power"}, "geometry": {"type": "LineString", "coordinates": [[11.69354, 57.48359], [11.82306, 57.52554]]}}, {"type": "Feature", "properties": {"name": "HVDC Konti-Skan", "layer": "cables", "kind": "power"}, "geometry": {"type": "LineString", "coordinates": [[11.39122, 57.39061], [11.55939, 57.44236]]}}, {"type": "Feature", "properties": {"name": "HVDC NordBalt", "layer": "cables", "kind": "power"}, "geometry": {"type": "LineString", "coordinates": [[21.10603, 55.63055], [20.6122, 55.70716], [20.08178, 55.78928], [19.4106, 55.89297], [19.03283, 55.95135], [18.61772, 55.94897], [18.12194, 55.94613], [18.00095, 55.92802], [17.81981, 55.85066], [17.33997, 55.78691], [16.8718, 55.72416], [16.65653, 55.69527], [16.64778, 55.69632], [16.39095, 55.83832], [16.27368, 55.93125], [16.26377, 56.04617], [16.25765, 56.26878], [16.24235, 56.33733], [16.2214, 56.42178], [16.22988, 56.45383], [16.23563, 56.45973], [16.23752, 56.46578], [16.23703, 56.47538], [16.25045, 56.51713], [16.25013, 56.51927], [16.24313, 56.52724], [16.22575, 56.53533], [16.21748, 56.53718]]}}, {"type": "Feature", "properties": {"name": "A2", "layer": "cables", "kind": "power"}, "geometry": {"type": "LineString", "coordinates": [[12.89333, 55.08199], [12.91928, 55.06671], [12.93028, 55.05651]]}}, {"type": "Feature", "properties": {"name": "K1", "layer": "cables", "kind": "power"}, "geometry": {"type": "LineString", "coordinates": [[12.94518, 55.04831], [12.94513, 55.04661], [12.94969, 55.0451], [12.99741, 55.01436], [12.99744, 55.00899]]}}, {"type": "Feature", "properties": {"name": "O1", "layer": "cables", "kind": "power"}, "geometry": {"type": "LineString", "coordinates": [[12.85085, 55.02711], [12.84952, 55.02576], [12.84152, 55.02498], [12.81959, 55.01956]]}}, {"type": "Feature", "properties": {"name": "R1", "layer": "cables", "kind": "power"}, "geometry": {"type": "LineString", "coordinates": [[12.85067, 55.02726], [12.84046, 55.03012], [12.82537, 55.0331], [12.81528, 55.03345]]}}, {"type": "Feature", "properties": {"name": "I1", "layer": "cables", "kind": "power"}, "geometry": {"type": "LineString", "coordinates": [[12.94524, 55.04829], [12.94612, 55.04671], [12.96755, 55.03948], [13.00963, 55.02107], [13.01737, 55.01904], [13.0227, 55.01625]]}}, {"type": "Feature", "properties": {"name": "D1", "layer": "cables", "kind": "power"}, "geometry": {"type": "LineString", "coordinates": [[12.94555, 55.04846], [12.96652, 55.05367]]}}, {"type": "Feature", "properties": {"name": "M1", "layer": "cables", "kind": "power"}, "geometry": {"type": "LineString", "coordinates": [[12.85095, 55.02711], [12.84898, 55.00991], [12.84659, 55.00278], [12.8449, 54.98969]]}}, {"type": "Feature", "properties": {"name": "B1", "layer": "cables", "kind": "power"}, "geometry": {"type": "LineString", "coordinates": [[12.94558, 55.0485], [12.94727, 55.04905], [12.94753, 55.05018], [12.9224, 55.07699]]}}, {"type": "Feature", "properties": {"name": "F1", "layer": "cables", "kind": "power"}, "geometry": {"type": "LineString", "coordinates": [[12.94544, 55.04834], [13.00957, 55.04586]]}}, {"type": "Feature", "properties": {"name": "Q1", "layer": "cables", "kind": "power"}, "geometry": {"type": "LineString", "coordinates": [[12.85066, 55.02723], [12.76166, 55.0327]]}}, {"type": "Feature", "properties": {"name": "L1", "layer": "cables", "kind": "power"}, "geometry": {"type": "LineString", "coordinates": [[12.94515, 55.04832], [12.94251, 55.03749]]}}, {"type": "Feature", "properties": {"name": "A1", "layer": "cables", "kind": "power"}, "geometry": {"type": "LineString", "coordinates": [[12.93028, 55.05651], [12.94621, 55.05015], [12.94672, 55.04925], [12.94558, 55.04859]]}}, {"type": "Feature", "properties": {"name": "C1", "layer": "cables", "kind": "power"}, "geometry": {"type": "LineString", "coordinates": [[12.94557, 55.04848], [12.94782, 55.04883], [12.94873, 55.0502], [12.94781, 55.05265], [12.94915, 55.05948], [12.95271, 55.06954]]}}, {"type": "Feature", "properties": {"name": "P1", "layer": "cables", "kind": "power"}, "geometry": {"type": "LineString", "coordinates": [[12.85066, 55.0272], [12.83484, 55.02691], [12.76216, 55.02297]]}}, {"type": "Feature", "properties": {"name": "G1", "layer": "cables", "kind": "power"}, "geometry": {"type": "LineString", "coordinates": [[12.94542, 55.04833], [12.94763, 55.04764], [12.97573, 55.04585], [13.02178, 55.04059], [13.09298, 55.03413]]}}, {"type": "Feature", "properties": {"name": "Kriegers Flak CGS", "layer": "cables", "kind": "power"}, "geometry": {"type": "LineString", "coordinates": [[13.16157, 54.97202], [13.16526, 54.96136], [13.16296, 54.95939], [13.1023, 54.94678], [13.06915, 54.94463], [13.04126, 54.95614], [13.02679, 54.96112], [12.99131, 54.97727], [12.98768, 55.01005], [12.9368, 55.03068], [12.93286, 55.03567], [12.93281, 55.03695], [12.94512, 55.04832]]}}, {"type": "Feature", "properties": {"name": "J1", "layer": "cables", "kind": "power"}, "geometry": {"type": "LineString", "coordinates": [[12.94521, 55.0483], [12.94559, 55.04668], [12.95473, 55.04374], [12.9655, 55.0388], [13.00829, 55.01773], [13.01284, 55.01408], [13.04383, 54.99455]]}}, {"type": "Feature", "properties": {"name": "N1", "layer": "cables", "kind": "power"}, "geometry": {"type": "LineString", "coordinates": [[12.8509, 55.02711], [12.84945, 55.02494], [12.84198, 55.01999], [12.81613, 54.99858]]}}, {"type": "Feature", "properties": {"name": "E1", "layer": "cables", "kind": "power"}, "geometry": {"type": "LineString", "coordinates": [[12.94546, 55.04836], [13.015, 55.05778]]}}, {"type": "Feature", "properties": {"name": "H2", "layer": "cables", "kind": "power"}, "geometry": {"type": "LineString", "coordinates": [[12.96289, 55.04411], [13.00408, 55.03305]]}}, {"type": "Feature", "properties": {"name": "HVDC Baltic Cable", "layer": "cables", "kind": "power"}, "geometry": {"type": "LineString", "coordinates": [[12.72299, 54.96052], [12.73407, 54.99149], [12.75458, 55.01124], [12.75475, 55.0333], [12.76987, 55.07915], [12.78259, 55.12349], [12.79698, 55.12802], [12.89851, 55.15186], [12.91679, 55.17086], [13.01693, 55.28652], [13.02186, 55.36847], [13.03189, 55.38146]]}}, {"type": "Feature", "properties": {"name": "Baltic 1", "layer": "cables", "kind": "power"}, "geometry": {"type": "LineString", "coordinates": [[12.63, 54.61281], [12.52897, 54.5781], [12.51516, 54.57844], [12.48552, 54.56847], [12.45792, 54.5432], [12.45129, 54.53126], [12.44256, 54.51039], [12.41741, 54.4727], [12.41815, 54.46292], [12.41075, 54.45501], [12.40822, 54.44983], [12.34164, 54.36288], [12.33603, 54.35356], [12.30228, 54.31317], [12.2943, 54.30666], [12.26016, 54.28705], [12.25195, 54.28313], [12.23365, 54.27631], [12.22078, 54.26978], [12.19089, 54.25691], [12.13182, 54.22293], [12.13107, 54.22138], [12.13433, 54.21265], [12.13514, 54.19746], [12.1342, 54.19362], [12.13708, 54.19222]]}}, {"type": "Feature", "properties": {"name": "Ostwind 2-3", "layer": "cables", "kind": "power"}, "geometry": {"type": "LineString", "coordinates": [[13.93646, 54.75901], [13.9334, 54.76761], [13.93603, 54.77134], [13.92006, 54.81812], [13.91757, 54.82004], [13.91447, 54.82092], [13.90443, 54.81998], [13.89935, 54.82099]]}}, {"type": "Feature", "properties": {"name": "Ostwind 2-1", "layer": "cables", "kind": "power"}, "geometry": {"type": "LineString", "coordinates": [[13.93682, 54.75764], [13.93311, 54.76049], [13.92931, 54.76165], [13.71654, 54.81065], [13.69423, 54.82035], [13.67714, 54.81728]]}}, {"type": "Feature", "properties": {"name": "Baltika (Kingisepp - Kaliningrad)", "layer": "cables", "kind": "telecom"}, "geometry": {"type": "LineString", "coordinates": [[26.47482, 59.94733], [26.4451, 59.96357], [26.38866, 59.9903], [26.36224, 59.99927], [26.35572, 60.00262], [26.33767, 60.00767], [26.2795, 59.99567], [26.14917, 59.98083], [26.07533, 59.95167], [25.9695, 59.89383], [25.92483, 59.87917], [25.67767, 59.879], [25.63017, 59.88283], [25.55017, 59.87983], [25.40083, 59.88667], [25.2965, 59.886], [25.18333, 59.894], [24.98133, 59.877], [24.885, 59.8575], [24.86883, 59.85967], [24.8135, 59.85017], [24.789, 59.8395], [24.76317, 59.83833], [24.61667, 59.795], [24.55917, 59.77717], [24.45317, 59.76067], [24.39917, 59.7365], [24.00867, 59.64317], [23.4575, 59.56], [23.201, 59.5315], [23.17083, 59.53183], [23.1085, 59.51517], [23.07217, 59.51167], [22.95267, 59.48517], [22.74717, 59.4625], [22.579, 59.4355], [22.5635, 59.42983], [22.32617, 59.394], [22.2905, 59.3975], [22.23367, 59.4485], [22.19483, 59.4515], [22.11917, 59.433], [21.9375, 59.4015], [21.7385, 59.37317], [21.70633, 59.36483], [21.1375, 59.28533], [21.02017, 59.24533], [20.98317, 59.223], [20.93717, 59.1695], [20.77467, 59.11117], [20.726, 59.08767], [20.48067, 58.9545], [20.2365, 58.74183], [20.2455, 58.7155], [20.3335, 58.67967], [20.343, 58.65633], [20.22083, 58.41667], [20.00183, 57.98333], [19.62817, 57.58383], [19.52633, 57.44017], [19.475, 57.16683], [19.62333, 57.01417], [19.55333, 56.88333], [19.479, 56.74667], [19.08817, 56.47517], [18.61283, 56.2785], [18.61083, 55.92067], [18.99971, 55.88843], [19.03128, 55.87863], [19.09041, 55.85873], [19.11994, 55.85161], [19.16486, 55.83404], [19.28084, 55.79766], [19.59806, 55.69262], [19.65045, 55.67967], [19.67916, 55.67684], [19.72176, 55.68625], [19.7469, 55.68667], [19.81661, 55.66085], [19.83178, 55.65672], [19.95, 55.61806], [20.15925, 55.54806], [20.23754, 55.51918], [20.25742, 55.51494], [20.27392, 55.50828], [20.27962, 55.48213], [20.29258, 55.46729], [20.34743, 55.45156], [20.40251, 55.43349], [20.51038, 55.39496], [20.53236, 55.38594], [20.55224, 55.38074], [20.56809, 55.37279], [20.60765, 55.35891]]}}, {"type": "Feature", "properties": {"name": "HVDC SwePol", "layer": "cables", "kind": "power"}, "geometry": {"type": "LineString", "coordinates": [[16.78412, 54.57387], [16.78105, 54.57757], [16.84512, 54.62107], [16.85417, 54.65972], [16.88583, 54.76806], [16.92635, 54.898], [16.91513, 54.96953], [16.84611, 55.02833], [16.76521, 55.10248], [16.75528, 55.10472], [16.31391, 55.33688], [16.2825, 55.3525], [16.23027, 55.3718], [15.94871, 55.4839], [15.465, 55.66972], [15.03235, 55.8352], [14.99352, 55.99856], [14.98465, 56.04158], [14.98602, 56.04965], [14.97866, 56.07649], [14.91814, 56.10352], [14.88283, 56.12589], [14.86952, 56.12521], [14.85773, 56.12707], [14.84527, 56.13046], [14.84039, 56.13305], [14.83732, 56.13676]]}}, {"type": "Feature", "properties": {"name": "Baltic 2", "layer": "cables", "kind": "power"}, "geometry": {"type": "LineString", "coordinates": [[13.16179, 54.97203], [13.16653, 54.96199], [13.16366, 54.95864], [13.1522, 54.95524], [13.10287, 54.94557], [13.07015, 54.94365], [13.06262, 54.84113], [12.96243, 54.78119], [12.7801, 54.70548], [12.71189, 54.67888], [12.69876, 54.66205], [12.63152, 54.61317], [12.63, 54.61281]]}}, {"type": "Feature", "properties": {"name": "Denmark-Northway 5", "layer": "cables", "kind": "telecom"}, "geometry": {"type": "LineString", "coordinates": [[10.02063, 57.60127], [9.93704, 57.6521], [9.80301, 57.76755], [9.53724, 57.91882], [9.53668, 57.93449], [9.51976, 57.93547], [9.42104, 58.00092]]}}, {"type": "Feature", "properties": {"name": "HVDC Skagerak 3", "layer": "cables", "kind": "power"}, "geometry": {"type": "LineString", "coordinates": [[9.05467, 57.15308], [9.06123, 57.16987], [9.02887, 57.27408], [9.0, 57.30258]]}}, {"type": "Feature", "properties": {"name": "HVDC Skagerrak 4", "layer": "cables", "kind": "power"}, "geometry": {"type": "LineString", "coordinates": [[9.05383, 57.15338], [9.0514, 57.17007], [9.0, 57.22051]]}}, {"type": "Feature", "properties": {"name": "HVDC Skagerak 2", "layer": "cables", "kind": "power"}, "geometry": {"type": "LineString", "coordinates": [[9.0546, 57.1531], [9.055, 57.17083], [9.03999, 57.19151], [9.03741, 57.19702], [9.02836, 57.2079], [9.02681, 57.21252], [9.01321, 57.23111], [9.01162, 57.23564], [9.00587, 57.24103], [9.00347, 57.2476], [9.0, 57.2505]]}}, {"type": "Feature", "properties": {"name": "Skagen Fiber West", "layer": "cables", "kind": "telecom"}, "geometry": {"type": "LineString", "coordinates": [[9.98706, 57.60714], [9.98652, 57.60923], [9.99328, 57.61772], [9.99455, 57.62385], [9.96747, 57.69103], [9.9628, 57.69871], [9.95962, 57.71171], [9.92885, 57.7885], [9.8283, 58.17697], [9.81002, 58.23849], [9.80118, 58.24838], [9.79774, 58.28333], [9.80019, 58.31197], [9.80727, 58.32793], [9.85723, 58.42536], [9.86426, 58.43336], [9.86984, 58.4476], [9.92958, 58.47198], [9.95825, 58.48634], [9.98142, 58.49948], [9.98949, 58.50589], [9.99365, 58.51331], [9.99344, 58.52035], [9.987, 58.53223], [9.99082, 58.54051], [9.99056, 58.54179], [9.98318, 58.54506], [9.97859, 58.54855], [9.97855, 58.55005], [9.98305, 58.5559], [9.98065, 58.57], [9.99481, 58.58736], [10.00013, 58.58884], [10.0046, 58.59268], [10.00889, 58.60802], [10.00872, 58.61294], [10.01086, 58.62174], [10.02554, 58.64627], [10.03078, 58.65855], [10.06983, 58.72202], [10.08056, 58.75844], [10.08967, 58.80469], [10.10593, 58.843], [10.10826, 58.86608], [10.11318, 58.87921], [10.11787, 58.88625], [10.11882, 58.88979], [10.11803, 58.89346], [10.12433, 58.90408], [10.12564, 58.92521], [10.12402, 58.93216], [10.11759, 58.93572], [10.11779, 58.93765], [10.1104, 58.94611], [10.10559, 58.95467], [10.07158, 58.99091], [10.06199, 59.00653], [10.03201, 59.03494], [10.0238, 59.04794]]}}, {"type": "Feature", "properties": {"name": "Ostwind 2", "layer": "cables", "kind": "power"}, "geometry": {"type": "LineString", "coordinates": [[13.65876, 54.15391], [13.64792, 54.16363], [13.65075, 54.1851], [13.72244, 54.209], [13.7216, 54.23181], [13.72645, 54.23746], [13.85324, 54.32891], [13.83977, 54.34885], [13.86633, 54.37066], [13.85857, 54.38436], [13.84792, 54.50733], [13.83951, 54.52796], [13.8232, 54.61761], [13.875, 54.72279], [13.93696, 54.75604], [13.93644, 54.75907]]}}, {"type": "Feature", "properties": {"name": "Aurora", "layer": "cables", "kind": "telecom"}, "geometry": {"type": "LineString", "coordinates": [[14.81583, 55.26017], [14.85467, 55.277], [15.13417, 55.44117], [15.245, 55.50783], [15.57917, 55.6275], [15.665, 55.65917], [16.27417, 55.96383], [16.506, 56.07933], [16.563, 56.21583], [16.55833, 56.225], [16.50017, 56.241], [16.48033, 56.24417]]}}, {"type": "Feature", "properties": {"name": "Aurora", "layer": "cables", "kind": "telecom"}, "geometry": {"type": "LineString", "coordinates": [[13.63167, 54.50733], [13.6405, 54.50533], [13.65033, 54.50617], [13.661, 54.51], [13.681, 54.51317], [13.8115, 54.59333], [13.80767, 54.61883], [13.86217, 54.72783], [13.92, 54.7595], [13.92017, 54.7675], [13.92633, 54.77583], [13.9465, 54.77817], [13.95667, 54.776], [14.02517, 54.78617], [13.98067, 54.92483], [14.0255, 54.93383], [14.32083, 54.93623], [14.47433, 55.05093], [14.67675, 55.0829], [14.69158, 55.08114], [14.70025, 55.0875]]}}, {"type": "Feature", "properties": {"name": "Baltic 1", "layer": "cables", "kind": "power"}, "geometry": {"type": "LineString", "coordinates": [[12.63, 54.61281], [12.52823, 54.57744], [12.51504, 54.57802], [12.48646, 54.56872], [12.45858, 54.54323], [12.44535, 54.5178], [12.44332, 54.51104], [12.4177, 54.47262], [12.41857, 54.46292], [12.41135, 54.45496], [12.41145, 54.45342], [12.40787, 54.44754], [12.34513, 54.36661], [12.33643, 54.35333], [12.30236, 54.31221], [12.29994, 54.31076], [12.30044, 54.30936], [12.25269, 54.28279], [12.23412, 54.27604], [12.22258, 54.26995], [12.19127, 54.25669], [12.1323, 54.22272], [12.13144, 54.22209], [12.13485, 54.21287], [12.13566, 54.19686], [12.13443, 54.19362], [12.13729, 54.19235]]}}, {"type": "Feature", "properties": {"name": "Aurora", "layer": "cables", "kind": "telecom"}, "geometry": {"type": "LineString", "coordinates": [[12.41, 55.61283], [12.4245, 55.60083], [12.44417, 55.54933], [12.54117, 55.50217], [12.5645, 55.50217], [12.67833, 55.49833], [12.74717, 55.49983], [12.7715, 55.49417], [12.78267, 55.496], [12.79383, 55.5025], [12.81283, 55.505], [12.83, 55.50433], [12.88717, 55.51183], [12.90417, 55.52]]}}, {"type": "Feature", "properties": {"name": "Abildskov-Sønderborg 150 kV", "layer": "cables", "kind": "power"}, "geometry": {"type": "LineString", "coordinates": [[9.97407, 54.9943], [9.97565, 54.99663]]}}, {"type": "Feature", "properties": {"name": "Abildskov-Sønderborg 150 kV", "layer": "cables", "kind": "power"}, "geometry": {"type": "LineString", "coordinates": [[10.07487, 55.07588], [10.07542, 55.07631]]}}, {"type": "Feature", "properties": {"name": "Ostwind 1-3 Ltg 282", "layer": "cables", "kind": "power"}, "geometry": {"type": "LineString", "coordinates": [[14.03101, 54.78028], [14.03027, 54.78157], [14.03152, 54.78504], [14.01831, 54.82469], [14.02204, 54.8271], [14.04409, 54.82973], [14.06018, 54.82979], [14.07378, 54.83468]]}}, {"type": "Feature", "properties": {"name": "Ostwind 1-2 Ltg 261", "layer": "cables", "kind": "power"}, "geometry": {"type": "LineString", "coordinates": [[14.09786, 54.78693], [14.06088, 54.77386], [14.04313, 54.77173], [14.04027, 54.77228], [14.03641, 54.7774], [14.03101, 54.78028]]}}, {"type": "Feature", "properties": {"name": "Ostwind 1-1 Ltg 281", "layer": "cables", "kind": "power"}, "geometry": {"type": "LineString", "coordinates": [[14.03101, 54.78028], [14.03405, 54.78156], [14.03487, 54.78303], [14.03175, 54.79335], [14.03237, 54.7952], [14.035, 54.79666], [14.06846, 54.80115], [14.09048, 54.80596], [14.09134, 54.80674], [14.09176, 54.8098], [14.08578, 54.81476], [14.08258, 54.81894], [14.08271, 54.82203], [14.08577, 54.82678], [14.08595, 54.83062], [14.08314, 54.83277], [14.08038, 54.83346], [14.07571, 54.83334], [14.07378, 54.83468]]}}, {"type": "Feature", "properties": {"name": "Ostwind 2-2", "layer": "cables", "kind": "power"}, "geometry": {"type": "LineString", "coordinates": [[13.93682, 54.75764], [13.93955, 54.75903], [13.9368, 54.76735], [13.93788, 54.77067], [13.92166, 54.8181], [13.9188, 54.82051], [13.91546, 54.82156], [13.91149, 54.82169], [13.90468, 54.82035], [13.89935, 54.82099]]}}, {"type": "Feature", "properties": {"name": "C-Lion 1", "layer": "cables", "kind": "telecom"}, "geometry": {"type": "LineString", "coordinates": [[25.04935, 60.13759], [25.04378, 60.12998], [25.11649, 60.12032], [25.13359, 60.10747], [25.15055, 60.10413], [25.16235, 60.09648], [25.204, 60.03065], [25.22454, 60.01897], [25.2405, 59.96681], [25.28181, 59.94314], [25.28278, 59.93585], [25.27029, 59.92849], [25.1386, 59.92318], [25.12708, 59.91765], [25.10878, 59.89667], [25.07024, 59.90016], [25.00198, 59.893], [24.9805, 59.88682], [24.96411, 59.87568], [24.91361, 59.86799], [24.81316, 59.84281], [24.77918, 59.8445], [24.76295, 59.84184], [24.64703, 59.8055], [24.61512, 59.799], [24.55888, 59.77818], [24.52103, 59.771], [24.47097, 59.77], [24.43315, 59.75985], [24.40895, 59.74514], [24.37066, 59.74252], [24.34651, 59.73471], [24.33095, 59.73367], [24.25012, 59.70385], [24.12682, 59.67249], [24.00704, 59.6515], [23.9783, 59.64966], [23.80768, 59.62218], [23.72802, 59.61616], [23.62995, 59.60082], [23.60205, 59.60103], [23.4958, 59.57796], [23.48714, 59.57539], [23.41435, 59.56418], [23.36907, 59.56333], [23.28222, 59.55302], [23.19604, 59.53649], [23.14814, 59.53236], [23.11922, 59.52117], [23.08584, 59.52087], [22.96414, 59.5034], [22.92883, 59.49455], [22.82275, 59.4862], [22.67652, 59.46329], [22.57502, 59.45523], [22.52507, 59.44737], [22.43254, 59.42263], [22.34448, 59.41599], [22.27914, 59.39879], [22.14246, 59.38463], [22.10432, 59.37395], [22.0188, 59.36469], [21.99442, 59.35384], [21.92089, 59.34424], [21.81493, 59.31969], [21.6834, 59.29901], [21.56278, 59.27047], [21.50148, 59.26921], [21.28921, 59.22711], [21.19397, 59.21906], [21.1657, 59.20805], [21.13242, 59.20604], [21.10272, 59.18835], [21.08305, 59.15395], [21.0312, 59.12049], [20.99902, 59.10765], [20.96348, 59.08468], [20.86005, 59.03413], [20.84537, 59.0321], [20.82013, 59.03641], [20.80995, 59.03362], [20.73256, 58.98243], [20.69373, 58.97215], [20.67232, 58.95763], [20.53743, 58.90513], [20.46969, 58.86535], [20.45498, 58.85366], [20.43153, 58.83206], [20.40204, 58.81512], [20.37583, 58.79823], [20.359, 58.78543], [20.3329, 58.75196], [20.32596, 58.73711], [20.32329, 58.71943], [20.31069, 58.69971], [20.28852, 58.6838], [20.27132, 58.66989], [20.26481, 58.66244], [20.25609, 58.6563], [20.2171, 58.60239], [20.19889, 58.5741], [20.18246, 58.52218], [20.17269, 58.50692], [20.16294, 58.49604], [20.14325, 58.46562], [20.13197, 58.45399], [20.12442, 58.44905], [20.09443, 58.43475], [20.08742, 58.43016], [20.07589, 58.41727], [20.0489, 58.38291], [20.01715, 58.33849], [20.01262, 58.32617], [20.01119, 58.31803], [20.00716, 58.31121], [19.99447, 58.2992], [19.99109, 58.29366], [19.9751, 58.27638], [19.95406, 58.23772], [19.91871, 58.18103], [19.87096, 58.08979], [19.85316, 58.0659], [19.76123, 57.92682], [19.68832, 57.84871], [19.64436, 57.79438], [19.62596, 57.75321], [19.61348, 57.73016], [19.56014, 57.65888], [19.54606, 57.64251], [19.52519, 57.59815], [19.48752, 57.53092], [19.48024, 57.52006], [19.46242, 57.50643], [19.45069, 57.49981], [19.43776, 57.49075], [19.42393, 57.47767], [19.41162, 57.45063], [19.34469, 57.3482], [19.29387, 57.27471], [19.2625, 57.23238], [19.20882, 57.15193], [19.15497, 57.07472], [18.98555, 56.8185], [18.91524, 56.72134], [18.90226, 56.70267], [18.89767, 56.6936], [18.86089, 56.64295], [18.85018, 56.63201], [18.8414, 56.62006], [18.82185, 56.58472], [18.79986, 56.55654], [18.78922, 56.53791], [18.7802, 56.53075], [18.73902, 56.50278], [18.72192, 56.48723], [18.70705, 56.47572], [18.68308, 56.44963], [18.65592, 56.42295], [18.61011, 56.38344], [18.56368, 56.34645], [18.51212, 56.3338], [18.10613, 56.25344], [17.87344, 56.17481], [17.6449, 56.09209], [17.21572, 55.93908], [17.08353, 55.89255], [16.99617, 55.85952], [16.70697, 55.75502], [16.52171, 55.68869], [16.42668, 55.6724], [16.12611, 55.61752], [15.93797, 55.5851], [15.87199, 55.57448], [15.82028, 55.56438], [15.71181, 55.54582], [15.66155, 55.53811], [15.55165, 55.51765], [15.47196, 55.50627], [15.37949, 55.49077], [15.29081, 55.47444], [15.23376, 55.4654], [15.15707, 55.44347], [15.01979, 55.4266], [14.81166, 55.39087], [14.69781, 55.3372], [14.60997, 55.31323], [14.50895, 55.23745], [14.45282, 55.19975], [14.35626, 55.13141], [14.153, 54.97974], [14.02133, 54.94879], [13.69865, 54.89233], [13.68735, 54.88931], [13.67048, 54.88748], [13.6346, 54.88679], [13.61324, 54.88721], [13.59108, 54.88486], [13.55387, 54.8786], [13.53349, 54.87691], [13.52467, 54.87716], [13.51974, 54.87815], [13.51243, 54.88124], [13.48387, 54.90178], [13.47556, 54.90649], [13.42858, 54.94279], [13.41946, 54.94647], [13.40936, 54.94864], [13.38919, 54.9502], [13.30123, 54.94283], [13.0922, 54.91354], [13.08713, 54.91351], [13.06962, 54.91588], [12.98685, 54.93847], [12.67893, 54.84378], [12.18072, 54.6588], [12.15809, 54.6457], [12.15333, 54.62928], [12.15058, 54.5656], [12.14404, 54.54395], [12.1255, 54.52828], [12.09539, 54.50737], [12.07581, 54.48907], [12.06493, 54.48183], [12.03609, 54.47223], [12.02457, 54.4674], [12.024, 54.46278], [12.05691, 54.40777], [12.066, 54.39131], [12.07315, 54.37459], [12.08293, 54.34378], [12.08103, 54.34144], [12.06895, 54.3352], [12.06627, 54.33217], [12.06577, 54.32935], [12.07099, 54.31412], [12.07418, 54.30903], [12.10911, 54.2207], [12.11879, 54.20343], [12.12552, 54.19901], [12.13809, 54.19427]]}}, {"type": "Feature", "properties": {"name": "Aarhus-Kalundborg", "layer": "cables", "kind": "telecom"}, "geometry": {"type": "LineString", "coordinates": [[11.01131, 55.73974], [11.0255, 55.82512], [11.02767, 55.86996], [11.03898, 55.9157], [11.03537, 55.94738], [11.02478, 55.95977], [10.96751, 55.9797], [10.83872, 55.98586], [10.77363, 56.00738], [10.63901, 56.04853], [10.53458, 56.07083], [10.50138, 56.0711], [10.43834, 56.11352], [10.35412, 56.14624], [10.31803, 56.15937], [10.31562, 56.16956], [10.2983, 56.17277], [10.27279, 56.18911], [10.24151, 56.18081]]}}, {"type": "Feature", "properties": {"name": "Ellekilde Hage-Viken", "layer": "cables", "kind": "telecom"}, "geometry": {"type": "LineString", "coordinates": [[12.48929, 56.09262], [12.49411, 56.09799], [12.57543, 56.13421], [12.58795, 56.13421]]}}, {"type": "Feature", "properties": {"name": "Baltica", "layer": "cables", "kind": "telecom"}, "geometry": {"type": "LineString", "coordinates": [[13.76758, 55.42571], [13.7785, 55.40325], [13.78122, 55.3583], [13.91764, 55.27602], [14.70202, 55.1476]]}}, {"type": "Feature", "properties": {"name": "Great Belt 1", "layer": "cables", "kind": "telecom"}, "geometry": {"type": "LineString", "coordinates": [[10.81591, 55.32495], [10.8773, 55.33775], [10.92027, 55.35249], [11.08874, 55.35559]]}}, {"type": "Feature", "properties": {"name": "Scandinavian Ring North", "layer": "cables", "kind": "telecom"}, "geometry": {"type": "LineString", "coordinates": [[12.61333, 56.04366], [12.61658, 56.0483], [12.66807, 56.06335], [12.67842, 56.06288]]}}, {"type": "Feature", "properties": {"name": "Great Belt 2", "layer": "cables", "kind": "telecom"}, "geometry": {"type": "LineString", "coordinates": [[10.75043, 55.40016], [10.89503, 55.45744], [10.9305, 55.48218], [11.03691, 55.64957]]}}, {"type": "Feature", "properties": {"name": "Hou-Sælvig", "layer": "cables", "kind": "telecom"}, "geometry": {"type": "LineString", "coordinates": [[10.26437, 55.93737], [10.34377, 55.93198], [10.40056, 55.91149], [10.52881, 55.89105], [10.54445, 55.87729], [10.55528, 55.87675], [10.56815, 55.8731], [10.56804, 55.86841]]}}, {"type": "Feature", "properties": {"name": "Scandinavian Ring South", "layer": "cables", "kind": "telecom"}, "geometry": {"type": "LineString", "coordinates": [[12.67673, 55.58807], [12.69021, 55.5825], [12.71018, 55.58314], [12.7971, 55.55175], [12.85329, 55.54501], [12.85972, 55.54283], [12.90839, 55.54263]]}}, {"type": "Feature", "properties": {"name": "Fehmarn Belt", "layer": "cables", "kind": "telecom"}, "geometry": {"type": "LineString", "coordinates": [[11.20742, 54.51036], [11.29882, 54.64161], [11.33838, 54.6574]]}}, {"type": "Feature", "properties": {"name": "Ballen-Røsnæs", "layer": "cables", "kind": "telecom"}, "geometry": {"type": "LineString", "coordinates": [[10.63949, 55.79013], [10.64767, 55.78661], [10.81869, 55.76076], [10.85653, 55.75386], [10.87175, 55.75084], [10.87439, 55.74902], [10.87692, 55.74407]]}}, {"type": "Feature", "properties": {"name": "Sylling - Tegneby", "layer": "cables", "kind": "power"}, "geometry": {"type": "LineString", "coordinates": [[10.64853, 59.57733], [10.64768, 59.57921], [10.63987, 59.58095], [10.62731, 59.5913], [10.6169, 59.59167]]}}, {"type": "Feature", "properties": {"name": "Fenno-Skan", "layer": "cables", "kind": "power"}, "geometry": {"type": "LineString", "coordinates": [[18.16224, 60.4121], [18.17387, 60.41652], [18.21747, 60.42228], [18.24263, 60.48507], [18.30753, 60.55367], [18.49078, 60.60452], [19.16153, 60.74719], [20.45925, 60.94326], [20.66419, 61.00926], [21.06922, 61.13454], [21.18675, 61.11922], [21.23131, 61.10113], [21.23383, 61.09178], [21.23683, 61.08717], [21.2426, 61.085], [21.27026, 61.08483], [21.27227, 61.08431], [21.27056, 61.08315], [21.27308, 61.08403], [21.28957, 61.07743], [21.30483, 61.07695]]}}, {"type": "Feature", "properties": {"name": "Bornholm Cable", "layer": "cables", "kind": "power"}, "geometry": {"type": "LineString", "coordinates": [[14.23333, 55.42981], [14.26028, 55.41944], [14.34222, 55.37833], [14.46611, 55.27056], [14.66444, 55.1775], [14.70528, 55.17321]]}}, {"type": "Feature", "properties": {"name": "BCS North - Phase 2", "layer": "cables", "kind": "telecom"}, "geometry": {"type": "LineString", "coordinates": [[26.90958, 60.41679], [26.89981, 60.41198], [26.90989, 60.40149], [26.9064, 60.38597], [26.90814, 60.37462], [26.88857, 60.34724], [26.88369, 60.33584], [26.87725, 60.32621], [26.86815, 60.31452], [26.86206, 60.30862], [26.86372, 60.30376], [26.84999, 60.29234], [26.82151, 60.25507], [26.8327, 60.24291], [26.86924, 60.22617], [26.88613, 60.21616], [26.90086, 60.20909], [26.90999, 60.20307], [26.92376, 60.19821], [26.95275, 60.19371], [26.96253, 60.19082], [26.97495, 60.19072], [26.98676, 60.18832], [26.99752, 60.17159], [27.16277, 60.06915], [27.19485, 60.0521], [27.27168, 60.0066], [27.67644, 59.9342], [27.82593, 59.9041], [27.9745, 59.91401], [28.05008, 59.94659], [28.33758, 59.92976], [28.48913, 59.86831], [28.56589, 59.85022], [28.55168, 59.84504]]}}, {"type": "Feature", "properties": {"name": "BCS North - Phase 2", "layer": "cables", "kind": "telecom"}, "geometry": {"type": "LineString", "coordinates": [[24.98025, 60.14406], [24.97866, 60.14219], [24.98275, 60.13744], [24.99913, 60.12444], [25.01021, 60.11687], [25.01664, 60.11565], [25.05431, 60.11237], [25.07601, 60.11303], [25.0992, 60.11223], [25.11008, 60.10744], [25.13426, 60.10332], [25.16531, 60.1035], [25.17565, 60.10214], [25.19655, 60.10507], [25.22716, 60.10527], [25.26765, 60.10114], [25.36532, 60.09804], [25.38861, 60.09901], [25.40141, 60.09481], [25.41985, 60.0826], [25.43276, 60.07785], [25.44103, 60.07324], [25.48326, 60.06562], [25.51156, 60.06215], [25.52426, 60.05922], [25.54214, 60.05733], [25.55293, 60.05723], [25.60085, 60.05136], [25.69427, 60.03169], [25.7041, 60.02778], [25.72663, 60.02523], [25.75429, 60.01909], [25.76834, 60.01215], [25.78805, 60.00613], [25.83246, 60.00367], [25.89778, 60.00408], [25.92804, 60.00155], [26.08368, 60.02985], [26.0935, 60.03373], [26.12725, 60.03869], [26.13781, 60.03957], [26.23366, 60.04193], [26.24055, 60.04615], [26.25003, 60.04878], [26.25897, 60.05238], [26.44597, 60.08428], [26.48015, 60.09995], [26.49206, 60.10413], [26.50386, 60.10665], [26.61605, 60.14481], [26.67641, 60.16748], [26.69166, 60.17636], [26.76758, 60.21175], [26.80021, 60.2258], [26.80941, 60.2331], [26.82726, 60.24328], [26.81562, 60.25603], [26.8401, 60.28647], [26.85187, 60.30462], [26.86823, 60.32377], [26.89831, 60.36635], [26.9045, 60.40274], [26.89868, 60.41213], [26.90012, 60.41351], [26.9095, 60.41678]]}}, {"type": "Feature", "properties": {"name": "Estlink 1", "layer": "cables", "kind": "power"}, "geometry": {"type": "LineString", "coordinates": [[24.55197, 59.43913], [24.55062, 59.44275], [24.54184, 59.45417], [24.46047, 59.48966], [24.4605, 59.49734], [24.48333, 59.51267], [24.48, 59.53333], [24.44865, 59.55167], [24.44045, 59.60043], [24.44669, 59.63347], [24.44898, 59.66399], [24.391, 59.71085], [24.39048, 59.71673], [24.39305, 59.73444], [24.40822, 59.75766], [24.42541, 59.8036], [24.44212, 59.81731], [24.44096, 59.81942], [24.45098, 59.85924], [24.44201, 59.86587], [24.44296, 59.86759], [24.43784, 59.87059], [24.43654, 59.87497], [24.43304, 59.87821], [24.43224, 59.88087], [24.42782, 59.88419], [24.4303, 59.89208], [24.42695, 59.90301], [24.43007, 59.90837], [24.42934, 59.91387], [24.41439, 59.91972], [24.39637, 59.92328], [24.396, 59.92531], [24.39918, 59.93336], [24.3967, 59.93722], [24.39149, 59.94135], [24.38659, 59.95011], [24.38666, 59.95908], [24.38344, 59.96005], [24.37361, 59.9606], [24.36997, 59.96964], [24.39377, 59.98752], [24.40444, 59.99186], [24.41016, 59.99668], [24.41794, 60.01163], [24.43058, 60.01662], [24.43871, 60.02997], [24.44346, 60.03508], [24.46112, 60.04561], [24.47147, 60.06035], [24.47663, 60.06535]]}}, {"type": "Feature", "properties": {"name": "Finland Estonia Connection (FEC)", "layer": "cables", "kind": "telecom"}, "geometry": {"type": "LineString", "coordinates": [[24.67817, 59.46397], [24.6735, 59.48368], [24.68285, 59.49185], [24.67882, 59.51476], [24.68286, 59.52818], [24.69815, 59.53535], [24.70184, 59.539], [24.70148, 59.54316], [24.69702, 59.54934], [24.69315, 59.55785], [24.69599, 59.56918], [24.69265, 59.58897], [24.68252, 59.60483], [24.68252, 59.6212], [24.68551, 59.62703], [24.69767, 59.63869], [24.69767, 59.6605], [24.69184, 59.66832], [24.63155, 59.70388], [24.62614, 59.71201], [24.63285, 59.75562], [24.69185, 59.78818], [24.7357, 59.81896], [24.80026, 59.85373], [24.80898, 59.85747], [24.82904, 59.86825], [24.83639, 59.87546], [24.83417, 59.88282], [24.83732, 59.88693], [24.8475, 59.89155], [24.85243, 59.90047], [24.86308, 59.91487], [24.87554, 59.92484], [24.8841, 59.94062], [24.8843, 59.95093], [24.89229, 59.96194], [24.89652, 59.97883], [24.90135, 59.9832], [24.90728, 59.9848], [24.90875, 59.98809], [24.91631, 59.99305], [24.92052, 60.00249], [24.91551, 60.01591], [24.91314, 60.02708], [24.902, 60.03668], [24.89516, 60.05064], [24.8941, 60.05768], [24.89518, 60.06218], [24.89277, 60.06723], [24.88792, 60.10665], [24.87875, 60.11004], [24.87905, 60.11749], [24.8813, 60.11964], [24.88149, 60.12349], [24.87318, 60.12624], [24.87102, 60.13092], [24.87121, 60.13659], [24.88288, 60.1414], [24.88297, 60.14615]]}}, {"type": "Feature", "properties": {"name": "Finland Estonia Connection (FEC)", "layer": "cables", "kind": "telecom"}, "geometry": {"type": "LineString", "coordinates": [[24.91056, 59.50624], [24.92832, 59.5125], [24.92498, 59.5642], [24.93834, 59.57501], [24.93666, 59.61478], [24.84265, 59.65503], [24.84183, 59.67637], [24.82793, 59.70123], [24.82385, 59.71279], [24.82334, 59.72246], [24.82081, 59.73275], [24.821, 59.74169], [24.8418, 59.75983], [24.84168, 59.77034], [24.83868, 59.77466], [24.84179, 59.78051], [24.84132, 59.79138], [24.8483, 59.79813], [24.86091, 59.82119], [24.86274, 59.82844], [24.85283, 59.84563], [24.85818, 59.89612], [24.84636, 59.9153], [24.84233, 59.91847], [24.842, 59.93333], [24.84844, 59.94635], [24.86036, 59.9477], [24.86409, 59.95131], [24.8941, 59.95868], [24.88179, 59.98494], [24.8736, 59.99192], [24.88876, 60.00371], [24.89228, 60.01193], [24.8899, 60.01666], [24.88583, 60.02025], [24.88549, 60.02532], [24.90579, 60.0369], [24.90744, 60.06116], [24.89909, 60.07259], [24.89902, 60.09693], [24.881, 60.11775], [24.87916, 60.1247], [24.87188, 60.12816], [24.86736, 60.13512], [24.86876, 60.13774], [24.87738, 60.13933], [24.88207, 60.14229], [24.8837, 60.14466]]}}, {"type": "Feature", "properties": {"name": "Finland-Estonia 2 (EESF-2)", "layer": "cables", "kind": "telecom"}, "geometry": {"type": "LineString", "coordinates": [[24.87464, 59.55072], [24.8771, 59.55367], [24.87912, 59.56577], [24.80361, 59.6549], [24.8177, 59.78421], [24.83592, 59.79447], [24.83726, 59.81708], [24.82554, 59.84228], [24.82109, 59.8563], [24.79732, 59.87883], [24.79721, 59.90254], [24.83963, 59.93705], [24.8603, 59.96359], [24.87884, 59.96923], [24.92991, 60.02084], [24.91916, 60.04651], [24.92144, 60.05265], [24.92709, 60.05652], [24.94537, 60.07882], [24.9744, 60.11725], [24.97417, 60.131], [24.95455, 60.14828], [24.95331, 60.15076], [24.95594, 60.15359]]}}, {"type": "Feature", "properties": {"name": "Finland-Estonia 3 (EESF-3)", "layer": "cables", "kind": "telecom"}, "geometry": {"type": "LineString", "coordinates": [[24.26199, 59.40371], [24.19617, 59.46519], [24.38023, 59.68019], [24.39768, 59.733], [24.45404, 59.75563], [24.51386, 59.78414], [24.5256, 59.8045], [24.53111, 59.82183], [24.52983, 59.82721], [24.54123, 59.83348], [24.53856, 59.83774], [24.54013, 59.84337], [24.53774, 59.84745], [24.55812, 59.85399], [24.57471, 59.86219], [24.5839, 59.87084], [24.58602, 59.88042], [24.55706, 59.92468], [24.54112, 59.96424], [24.53927, 59.96661], [24.53006, 59.96766], [24.52745, 59.97072], [24.52771, 59.97349], [24.52154, 59.97656], [24.52022, 59.97829], [24.52239, 59.99327], [24.51858, 60.00292], [24.51474, 60.00561]]}}, {"type": "Feature", "properties": {"name": "Baltic Sea Submarine Cable", "layer": "cables", "kind": "telecom"}, "geometry": {"type": "LineString", "coordinates": [[24.57528, 59.451], [24.5502, 59.45167], [24.49032, 59.47196], [24.45333, 59.48333], [24.45367, 59.50801], [24.45817, 59.51336], [24.45948, 59.51783], [24.45583, 59.52406], [24.45327, 59.5403], [24.44247, 59.55483], [24.427, 59.66514], [24.3786, 59.70706], [24.38035, 59.72197], [24.38716, 59.73931], [24.38599, 59.74532], [24.39519, 59.77482], [24.39555, 59.78377], [24.39878, 59.79925], [24.3961, 59.8028], [24.40253, 59.80453], [24.4041, 59.80824], [24.40144, 59.82886], [24.39537, 59.84206], [24.41393, 59.85289], [24.41632, 59.86013], [24.40015, 59.86987], [24.39768, 59.87476], [24.40089, 59.88427], [24.41048, 59.89132], [24.41445, 59.89603], [24.41968, 59.89829], [24.42038, 59.90075], [24.41853, 59.91115], [24.3997, 59.9123], [24.39411, 59.9169], [24.3958, 59.92718], [24.39959, 59.93248], [24.39255, 59.94247], [24.40343, 59.95676], [24.40572, 59.96604], [24.40827, 59.96792]]}}, {"type": "Feature", "properties": {"name": "Baltic Sea Submarine Cable", "layer": "cables", "kind": "telecom"}, "geometry": {"type": "LineString", "coordinates": [[18.92241, 59.2839], [18.92811, 59.28332], [18.95736, 59.27123], [18.99573, 59.261], [19.00881, 59.25904], [19.02769, 59.25232], [19.03364, 59.25186], [19.04691, 59.2479], [19.05371, 59.24908], [19.06294, 59.24774], [19.06667, 59.24824], [19.07597, 59.2531], [19.11238, 59.25833], [19.11612, 59.25871], [19.1351, 59.25617], [19.14275, 59.25825], [19.14956, 59.25855], [19.18866, 59.26442], [19.19997, 59.26329], [19.21, 59.26381], [19.21378, 59.26509], [19.23865, 59.26344], [19.26591, 59.25837], [19.28683, 59.25755], [19.31074, 59.25335], [19.33628, 59.2508], [19.3509, 59.25527], [19.36787, 59.25488], [19.39059, 59.25126], [19.40565, 59.25351], [19.42232, 59.25896], [19.43872, 59.26035], [19.46373, 59.25642], [19.48443, 59.25456], [19.51951, 59.25294], [19.5254, 59.25447], [19.53059, 59.25438], [19.54517, 59.25083], [19.58058, 59.24995], [19.60182, 59.24562], [19.61497, 59.24499], [19.64073, 59.24627], [19.68229, 59.24164], [19.69778, 59.24383], [19.71596, 59.24464], [20.6596, 59.22751], [20.74358, 59.22618], [20.87059, 59.22657], [20.88874, 59.22758], [20.89662, 59.22931], [20.95939, 59.22543], [21.0017, 59.22134], [21.23452, 59.2093], [21.36541, 59.20322], [21.39758, 59.20507], [21.45523, 59.20332], [21.48147, 59.20038], [21.52392, 59.19881], [21.61616, 59.19905], [21.64647, 59.19663], [21.8314, 59.19753], [21.84132, 59.19886], [21.86227, 59.19748], [21.88637, 59.19724], [21.9051, 59.19264], [21.94199, 59.18775], [21.97017, 59.18509], [22.05379, 59.16989], [22.17837, 59.14489], [22.19543, 59.1447], [22.22139, 59.14147], [22.25012, 59.13253], [22.35571, 59.11792], [22.43367, 59.11079], [22.47371, 59.10322], [22.50532, 59.0986], [22.5335, 59.09148], [22.58367, 59.0846]]}}, {"type": "Feature", "properties": {"name": "Baltic Sea Submarine Cable", "layer": "cables", "kind": "telecom"}, "geometry": {"type": "LineString", "coordinates": [[22.58361, 59.08468], [22.54355, 59.09322], [22.51514, 59.10201], [22.47748, 59.11189], [22.47069, 59.11866], [22.47064, 59.14784], [22.48385, 59.18474], [22.48153, 59.19564], [22.48149, 59.23144], [22.50005, 59.25], [22.67173, 59.28212], [22.70336, 59.29037], [22.8517, 59.31797], [22.8863, 59.32197], [23.04595, 59.3511], [23.09837, 59.35859], [23.12016, 59.3648], [23.20062, 59.37949], [23.21677, 59.38355], [23.24653, 59.38909], [23.27709, 59.39214], [23.39798, 59.41382], [23.41577, 59.41952], [23.47073, 59.42935], [23.63965, 59.45207], [23.6847, 59.45612], [23.71483, 59.45282], [23.75274, 59.45821], [23.87503, 59.48357], [23.99997, 59.5], [24.20555, 59.50919], [24.25917, 59.50931], [24.2757, 59.50779], [24.41178, 59.50833], [24.42612, 59.50297], [24.44297, 59.49336], [24.46851, 59.4885], [24.52305, 59.46838], [24.53788, 59.46171], [24.55414, 59.45601], [24.57227, 59.44737]]}}, {"type": "Feature", "properties": {"name": "Fenno-Skan", "layer": "cables", "kind": "power"}, "geometry": {"type": "LineString", "coordinates": [[21.30483, 61.07695], [21.28243, 61.07614], [21.26817, 61.08312], [21.25597, 61.08474], [21.2123, 61.07729], [21.19897, 61.0771], [21.16897, 61.07207], [21.15857, 61.07114], [21.12415, 61.06196], [21.10329, 61.05944], [21.09291, 61.05572], [21.07123, 61.05124], [21.04553, 61.04778], [21.03722, 61.04773], [21.02467, 61.0453], [21.00684, 61.03963], [20.97387, 61.03478], [20.96958, 61.03209], [20.95599, 61.02822], [20.94102, 61.02838], [20.89925, 61.01998], [20.84498, 61.00566], [20.82005, 61.00257], [20.72936, 60.98517], [20.72226, 60.98167], [20.66133, 60.96816], [20.63338, 60.96549], [20.57933, 60.95336], [20.5079, 60.94101], [20.49656, 60.93631], [20.45605, 60.92807], [20.11539, 60.88322], [20.04935, 60.87208], [19.9778, 60.86361], [19.82921, 60.84174], [19.75876, 60.82661], [19.73741, 60.82693], [19.73078, 60.82612], [19.7202, 60.82335], [19.66719, 60.81666], [19.64548, 60.81255], [19.59985, 60.80716], [19.58608, 60.8031], [19.5494, 60.79944], [19.37089, 60.77354], [19.36221, 60.77044], [19.24212, 60.7529], [19.07633, 60.72688], [18.71548, 60.64153], [18.70032, 60.64203], [18.69043, 60.64073], [18.67695, 60.63335], [18.63348, 60.62727], [18.61041, 60.62043], [18.59262, 60.61414], [18.5803, 60.61173], [18.55675, 60.6102], [18.52727, 60.60062], [18.50827, 60.59988], [18.48707, 60.59557], [18.46548, 60.5872], [18.4211, 60.5772], [18.41118, 60.57593], [18.38062, 60.5644], [18.37555, 60.56353], [18.34987, 60.55115], [18.34718, 60.5479], [18.33548, 60.54352], [18.23982, 60.46292], [18.23375, 60.44995], [18.2277, 60.44255], [18.22167, 60.42167], [18.21812, 60.41963], [18.19734, 60.41222], [18.18236, 60.41141], [18.17164, 60.41365], [18.16234, 60.41203]]}}, {"type": "Feature", "properties": {"name": "Flesaker - Tegneby", "layer": "cables", "kind": "power"}, "geometry": {"type": "LineString", "coordinates": [[10.64787, 59.57584], [10.63904, 59.57626], [10.63052, 59.58034], [10.62075, 59.5799], [10.61897, 59.58136], [10.61743, 59.58128]]}}, {"type": "Feature", "properties": {"name": "HVDC Estlink 2", "layer": "cables", "kind": "power"}, "geometry": {"type": "LineString", "coordinates": [[25.52805, 60.29296], [25.5307, 60.29127], [25.52926, 60.28915], [25.53143, 60.27988], [25.52202, 60.27005], [25.51274, 60.2632], [25.50382, 60.24833], [25.50051, 60.2464], [25.49199, 60.24377], [25.48636, 60.23845], [25.46167, 60.22719], [25.45248, 60.22417], [25.45067, 60.22278], [25.43666, 60.22005], [25.43398, 60.20711], [25.42671, 60.20043], [25.42324, 60.19345], [25.41274, 60.18696], [25.40428, 60.18338], [25.39381, 60.17349], [25.38743, 60.17157], [25.38071, 60.16772], [25.3801, 60.16403], [25.38835, 60.15989], [25.38916, 60.15728], [25.39522, 60.15251], [25.42739, 60.14757], [25.43212, 60.14889], [25.44059, 60.14709], [25.45708, 60.14687], [25.46429, 60.14557], [25.47231, 60.14515], [25.48984, 60.14048], [25.49966, 60.13463], [25.51579, 60.12044], [25.52039, 60.11517], [25.52213, 60.10537], [25.52552, 60.09977], [25.53261, 60.09621], [25.53949, 60.08627], [25.54518, 60.08318], [25.55782, 60.06882], [25.56281, 60.06501], [25.57927, 60.0603], [25.61305, 60.05268], [25.61493, 60.05169], [25.61521, 60.05016], [25.61302, 60.04702], [25.61601, 60.04429], [25.63872, 60.03698], [25.65295, 60.03404], [25.67577, 60.0278], [25.68072, 60.02429], [25.68335, 60.02468], [25.70048, 60.02163], [25.72036, 60.01701], [25.72208, 60.01603], [25.75989, 60.00884], [25.77417, 60.00357], [25.77742, 60.00072], [25.79123, 59.99953], [25.80633, 59.99958], [25.81156, 59.99876], [25.81372, 59.99708], [25.8171, 59.9962], [25.84363, 59.99385], [25.87745, 59.98888], [25.88457, 59.98736], [25.88889, 59.98519], [25.8926, 59.98445], [25.94084, 59.97874], [25.97034, 59.97348], [25.9815, 59.97309], [25.98782, 59.97154], [25.99515, 59.96651], [26.02622, 59.96297], [26.03468, 59.96299], [26.04608, 59.96059], [26.08011, 59.95568], [26.09691, 59.95146], [26.10138, 59.95137], [26.09924, 59.94852], [26.10273, 59.95102], [26.23426, 59.927], [26.24195, 59.92667], [26.27662, 59.92072], [26.30324, 59.91765], [26.30925, 59.91434], [26.3984, 59.90025], [26.44812, 59.85625], [26.47663, 59.82824], [26.50862, 59.79956], [26.61675, 59.6967], [26.76768, 59.59168], [26.91508, 59.48627], [26.94775, 59.45687], [26.94954, 59.44094], [26.9451, 59.43725]]}}, {"type": "Feature", "properties": {"name": "Jåberg - Stangeby", "layer": "cables", "kind": "power"}, "geometry": {"type": "LineString", "coordinates": [[10.37613, 59.22714], [10.38065, 59.22587]]}}, {"type": "Feature", "properties": {"name": "Furnes - Nes", "layer": "cables", "kind": "power"}, "geometry": {"type": "LineString", "coordinates": [[10.95297, 60.81854], [10.99103, 60.82629]]}}, {"type": "Feature", "properties": {"name": "HVDC Gotland - Electrode Line", "layer": "cables", "kind": "power"}, "geometry": {"type": "LineString", "coordinates": [[16.65928, 57.60808], [16.6709, 57.60293]]}}, {"type": "Feature", "properties": {"name": "HVDC Gotland - Electrode Line", "layer": "cables", "kind": "power"}, "geometry": {"type": "LineString", "coordinates": [[16.63871, 57.67815], [16.63952, 57.6827]]}}, {"type": "Feature", "properties": {"name": "HVDC Gotland - Electrode Line", "layer": "cables", "kind": "power"}, "geometry": {"type": "LineString", "coordinates": [[16.62243, 57.64492], [16.62374, 57.64829]]}}, {"type": "Feature", "properties": {"name": "Begna - Fall", "layer": "cables", "kind": "power"}, "geometry": {"type": "LineString", "coordinates": [[10.36246, 60.64871], [10.33748, 60.64863]]}}, {"type": "Feature", "properties": {"name": "Hasle - Rød", "layer": "cables", "kind": "power"}, "geometry": {"type": "LineString", "coordinates": [[10.66135, 59.36478], [10.479, 59.34319]]}}, {"type": "Feature", "properties": {"name": "Grytåga - Tilrem", "layer": "cables", "kind": "power"}, "geometry": {"type": "LineString", "coordinates": [[12.40562, 65.57695], [12.3912, 65.57539], [12.37925, 65.57574], [12.3623, 65.57294], [12.35481, 65.56778], [12.33518, 65.56275], [12.3317, 65.55712], [12.32253, 65.55189]]}}, {"type": "Feature", "properties": {"name": "Grytåga - Alsten", "layer": "cables", "kind": "power"}, "geometry": {"type": "LineString", "coordinates": [[12.64736, 65.90004], [12.64162, 65.8981], [12.63685, 65.89906], [12.63404, 65.90511], [12.62413, 65.9065], [12.61467, 65.91493], [12.61031, 65.92454], [12.60756, 65.92535], [12.59808, 65.92493]]}}, {"type": "Feature", "properties": {"name": "Rørvik - Saltbotn", "layer": "cables", "kind": "power"}, "geometry": {"type": "LineString", "coordinates": [[11.31173, 64.88916], [11.31868, 64.8867]]}}, {"type": "Feature", "properties": {"name": "Strand - Rørvik", "layer": "cables", "kind": "power"}, "geometry": {"type": "LineString", "coordinates": [[11.29899, 64.87665], [11.28232, 64.88251], [11.27654, 64.88075], [11.27425, 64.88076], [11.27393, 64.8848]]}}, {"type": "Feature", "properties": {"name": "Daltrøa - (Jøa) - (Abelvær) - Strand", "layer": "cables", "kind": "power"}, "geometry": {"type": "LineString", "coordinates": [[11.28996, 64.68733], [11.28484, 64.7366]]}}, {"type": "Feature", "properties": {"name": "Ormsetfoss - Stoen", "layer": "cables", "kind": "power"}, "geometry": {"type": "LineString", "coordinates": [[10.68872, 63.84462], [10.69132, 63.8396]]}}, {"type": "Feature", "properties": {"name": "Ålmo - Utheim", "layer": "cables", "kind": "power"}, "geometry": {"type": "LineString", "coordinates": [[9.82933, 63.68966], [9.82324, 63.69628], [9.84716, 63.72031]]}}, {"type": "Feature", "properties": {"name": "Stangeby - Nes", "layer": "cables", "kind": "power"}, "geometry": {"type": "LineString", "coordinates": [[10.45443, 59.24816], [10.45145, 59.24621], [10.44518, 59.24534]]}}, {"type": "Feature", "properties": {"name": "Baltic Sea Submarine Cable", "layer": "cables", "kind": "telecom"}, "geometry": {"type": "LineString", "coordinates": [[19.65487, 59.79407], [19.66544, 59.79345], [19.70001, 59.7845], [19.75716, 59.78098], [19.80696, 59.78503], [20.29166, 59.75498], [20.42033, 59.75667], [20.5, 59.73917], [20.64967, 59.74183], [20.78333, 59.71983], [20.86633, 59.73183], [21.0, 59.73667], [21.03767, 59.75033], [21.176, 59.72267], [21.24017, 59.73883], [21.31317, 59.77792], [21.3605, 59.78442]]}}, {"type": "Feature", "properties": {"name": "Marika", "layer": "cables", "kind": "telecom"}, "geometry": {"type": "LineString", "coordinates": [[20.288, 59.95533], [20.28783, 59.95], [20.30566, 59.93133], [20.36683, 59.939], [20.40383, 59.93683], [20.40867, 59.93817], [20.42, 59.93633], [20.4405, 59.93533], [20.467, 59.9325], [20.47717, 59.933], [20.48033, 59.9325], [20.4885, 59.9345], [20.495, 59.9335], [20.4985, 59.93383], [20.506, 59.9325], [20.5095, 59.92983], [20.52233, 59.92533], [20.53483, 59.91867], [20.57267, 59.9185], [20.5805, 59.91683], [20.59033, 59.9165], [20.60167, 59.91783], [20.635, 59.92567], [20.67867, 59.92033], [20.7135, 59.91133], [20.737, 59.914], [20.74717, 59.914], [20.76033, 59.91533], [20.76667, 59.918], [20.81483, 59.926], [20.82617, 59.923], [20.85583, 59.92982], [20.85767, 59.93117], [20.8565, 59.93533], [20.86067, 59.9445], [20.86833, 59.94633], [20.87183, 59.95017], [20.87833, 59.95217], [20.8885, 59.959], [20.8935, 59.96083], [20.8955, 59.96317], [20.919, 59.96483], [20.93767, 59.96433], [20.96667, 59.967], [20.97533, 59.96883], [21.00583, 59.96917], [21.03667, 59.9725], [21.055, 59.9715], [21.113, 59.97233], [21.1315, 59.979], [21.15267, 59.98283], [21.15383, 59.98517], [21.16283, 59.989], [21.16467, 59.9915], [21.1635, 59.99467], [21.1645, 59.99833], [21.17217, 59.9995], [21.17467, 60.00083], [21.1805, 60.00867], [21.19483, 60.01333], [21.232, 60.01783], [21.23817, 60.02], [21.25017, 60.02017], [21.25483, 60.0235], [21.27533, 60.02417], [21.28233, 60.0265], [21.28867, 60.027], [21.3155, 60.03483], [21.3435, 60.04583], [21.34717, 60.05183], [21.37183, 60.06567], [21.39133, 60.07917], [21.40333, 60.08283], [21.4035, 60.088], [21.41067, 60.09217], [21.4465, 60.10133], [21.45617, 60.10567], [21.46267, 60.11583]]}}, {"type": "Feature", "properties": {"name": "Eastern Light Sweden-Finland I", "layer": "cables", "kind": "telecom"}, "geometry": {"type": "LineString", "coordinates": [[21.36591, 59.78527], [21.34158, 59.78319], [21.31991, 59.78221], [21.31279, 59.78093], [21.30661, 59.77885], [21.30295, 59.77894], [21.29625, 59.77569], [21.29505, 59.77369], [21.28511, 59.77033], [21.26223, 59.76007], [21.25759, 59.7571], [21.24415, 59.75227], [21.23564, 59.74705], [21.22695, 59.74309], [21.21445, 59.73361], [21.20911, 59.72622], [21.17766, 59.69488], [21.16819, 59.68343], [21.13834, 59.68077], [21.1328, 59.68094], [21.09963, 59.67858], [21.0819, 59.67832], [21.04389, 59.67536], [21.02938, 59.67506], [20.99175, 59.67236], [20.96823, 59.66966], [20.93704, 59.66838], [20.89289, 59.66464], [20.87875, 59.66465], [20.85922, 59.66256], [20.8546, 59.66294], [20.82331, 59.66062], [20.81884, 59.65972], [20.81028, 59.65962], [20.80254, 59.65827], [20.78175, 59.65765], [20.75595, 59.65614], [20.75032, 59.65499], [20.7003, 59.65261], [20.68665, 59.65061], [20.67694, 59.6507], [20.66553, 59.64895], [20.62408, 59.64607], [20.61878, 59.64658], [20.60313, 59.64443], [20.58887, 59.64383], [20.58618, 59.64288], [20.55949, 59.64096], [20.55245, 59.6418], [20.5384, 59.64066], [20.53376, 59.64095], [20.47286, 59.63522], [20.45536, 59.63405], [20.446, 59.63445], [20.41403, 59.63114], [20.36491, 59.62867], [20.31534, 59.6239], [20.24468, 59.61992], [20.23601, 59.61859], [20.2082, 59.61765], [20.20063, 59.61626], [20.18471, 59.61491], [20.15103, 59.61231], [20.13295, 59.61166], [20.13096, 59.61094], [20.10958, 59.60934], [20.1004, 59.60924], [20.09618, 59.60792], [20.08847, 59.60731], [20.06235, 59.60544], [20.04882, 59.60556], [20.04487, 59.60519], [20.03816, 59.60299], [20.0201, 59.60293], [19.99378, 59.60073], [19.98348, 59.60065], [19.97082, 59.59816], [19.96173, 59.59858], [19.94462, 59.59664], [19.93847, 59.59657]]}}, {"type": "Feature", "properties": {"name": "Marika", "layer": "cables", "kind": "telecom"}, "geometry": {"type": "LineString", "coordinates": [[20.00552, 60.02643], [20.00933, 60.0265], [20.01416, 60.023], [20.01933, 60.021], [20.02416, 60.0155], [20.0275, 60.00483], [20.0765, 59.97533], [20.08566, 59.96267], [20.12566, 59.9595], [20.1415, 59.95733], [20.14466, 59.95617], [20.1665, 59.9555], [20.18066, 59.95817], [20.18516, 59.95383], [20.1895, 59.95367], [20.20066, 59.95733], [20.22366, 59.95933], [20.2485, 59.95633], [20.27183, 59.9545], [20.288, 59.95533], [20.28816, 59.958], [20.28116, 59.96617], [20.27478, 59.96713]]}}, {"type": "Feature", "properties": {"name": "BCS North", "layer": "cables", "kind": "telecom"}, "geometry": {"type": "LineString", "coordinates": [[20.06717, 60.11743], [20.21122, 60.16458], [20.2306, 60.16979], [20.23714, 60.16913], [20.2451, 60.16714], [20.25702, 60.16899], [20.26541, 60.1669], [20.2698, 60.16509], [20.27647, 60.15967], [20.2902, 60.15363], [20.2965, 60.14978], [20.30022, 60.14483], [20.31386, 60.1455], [20.31994, 60.14041], [20.33396, 60.13394], [20.35343, 60.13212], [20.37253, 60.13302], [20.42861, 60.13032], [20.44867, 60.12836], [20.46175, 60.12999], [20.48528, 60.13521], [20.50394, 60.12934], [20.53158, 60.12963], [20.57135, 60.13961], [20.5932, 60.14018], [20.62994, 60.15139], [20.64706, 60.15482], [20.65701, 60.15502], [20.66938, 60.15862], [20.68947, 60.13526], [20.72933, 60.13927], [20.75296, 60.14303], [20.77407, 60.14062], [20.80464, 60.1433], [20.82305, 60.14089], [20.82741, 60.13887], [20.83896, 60.1372], [20.86622, 60.13546], [20.87229, 60.13241], [20.88173, 60.13122], [20.88966, 60.13269], [20.89465, 60.1328], [20.89507, 60.13477], [20.89645, 60.13514], [20.90621, 60.13566], [20.91804, 60.13467], [20.92467, 60.13234], [20.99375, 60.13175], [20.99766, 60.13046], [21.00599, 60.13051], [21.016, 60.12604], [21.02287, 60.12751], [21.0551, 60.12658], [21.06184, 60.12727], [21.07056, 60.13096], [21.07402, 60.12992], [21.07918, 60.13031], [21.0879, 60.12852], [21.09692, 60.12868], [21.10003, 60.13186], [21.14062, 60.13396], [21.1482, 60.13505], [21.16034, 60.13496], [21.18515, 60.13733], [21.20236, 60.1349], [21.21331, 60.13767], [21.23431, 60.13417], [21.24963, 60.13382], [21.2789, 60.13122], [21.30144, 60.13376], [21.31699, 60.13256], [21.35654, 60.13371], [21.42223, 60.14162], [21.44245, 60.15363], [21.44687, 60.15542], [21.47681, 60.17966], [21.49542, 60.19031], [21.51853, 60.19143], [21.53565, 60.19437], [21.56547, 60.20582], [21.5938, 60.21239], [21.63546, 60.21159], [21.67034, 60.21724], [21.68635, 60.21822], [21.71449, 60.22165], [21.72417, 60.21905], [21.74034, 60.21639], [21.76507, 60.22269], [21.78766, 60.22451], [21.80395, 60.22258], [21.81347, 60.21928], [21.82114, 60.22089], [21.82817, 60.22097], [21.84346, 60.22364], [21.90127, 60.22347], [21.94926, 60.22537], [21.97024, 60.22742], [22.00749, 60.22784], [22.02617, 60.22274], [22.05277, 60.22306], [22.05928, 60.22446], [22.09744, 60.22556], [22.10715, 60.22252], [22.11345, 60.20702], [22.13119, 60.20266], [22.15791, 60.202], [22.16233, 60.20326], [22.16886, 60.20132], [22.18957, 60.20346], [22.20125, 60.20356]]}}, {"type": "Feature", "properties": {"name": "Fenno-Skan elektrodi", "layer": "cables", "kind": "telecom"}, "geometry": {"type": "LineString", "coordinates": [[21.2873, 60.96953], [21.28494, 60.9675], [21.27951, 60.96635], [21.25602, 60.97026], [21.24114, 60.97365], [21.23654, 60.97355], [21.23453, 60.97219], [21.25472, 60.96468], [21.25791, 60.96473], [21.26829, 60.96729], [21.2762, 60.96614], [21.2821, 60.96609], [21.28624, 60.96755], [21.28753, 60.96953]]}}, {"type": "Feature", "properties": {"name": "C-Lion 1", "layer": "cables", "kind": "telecom"}, "geometry": {"type": "LineString", "coordinates": [[22.97325, 59.82205], [22.98648, 59.81271], [22.98993, 59.80772], [22.99009, 59.80053], [22.97427, 59.79161], [22.96825, 59.7857], [22.96943, 59.7818], [22.98567, 59.76458], [22.98673, 59.7593], [22.98484, 59.75445], [22.98389, 59.73459], [22.98617, 59.73182], [22.99064, 59.72944], [23.01938, 59.72034], [23.02379, 59.71675], [23.0277, 59.71059], [23.0374, 59.70495], [23.05943, 59.69853], [23.07612, 59.68973], [23.09807, 59.68267], [23.10732, 59.67841], [23.12538, 59.67466], [23.13477, 59.6743], [23.1615, 59.67002], [23.19903, 59.66062], [23.20745, 59.6557], [23.21691, 59.65321], [23.22949, 59.65047], [23.2468, 59.6483], [23.27388, 59.64749], [23.27884, 59.64636], [23.28346, 59.64367], [23.29085, 59.64108], [23.29953, 59.64055], [23.31708, 59.6371], [23.33998, 59.63625], [23.35885, 59.63417], [23.37144, 59.63072], [23.40351, 59.62471], [23.41177, 59.62396], [23.41877, 59.62016], [23.4478, 59.61217], [23.46277, 59.61055], [23.47513, 59.60754], [23.48727, 59.60248], [23.49329, 59.59405], [23.49485, 59.59364], [23.49432, 59.59176], [23.4984, 59.58068], [23.4958, 59.57796]]}}, {"type": "Feature", "properties": {"name": "BCS North", "layer": "cables", "kind": "telecom"}, "geometry": {"type": "LineString", "coordinates": [[22.20124, 60.20358], [22.19238, 60.20326], [22.18288, 60.19976], [22.18405, 60.1961], [22.18905, 60.1921], [22.18988, 60.1901], [22.20021, 60.1831], [22.19301, 60.1784], [22.13971, 60.16826], [22.13288, 60.16393], [22.13988, 60.15226], [22.14038, 60.14659], [22.13538, 60.13809], [22.17722, 60.11659], [22.19439, 60.11659], [22.23989, 60.11326], [22.25897, 60.11074], [22.27963, 60.11077], [22.29267, 60.10705], [22.29622, 60.0984], [22.3035, 60.0946], [22.31727, 60.08191], [22.33619, 60.07733], [22.34208, 60.05746], [22.34239, 60.04186], [22.34613, 60.03897], [22.36385, 60.03611], [22.37319, 60.01788], [22.37476, 60.01086], [22.38117, 59.99651], [22.37384, 59.97543], [22.37826, 59.95013], [22.37866, 59.94934], [22.38831, 59.9459], [22.38877, 59.94496], [22.3888, 59.92816], [22.40411, 59.91918], [22.41416, 59.90676], [22.43009, 59.89947], [22.4421, 59.89954], [22.45758, 59.89229], [22.46761, 59.89203], [22.5099, 59.90822], [22.53112, 59.9134], [22.54345, 59.91757], [22.54881, 59.91763], [22.55322, 59.91903], [22.56128, 59.91867], [22.56838, 59.91965], [22.59068, 59.9208], [22.6131, 59.91925], [22.64202, 59.91151], [22.65908, 59.90945], [22.68251, 59.90433], [22.74444, 59.89691], [22.75974, 59.89393], [22.78318, 59.88789], [22.81661, 59.8776], [22.84461, 59.86994], [22.86145, 59.86294], [22.88028, 59.85994], [22.88962, 59.85544], [22.89129, 59.85127], [22.91429, 59.83077], [22.92466, 59.82763]]}}, {"type": "Feature", "properties": {"name": "Eastern Light Sweden-Finland I", "layer": "cables", "kind": "telecom"}, "geometry": {"type": "LineString", "coordinates": [[22.91274, 59.81324], [22.9245, 59.81402], [22.95271, 59.81165], [22.96519, 59.80487], [22.9771, 59.79964], [23.00605, 59.79729], [23.03108, 59.79455], [23.03503, 59.79343], [23.04668, 59.7875], [23.05259, 59.78065], [23.06875, 59.77827], [23.08315, 59.7739], [23.14156, 59.76551], [23.17568, 59.73426], [23.2015, 59.73025], [23.21091, 59.73021], [23.2138, 59.72679], [23.23536, 59.72366], [23.28367, 59.71898], [23.28834, 59.71951], [23.29224, 59.71873], [23.29771, 59.71914], [23.30736, 59.7177], [23.37851, 59.71175], [23.41338, 59.71963], [23.41864, 59.71998], [23.46517, 59.73127], [23.50883, 59.74007], [23.58864, 59.75832], [23.59843, 59.75957], [23.61592, 59.76342], [23.67085, 59.7766], [23.68772, 59.77907], [23.69309, 59.78092], [23.77423, 59.79807], [23.87855, 59.82167], [23.88151, 59.82156], [23.9175, 59.82932], [23.93537, 59.83448], [23.95138, 59.843], [23.97587, 59.85398], [23.9992, 59.86567], [24.00621, 59.8666], [24.03328, 59.86623], [24.05292, 59.86676], [24.13237, 59.86468], [24.16544, 59.8648], [24.2585, 59.94227], [24.29837, 59.94232], [24.31547, 59.94306], [24.3604, 59.94246], [24.3782, 59.94654], [24.40973, 59.95102], [24.43712, 59.96089], [24.44903, 59.96691], [24.46637, 59.97141], [24.47332, 59.9723], [24.48053, 59.97052], [24.48458, 59.97039], [24.49455, 59.96709], [24.51279, 59.96842], [24.5179, 59.97374], [24.55635, 59.97968], [24.57177, 59.9851], [24.5823, 59.98749], [24.58332, 59.99588], [24.60198, 60.00047], [24.6062, 60.00479], [24.61704, 60.00733], [24.62136, 60.00725], [24.64253, 60.01024], [24.6885, 60.02671], [24.70055, 60.0336], [24.71966, 60.05036], [24.72647, 60.05506], [24.73188, 60.06417], [24.7526, 60.07629], [24.76828, 60.07989], [24.81217, 60.08667], [24.82381, 60.10957], [24.83258, 60.11476], [24.84132, 60.12169], [24.84362, 60.12594], [24.84298, 60.13041], [24.85714, 60.13486], [24.86831, 60.14228], [24.86059, 60.14382]]}}, {"type": "Feature", "properties": {"name": "BCS North - Phase 1", "layer": "cables", "kind": "telecom"}, "geometry": {"type": "LineString", "coordinates": [[22.91281, 59.81263], [22.92333, 59.81267], [22.95667, 59.80867], [22.97467, 59.7965], [23.00883, 59.79333], [23.02083, 59.78583], [23.04717, 59.77933], [23.05833, 59.78], [23.11267, 59.7775], [23.12483, 59.7775], [23.14167, 59.78], [23.15933, 59.7795], [23.16817, 59.78133], [23.18967, 59.784], [23.21217, 59.7835], [23.21767, 59.78133], [23.2285, 59.78117], [23.238, 59.77967], [23.25367, 59.78167], [23.27648, 59.78311], [23.2925, 59.7875], [23.36433, 59.78983], [23.382, 59.79133], [23.40567, 59.78933], [23.415, 59.7895], [23.42933, 59.79183], [23.44633, 59.79167], [23.46467, 59.79367], [23.473, 59.788], [23.47967, 59.78667], [23.49017, 59.77717], [23.5, 59.7715], [23.5025, 59.767], [23.51667, 59.759], [23.526, 59.75767], [23.53467, 59.75833], [23.55217, 59.75433], [23.56083, 59.75517], [23.57, 59.7535], [23.64183, 59.75683], [23.65833, 59.75867], [23.74017, 59.75883], [23.8055, 59.76717], [23.81217, 59.769], [23.81867, 59.7695], [23.824, 59.77117], [23.8505, 59.77083], [23.85583, 59.77233], [23.971, 59.77617], [24.04952, 59.77249], [24.05583, 59.77067], [24.10298, 59.77007], [24.23483, 59.76217], [24.26317, 59.764], [24.28967, 59.75983], [24.406, 59.79], [24.4585, 59.83333], [24.473, 59.84867], [24.50067, 59.86917], [24.521, 59.8925], [24.51952, 59.91699], [24.52283, 59.929], [24.53733, 59.93483], [24.54583, 59.94633], [24.578, 59.95633], [24.5895, 59.99483], [24.61633, 59.99933], [24.63869, 60.00733], [24.64196, 60.0137], [24.65769, 60.02749], [24.65769, 60.03399], [24.66402, 60.04716], [24.66033, 60.05533], [24.66417, 60.059], [24.70035, 60.06866], [24.70835, 60.07416], [24.75083, 60.08233], [24.76035, 60.0825], [24.77835, 60.08833], [24.79935, 60.08967], [24.80302, 60.09217], [24.80052, 60.105], [24.80452, 60.10667], [24.82719, 60.108], [24.84135, 60.111], [24.85319, 60.11717], [24.85152, 60.13134], [24.85802, 60.13467], [24.85868, 60.13667], [24.85785, 60.148], [24.85552, 60.151], [24.85705, 60.15192]]}}, {"type": "Feature", "properties": {"name": "Eastern Light Sweden-Finland I", "layer": "cables", "kind": "telecom"}, "geometry": {"type": "LineString", "coordinates": [[22.91274, 59.81324], [22.91756, 59.81346], [22.92127, 59.81222], [22.92246, 59.81032], [22.91835, 59.80235], [22.91149, 59.79976], [22.88499, 59.80088], [22.87433, 59.79991], [22.86505, 59.80039], [22.83463, 59.79866], [22.78899, 59.78963], [22.77227, 59.78532], [22.75925, 59.78641], [22.62532, 59.80238], [22.58846, 59.80817], [22.58083, 59.8084], [22.56929, 59.81006], [22.54257, 59.81494], [22.46734, 59.81856], [22.4479, 59.82226], [22.4305, 59.82761], [22.41879, 59.82914], [22.41554, 59.83033], [22.41268, 59.8299], [22.40412, 59.83234], [22.3887, 59.83919], [22.37672, 59.84107], [22.35383, 59.8539], [22.33368, 59.86355], [22.29059, 59.87436], [22.27127, 59.8778], [22.21123, 59.88202], [22.19549, 59.88187], [22.15969, 59.88102], [22.13228, 59.87372], [22.12645, 59.87096], [22.0846, 59.86751], [22.05666, 59.86885], [22.0431, 59.86807], [22.02271, 59.86893], [22.01703, 59.87003], [21.95687, 59.87171], [21.92824, 59.87006], [21.90923, 59.86681], [21.88485, 59.86654], [21.87005, 59.86523], [21.86203, 59.86373], [21.81963, 59.85952], [21.67365, 59.85287], [21.61806, 59.84285], [21.58368, 59.83418], [21.57985, 59.83147], [21.57401, 59.8308], [21.57294, 59.82974], [21.56721, 59.82864], [21.55065, 59.82117], [21.46448, 59.802], [21.41894, 59.79764], [21.39412, 59.79648], [21.37465, 59.79661], [21.36325, 59.79254], [21.36147, 59.79086], [21.35585, 59.7905], [21.35387, 59.78962], [21.35326, 59.78792], [21.35462, 59.78722], [21.36591, 59.78527]]}}, {"type": "Feature", "properties": {"name": "Eastern Light Sweden-Finland I", "layer": "cables", "kind": "telecom"}, "geometry": {"type": "LineString", "coordinates": [[26.93647, 60.42175], [26.92813, 60.42186], [26.92456, 60.4161], [26.91239, 60.4143], [26.89931, 60.41348], [26.85456, 60.40331], [26.768, 60.39235], [26.70703, 60.37409], [26.65494, 60.36587], [26.58718, 60.34417], [26.54359, 60.33312], [26.53995, 60.3298], [26.51973, 60.32461], [26.50127, 60.32377], [26.49741, 60.32436], [26.45674, 60.32237], [26.40964, 60.31324], [26.40424, 60.3116], [26.36385, 60.30431], [26.35096, 60.30025], [26.34633, 60.29745], [26.32658, 60.29272], [26.31979, 60.29216], [26.30094, 60.29334], [26.29436, 60.29197], [26.26101, 60.28367], [26.21092, 60.27316], [26.20244, 60.2663], [26.19759, 60.26429], [26.18644, 60.26639], [26.17503, 60.26416], [26.13868, 60.25972], [26.10941, 60.21303], [26.10133, 60.19671], [26.09604, 60.1802], [26.08907, 60.17351], [26.08412, 60.17152], [26.02373, 60.1559], [25.89989, 60.13298], [25.83109, 60.12859], [25.76496, 60.11917], [25.73862, 60.11648], [25.63217, 60.11027], [25.58517, 60.10529], [25.56248, 60.10379], [25.48578, 60.09549], [25.38419, 60.0909], [25.3739, 60.09166], [25.31472, 60.10073], [25.21151, 60.11516], [25.16168, 60.11167], [25.13891, 60.11115], [25.10504, 60.11316], [25.08515, 60.11545], [25.04099, 60.11676], [25.02133, 60.11642], [25.01004, 60.11776], [25.00156, 60.1197], [24.98558, 60.13268], [24.96999, 60.13644], [24.9537, 60.15093], [24.95622, 60.15251], [24.95871, 60.15197]]}}, {"type": "Feature", "properties": {"name": "Firingen - Kaldnes", "layer": "cables", "kind": "power"}, "geometry": {"type": "LineString", "coordinates": [[10.37709, 59.26422], [10.38674, 59.26588]]}}, {"type": "Feature", "properties": {"name": "Kråkerøy - Hvaler", "layer": "cables", "kind": "power"}, "geometry": {"type": "LineString", "coordinates": [[10.93118, 59.13624], [10.93384, 59.13447]]}}, {"type": "Feature", "properties": {"name": "Snilldal - Fillan", "layer": "cables", "kind": "power"}, "geometry": {"type": "LineString", "coordinates": [[9.14246, 63.50025], [9.12533, 63.51805]]}}, {"type": "Feature", "properties": {"name": "Gjøvik nord - Nes", "layer": "cables", "kind": "power"}, "geometry": {"type": "LineString", "coordinates": [[10.67974, 60.82217], [10.68439, 60.82177], [10.70924, 60.82661]]}}, {"type": "Feature", "properties": {"name": "HVDC NordBalt", "layer": "cables", "kind": "power"}, "geometry": {"type": "LineString", "coordinates": [[21.15237, 55.63812], [21.13241, 55.63245]]}}, {"type": "Feature", "properties": {"name": "Aurora", "layer": "cables", "kind": "telecom"}, "geometry": {"type": "LineString", "coordinates": [[14.23626, 55.43541], [14.24382, 55.43353], [14.35, 55.39], [14.47295, 55.29147], [14.702, 55.175], [14.70421, 55.17503]]}}, {"type": "Feature", "properties": {"name": "Agdenes - Utheim", "layer": "cables", "kind": "power"}, "geometry": {"type": "LineString", "coordinates": [[9.72, 63.64187], [9.72144, 63.6422], [9.72086, 63.64352], [9.71633, 63.64377], [9.68988, 63.65914], [9.66411, 63.67228], [9.66243, 63.67524]]}}, {"type": "Feature", "properties": {"name": "HVDC Gotland 2 and 3", "layer": "cables", "kind": "power"}, "geometry": {"type": "LineString", "coordinates": [[18.18371, 57.59009], [16.71323, 57.68552]]}}, {"type": "Feature", "properties": {"name": "Aurora", "layer": "cables", "kind": "telecom"}, "geometry": {"type": "LineString", "coordinates": [[17.0625, 57.3645], [17.06815, 57.38067], [17.1566, 57.44868], [17.1835, 57.45517], [17.41317, 57.4375], [18.04987, 57.56513], [18.18283, 57.58967]]}}, {"type": "Feature", "properties": {"name": "Ostwind 1-3 Ltg 265", "layer": "cables", "kind": "power"}, "geometry": {"type": "LineString", "coordinates": [[14.07378, 54.83468], [14.07645, 54.83351], [14.08306, 54.83366], [14.08621, 54.83233], [14.08743, 54.83019], [14.08713, 54.82598], [14.08406, 54.8193], [14.09677, 54.80705], [14.10134, 54.80503], [14.10252, 54.8036], [14.09894, 54.79156], [14.10067, 54.78763], [14.09786, 54.78693]]}}, {"type": "Feature", "properties": {"name": "Sweden-Latvia", "layer": "cables", "kind": "telecom"}, "geometry": {"type": "LineString", "coordinates": [[19.033, 57.83052], [19.11906, 57.797], [19.12975, 57.79496], [19.517, 57.75352], [19.90739, 57.71167], [20.29504, 57.67005], [20.78613, 57.61729], [21.28684, 57.55341], [21.31985, 57.5475], [21.38135, 57.54217], [21.50515, 57.52734], [21.59297, 57.44076]]}}, {"type": "Feature", "properties": {"name": "Latvia-Sweden 1 (LV-SE 1)", "layer": "cables", "kind": "telecom"}, "geometry": {"type": "LineString", "coordinates": [[21.59375, 57.44083], [21.54322, 57.55085], [21.39339, 57.68041], [21.21155, 57.79371], [21.02794, 57.88593], [20.95049, 57.96304], [20.45787, 58.17174], [19.93625, 58.3492], [19.51304, 58.49278], [19.26771, 58.61322], [18.98919, 58.70135], [18.6185, 58.78301], [18.22391, 58.77496], [18.16865, 58.77468], [18.14693, 58.77632], [18.05587, 58.78758], [18.03099, 58.7898], [18.0087, 58.78786], [17.96123, 58.77674], [17.95413, 58.77671], [17.91762, 58.79322], [17.90675, 58.81361], [17.90533, 58.82754]]}}, {"type": "Feature", "properties": {"name": "Baltica", "layer": "cables", "kind": "telecom"}, "geometry": {"type": "LineString", "coordinates": [[14.96644, 55.00375], [15.53791, 54.18182]]}}, {"type": "Feature", "properties": {"name": "BCS East-West Interlink", "layer": "cables", "kind": "telecom"}, "geometry": {"type": "LineString", "coordinates": [[18.86058, 57.39326], [19.08468, 57.22817], [19.13516, 57.2193], [19.17744, 57.20453], [19.19654, 57.19271], [19.22655, 57.12687], [20.69847, 56.02234], [21.06951, 56.02273]]}}, {"type": "Feature", "properties": {"name": "BCS East", "layer": "cables", "kind": "telecom"}, "geometry": {"type": "LineString", "coordinates": [[21.00779, 56.57516], [20.97368, 56.58812], [20.91605, 56.59864], [20.84682, 56.59958], [20.80009, 56.59676], [20.77281, 56.58812], [20.72097, 56.5543], [20.68551, 56.5039], [20.66777, 56.4489], [20.67323, 56.31371], [20.69915, 56.13017], [20.84511, 56.02892], [21.06951, 56.02511]]}}, {"type": "Feature", "properties": {"name": "Tammisalo Vasikkaluoto Cable", "layer": "cables", "kind": "power"}, "geometry": {"type": "LineString", "coordinates": [[25.0721, 60.19153], [25.07639, 60.19134]]}}, {"type": "Feature", "properties": {"name": "Baltika (Kingisepp - Kaliningrad)", "layer": "cables", "kind": "telecom"}, "geometry": {"type": "LineString", "coordinates": [[20.60765, 55.35891], [20.64831, 55.34464], [20.65611, 55.32774], [20.64527, 55.30511], [20.63652, 55.29409], [20.61088, 55.24001], [20.57835, 55.18699], [20.5641, 55.15739], [20.53841, 55.11508], [20.51044, 55.06453], [20.51199, 55.05791], [20.48069, 55.00684], [20.45777, 54.98226], [20.44252, 54.96362], [20.43797, 54.95448], [20.43782, 54.9512]]}}, {"type": "Feature", "properties": {"name": "Baltika (Kingisepp - Kaliningrad)", "layer": "cables", "kind": "telecom"}, "geometry": {"type": "LineString", "coordinates": [[28.07585, 59.5166], [28.00097, 59.52295], [27.98029, 59.52733], [27.95465, 59.52974], [27.88607, 59.54201], [27.63413, 59.60743], [27.56771, 59.62167], [27.51698, 59.6301], [27.42785, 59.64912], [27.36952, 59.65864], [27.22929, 59.67739], [27.19916, 59.68064], [27.12827, 59.69154], [27.06392, 59.69831], [26.93561, 59.71606], [26.8936, 59.73458], [26.85828, 59.75503], [26.71984, 59.82396], [26.62558, 59.87261], [26.59469, 59.88988], [26.50443, 59.93113], [26.47482, 59.94733]]}}]}