{"type": "FeatureCollection", "features": [{"type": "Feature", "properties": {"name": "Samsa", "layer": "windfarms"}, "geometry": {"type": "Polygon", "coordinates": [[[10.58235, 55.71094], [10.58234, 55.73533], [10.58473, 55.73668], [10.58711, 55.73543], [10.58712, 55.71103], [10.5846, 55.70969], [10.58235, 55.71094]]]}}, {"type": "Feature", "properties": {"name": "Anholt", "layer": "windfarms"}, "geometry": {"type": "Polygon", "coordinates": [[[11.18376, 56.50794], [11.18645, 56.53021], [11.18692, 56.55253], [11.1856, 56.57131], [11.18151, 56.59564], [11.17497, 56.61914], [11.16913, 56.63487], [11.15957, 56.65565], [11.14801, 56.67613], [11.15706, 56.70221], [11.18533, 56.70163], [11.19694, 56.68127], [11.21019, 56.66122], [11.22506, 56.64151], [11.24156, 56.6221], [11.25756, 56.60893], [11.28042, 56.59394], [11.29669, 56.5852], [11.32309, 56.57339], [11.18376, 56.50794]]]}}, {"type": "Feature", "properties": {"name": "Frederikshavn Offshore", "layer": "windfarms"}, "geometry": {"type": "Polygon", "coordinates": [[[10.55687, 57.44653], [10.56012, 57.44684], [10.56736, 57.44277], [10.56748, 57.44128], [10.56404, 57.44083], [10.5569, 57.44482], [10.55687, 57.44653]]]}}, {"type": "Feature", "properties": {"name": "Kriegers Flak K2-K3", "layer": "windfarms"}, "geometry": {"type": "MultiPolygon", "coordinates": [[[[12.77432, 54.97483], [12.7512, 55.01191], [12.7549, 55.05144], [12.84316, 55.07098], [12.84953, 55.03853], [12.8578, 55.02377], [12.86082, 55.02145], [12.87766, 55.01745], [12.88694, 55.01097], [12.88718, 54.99115], [12.90487, 54.97149], [12.86417, 54.96877], [12.77432, 54.97483]]], [[[12.99736, 55.01045], [12.99169, 55.01574], [12.94419, 55.03438], [12.92045, 55.06498], [12.91627, 55.06767], [12.85987, 55.07471], [12.95815, 55.09663], [13.04969, 55.06079], [13.13668, 55.00727], [13.10918, 54.98503], [12.99386, 54.9774], [12.99736, 55.01045]]]]}}, {"type": "Feature", "properties": {"name": "Tunø Knob", "layer": "windfarms"}, "geometry": {"type": "Polygon", "coordinates": [[[10.35841, 55.96495], [10.35201, 55.96563], [10.35216, 55.97281], [10.35855, 55.97214], [10.35841, 55.96495]]]}}, {"type": "Feature", "properties": {"name": "Avedøre Holme", "layer": "windfarms"}, "geometry": {"type": "Polygon", "coordinates": [[[12.45336, 55.60142], [12.45179, 55.60307], [12.45411, 55.60406], [12.46904, 55.60303], [12.47066, 55.60149], [12.46812, 55.60041], [12.45336, 55.60142]]]}}, {"type": "Feature", "properties": {"name": "Rodsand II", "layer": "windfarms"}, "geometry": {"type": "Polygon", "coordinates": [[[11.53456, 54.57073], [11.558, 54.56666], [11.58783, 54.5635], [11.61696, 54.56229], [11.61838, 54.5353], [11.61703, 54.52647], [11.57697, 54.53172], [11.53761, 54.5404], [11.5183, 54.5461], [11.49113, 54.55586], [11.45794, 54.57117], [11.48553, 54.58316], [11.49374, 54.58058], [11.53456, 54.57073]]]}}, {"type": "Feature", "properties": {"name": "EnBW Windpark Baltic 2", "layer": "windfarms"}, "geometry": {"type": "Polygon", "coordinates": [[[13.23181, 55.00215], [13.2178, 54.98534], [13.16564, 54.96332], [13.10073, 54.9505], [13.08255, 54.94923], [13.15258, 55.00723], [13.22872, 55.00881], [13.23181, 55.00215]]]}}, {"type": "Feature", "properties": {"name": "Arkona-Becken Südost", "layer": "windfarms"}, "geometry": {"type": "Polygon", "coordinates": [[[14.15515, 54.81242], [14.17682, 54.80972], [14.17978, 54.80214], [14.17732, 54.79249], [14.16882, 54.77789], [14.15278, 54.75523], [14.1397, 54.75318], [14.12525, 54.75345], [14.10225, 54.75758], [14.06842, 54.76617], [14.06174, 54.77057], [14.0553, 54.78134], [14.06089, 54.79426], [14.07371, 54.79802], [14.15515, 54.81242]]]}}, {"type": "Feature", "properties": {"name": "Wikinger", "layer": "windfarms"}, "geometry": {"type": "Polygon", "coordinates": [[[14.1137, 54.84986], [14.11894, 54.84439], [14.1079, 54.83459], [14.10332, 54.82341], [14.08555, 54.80812], [14.05917, 54.80351], [14.03224, 54.80128], [14.02685, 54.81256], [14.02525, 54.82392], [14.02855, 54.83772], [14.03576, 54.84847], [14.04712, 54.85855], [14.05451, 54.86319], [14.07276, 54.87127], [14.08368, 54.8745], [14.1137, 54.84986]]]}}, {"type": "Feature", "properties": {"name": "ARCADIS Ost 1", "layer": "windfarms"}, "geometry": {"type": "Polygon", "coordinates": [[[13.58431, 54.84507], [13.61292, 54.85363], [13.70934, 54.80898], [13.71843, 54.79991], [13.74318, 54.78845], [13.69708, 54.79697], [13.57309, 54.82998], [13.58431, 54.84507]]]}}, {"type": "Feature", "properties": {"name": "Kårehamn", "layer": "windfarms"}, "geometry": {"type": "Polygon", "coordinates": [[[17.04398, 56.96615], [17.03459, 56.96912], [17.02188, 56.97511], [17.01103, 56.98227], [17.00582, 56.9887], [17.00307, 56.99523], [17.00055, 57.00746], [17.00137, 57.00929], [17.0039, 57.01059], [17.00686, 57.01033], [17.00961, 57.00859], [17.01217, 57.00108], [17.02513, 56.98507], [17.05266, 56.9689], [17.05252, 56.96643], [17.04898, 56.96536], [17.04398, 56.96615]]]}}, {"type": "Feature", "properties": {"name": "Bockstigen 1", "layer": "windfarms"}, "geometry": {"type": "Polygon", "coordinates": [[[18.14054, 57.04333], [18.1611, 57.03666], [18.14213, 57.03214], [18.14054, 57.04333]]]}}, {"type": "Feature", "properties": {"name": "Kriegers Flak II", "layer": "windfarms"}, "geometry": {"type": "Polygon", "coordinates": [[[13.06362, 55.06635], [12.98152, 55.09864], [12.98843, 55.10637], [13.05426, 55.10886], [13.07541, 55.11082], [13.11353, 55.09581], [13.13015, 55.08632], [13.16102, 55.07856], [13.20457, 55.05191], [13.19265, 55.04636], [13.18605, 55.03832], [13.14132, 55.01719], [13.06362, 55.06635]]]}}, {"type": "Feature", "properties": {"name": "Lillgrund", "layer": "windfarms"}, "geometry": {"type": "Polygon", "coordinates": [[[12.76887, 55.52495], [12.78096, 55.52176], [12.78411, 55.52348], [12.78774, 55.52354], [12.80595, 55.51829], [12.80817, 55.51626], [12.80711, 55.51429], [12.7823, 55.49751], [12.776, 55.49741], [12.77116, 55.49533], [12.7578, 55.49947], [12.75861, 55.5066], [12.75691, 55.50876], [12.75838, 55.51065], [12.75668, 55.51263], [12.75702, 55.51803], [12.76887, 55.52495]]]}}, {"type": "Feature", "properties": {"name": "Utgrunden I", "layer": "windfarms"}, "geometry": {"type": "Polygon", "coordinates": [[[16.28013, 56.34325], [16.26813, 56.35271], [16.27461, 56.35579], [16.28861, 56.34591], [16.29012, 56.33328], [16.2814, 56.33303], [16.28013, 56.34325]]]}}, {"type": "Feature", "properties": {"name": "Yttre stengrund", "layer": "windfarms"}, "geometry": {"type": "Polygon", "coordinates": [[[16.02771, 56.16686], [16.02723, 56.15793], [16.01795, 56.15798], [16.01747, 56.17612], [16.02547, 56.17664], [16.02771, 56.16686]]]}}, {"type": "Feature", "properties": {"name": "Jammerland Bugt", "layer": "windfarms"}, "geometry": {"type": "Polygon", "coordinates": [[[11.01708, 55.56963], [11.0051, 55.55999], [10.99712, 55.5491], [10.99068, 55.53308], [10.95139, 55.54765], [10.93051, 55.55691], [10.89931, 55.59588], [10.91432, 55.58888], [10.93959, 55.60449], [10.94072, 55.60441], [10.95416, 55.58807], [10.95018, 55.57635], [10.98848, 55.59834], [11.03192, 55.57733], [11.01708, 55.56963]]]}}, {"type": "Feature", "properties": {"name": "EnBW Baltic I", "layer": "windfarms"}, "geometry": {"type": "Polygon", "coordinates": [[[12.6795, 54.62175], [12.69189, 54.63067], [12.70413, 54.63429], [12.6795, 54.62175]]]}}, {"type": "Feature", "properties": {"name": "Lithuania's first offshore wind farm in the Baltic Sea (Lithuanian Tender 1 & 2)", "layer": "windfarms"}, "geometry": {"type": "Polygon", "coordinates": [[[20.22895, 55.8193], [20.2227, 55.85744], [20.20087, 55.96744], [20.19996, 55.98035], [20.20777, 56.00996], [20.20482, 56.02833], [20.20252, 56.0333], [20.47537, 56.03442], [20.50228, 55.97683], [20.62832, 55.90299], [20.49836, 55.74594], [20.46195, 55.74383], [20.21895, 55.78257], [20.21993, 55.80705], [20.22895, 55.8193]]]}}, {"type": "Feature", "properties": {"name": "Najaderna", "layer": "windfarms"}, "geometry": {"type": "Polygon", "coordinates": [[[18.19445, 60.71835], [18.09423, 60.85483], [18.18665, 60.9436], [18.52645, 60.77601], [18.28659, 60.67892], [18.19445, 60.71835]]]}}, {"type": "Feature", "properties": {"name": "Middelgrunden", "layer": "windfarms"}, "geometry": {"type": "Polygon", "coordinates": [[[12.666, 55.67585], [12.66838, 55.69225], [12.66599, 55.70694], [12.66832, 55.70831], [12.67044, 55.70764], [12.67121, 55.70554], [12.67315, 55.69062], [12.67073, 55.6757], [12.66817, 55.67457], [12.666, 55.67585]]]}}, {"type": "Feature", "properties": {"name": "Frederikshavn Offshore Demo", "layer": "windfarms"}, "geometry": {"type": "Polygon", "coordinates": [[[10.61176, 57.43482], [10.64072, 57.47656], [10.65808, 57.44236], [10.61176, 57.43482]]]}}, {"type": "Feature", "properties": {"name": "Gennaker", "layer": "windfarms"}, "geometry": {"type": "MultiPolygon", "coordinates": [[[[12.57664, 54.58718], [12.59065, 54.58957], [12.59845, 54.59618], [12.6129, 54.60099], [12.61253, 54.58515], [12.58229, 54.58219], [12.5527, 54.57758], [12.53716, 54.57686], [12.57664, 54.58718]]], [[[12.73091, 54.64575], [12.72779, 54.63823], [12.72544, 54.62397], [12.72799, 54.60975], [12.71463, 54.60605], [12.68722, 54.60078], [12.65435, 54.58606], [12.69925, 54.62085], [12.71041, 54.62626], [12.71763, 54.64234], [12.69749, 54.64304], [12.67438, 54.63694], [12.69145, 54.64922], [12.69767, 54.65619], [12.71277, 54.65495], [12.72262, 54.66031], [12.73091, 54.64575]]], [[[12.58451, 54.60503], [12.57951, 54.61233], [12.56591, 54.60933], [12.55375, 54.60368], [12.55229, 54.59437], [12.5292, 54.58457], [12.51327, 54.58463], [12.48628, 54.57622], [12.45912, 54.57063], [12.45781, 54.57576], [12.48903, 54.59446], [12.57076, 54.62714], [12.57596, 54.62056], [12.59034, 54.61837], [12.59813, 54.62599], [12.60013, 54.63381], [12.61278, 54.63825], [12.61616, 54.64541], [12.6633, 54.66423], [12.67737, 54.66797], [12.6853, 54.66162], [12.66093, 54.64557], [12.64993, 54.63962], [12.62996, 54.62346], [12.62072, 54.61747], [12.58451, 54.60503]]]]}}, {"type": "Feature", "properties": {"name": "EnBW Windpark Baltic 1", "layer": "windfarms"}, "geometry": {"type": "Polygon", "coordinates": [[[12.63, 54.58397], [12.63, 54.61281], [12.69189, 54.63067], [12.63, 54.58397]]]}}, {"type": "Feature", "properties": {"name": "Baltic Eagle", "layer": "windfarms"}, "geometry": {"type": "Polygon", "coordinates": [[[13.8014, 54.81394], [13.8014, 54.8506], [13.81518, 54.85651], [13.89724, 54.86062], [13.92149, 54.78922], [13.82676, 54.80794], [13.8014, 54.81394]]]}}, {"type": "Feature", "properties": {"name": "Simpevarp Havsvindpark", "layer": "windfarms"}, "geometry": {"type": "Polygon", "coordinates": [[[16.88011, 57.41032], [16.76969, 57.41126], [16.77339, 57.40305], [16.86773, 57.38298], [16.79479, 57.30008], [16.76866, 57.29282], [16.76307, 57.29218], [16.73467, 57.29216], [16.71863, 57.29363], [16.70493, 57.29603], [16.6785, 57.31065], [16.66795, 57.32629], [16.66793, 57.33183], [16.67127, 57.33761], [16.67763, 57.34236], [16.69502, 57.35255], [16.7038, 57.35936], [16.71277, 57.37073], [16.71769, 57.38271], [16.72614, 57.3934], [16.73222, 57.39733], [16.75424, 57.4071], [16.76946, 57.40388], [16.765, 57.41247], [16.79408, 57.43413], [16.79916, 57.44085], [16.80288, 57.44833], [16.80313, 57.45615], [16.79696, 57.46542], [16.79597, 57.47], [16.79673, 57.47349], [16.80014, 57.47787], [16.8053, 57.48098], [16.81212, 57.48364], [16.91295, 57.48261], [16.88011, 57.41032]]]}}, {"type": "Feature", "properties": {"name": "Sylen", "layer": "windfarms"}, "geometry": {"type": "Polygon", "coordinates": [[[18.73734, 61.37804], [18.60348, 61.36994], [18.58296, 61.37486], [18.55999, 61.36362], [18.60581, 61.31145], [18.55105, 61.29538], [18.52635, 61.29666], [18.52294, 61.31724], [18.50284, 61.31615], [18.49235, 61.30439], [18.50158, 61.29268], [18.46358, 61.27824], [18.44067, 61.2849], [18.41121, 61.28719], [18.40824, 61.28285], [18.39215, 61.27617], [18.38198, 61.27795], [18.34801, 61.27102], [18.32137, 61.27191], [18.31018, 61.26241], [18.29401, 61.2596], [18.27062, 61.26833], [18.21452, 61.36458], [18.29109, 61.41414], [18.63852, 61.55254], [18.81387, 61.41613], [18.73734, 61.37804]]]}}, {"type": "Feature", "properties": {"name": "Kattegatt Offshore", "layer": "windfarms"}, "geometry": {"type": "Polygon", "coordinates": [[[12.39299, 56.82804], [12.3751, 56.80911], [12.33505, 56.80215], [12.31002, 56.81402], [12.30218, 56.8418], [12.33361, 56.86036], [12.39299, 56.82804]]]}}, {"type": "Feature", "properties": {"name": "Valgrundet Offshore", "layer": "windfarms"}, "geometry": {"type": "Polygon", "coordinates": [[[12.79377, 55.8075], [12.78479, 55.81315], [12.7619, 55.84685], [12.75794, 55.86392], [12.7559, 55.86686], [12.76913, 55.86897], [12.76902, 55.86241], [12.77741, 55.84516], [12.79441, 55.81962], [12.83183, 55.81422], [12.83136, 55.79773], [12.79377, 55.8075]]]}}, {"type": "Feature", "properties": {"name": "Galene", "layer": "windfarms"}, "geometry": {"type": "Polygon", "coordinates": [[[11.7677, 57.1044], [11.81103, 57.09055], [11.90007, 57.03661], [11.87389, 57.03249], [11.86052, 57.02753], [11.84784, 57.01449], [11.81294, 56.99838], [11.72675, 57.09403], [11.7677, 57.1044]]]}}, {"type": "Feature", "properties": {"name": "Poseidon", "layer": "windfarms"}, "geometry": {"type": "MultiPolygon", "coordinates": [[[[11.1688, 57.77309], [11.06412, 57.80095], [11.04877, 57.81683], [11.04049, 57.82207], [11.15219, 57.82125], [11.1688, 57.77309]]], [[[11.10486, 57.87611], [10.95363, 57.87691], [10.82575, 57.9564], [10.8212, 57.96003], [10.80999, 58.09988], [10.83709, 58.10937], [11.01175, 57.89908], [11.08111, 57.89912], [11.10486, 57.87611]]]]}}, {"type": "Feature", "properties": {"name": "Lillebælt-Syd (Lillegrund)", "layer": "windfarms"}, "geometry": {"type": "Polygon", "coordinates": [[[9.92226, 55.11239], [9.82484, 55.07892], [9.75163, 55.10399], [9.85001, 55.16959], [9.92226, 55.11239]]]}}, {"type": "Feature", "properties": {"name": "Baltic Offshore Alpha", "layer": "windfarms"}, "geometry": {"type": "Polygon", "coordinates": [[[18.58739, 58.3975], [18.22582, 58.05673], [18.1956, 58.33552], [18.47949, 58.43518], [18.58739, 58.3975]]]}}, {"type": "Feature", "properties": {"name": "Storgrundet", "layer": "windfarms"}, "geometry": {"type": "Polygon", "coordinates": [[[17.49353, 61.08931], [17.42718, 61.13224], [17.41237, 61.17824], [17.4332, 61.18718], [17.49973, 61.18515], [17.54616, 61.16522], [17.55363, 61.08871], [17.49353, 61.08931]]]}}, {"type": "Feature", "properties": {"name": "Gretas Klackar 2", "layer": "windfarms"}, "geometry": {"type": "Polygon", "coordinates": [[[17.75129, 61.28059], [17.74625, 61.30274], [17.71832, 61.31454], [17.71652, 61.32525], [17.73276, 61.34022], [17.71599, 61.35732], [17.72039, 61.3727], [17.73473, 61.3725], [17.75907, 61.35813], [17.79435, 61.3448], [17.82571, 61.31542], [17.80941, 61.25708], [17.78066, 61.24524], [17.75701, 61.23751], [17.7521, 61.23782], [17.75129, 61.28059]]]}}, {"type": "Feature", "properties": {"name": "Baltic Offshore Beta", "layer": "windfarms"}, "geometry": {"type": "Polygon", "coordinates": [[[16.36488, 55.68316], [16.47484, 55.64697], [16.47045, 55.5931], [16.42788, 55.55457], [16.37738, 55.55227], [16.36903, 55.54717], [16.33984, 55.54446], [16.03799, 55.53106], [15.92286, 55.60206], [15.76268, 55.581], [15.7298, 55.59495], [16.36488, 55.68316]]]}}, {"type": "Feature", "properties": {"name": "Nordre Flint", "layer": "windfarms"}, "geometry": {"type": "Polygon", "coordinates": [[[12.84259, 55.7012], [12.89409, 55.64341], [12.8798, 55.61356], [12.86294, 55.60547], [12.86278, 55.62185], [12.85981, 55.6366], [12.85372, 55.65073], [12.84688, 55.66204], [12.83131, 55.68096], [12.81936, 55.69017], [12.84259, 55.7012]]]}}, {"type": "Feature", "properties": {"name": "Aflandshage", "layer": "windfarms"}, "geometry": {"type": "Polygon", "coordinates": [[[12.60906, 55.43125], [12.61831, 55.40313], [12.61594, 55.39473], [12.59516, 55.39574], [12.50972, 55.41853], [12.50977, 55.4695], [12.55462, 55.4601], [12.60279, 55.45583], [12.63477, 55.45707], [12.63081, 55.44297], [12.60906, 55.43125]]]}}, {"type": "Feature", "properties": {"name": "Kattegat II", "layer": "windfarms"}, "geometry": {"type": "Polygon", "coordinates": [[[11.15333, 56.3214], [11.15577, 56.33203], [11.15738, 56.36012], [11.15883, 56.36355], [11.16909, 56.37304], [11.17691, 56.38194], [11.44268, 56.45208], [11.38497, 56.40154], [11.33485, 56.3534], [11.24674, 56.35338], [11.14926, 56.22373], [11.15333, 56.3214]]]}}, {"type": "Feature", "properties": {"name": "Bornholm", "layer": "windfarms"}, "geometry": {"type": "Polygon", "coordinates": [[[14.69053, 55.02028], [14.70346, 55.01613], [14.74758, 55.00555], [14.7489, 54.98582], [14.70621, 54.98658], [14.70983, 54.97392], [14.64645, 54.9744], [14.59733, 54.99095], [14.65095, 55.02172], [14.69053, 55.02028]]]}}, {"type": "Feature", "properties": {"name": "Omo Syd", "layer": "windfarms"}, "geometry": {"type": "Polygon", "coordinates": [[[11.10013, 55.08282], [11.10755, 55.07903], [11.11874, 55.0757], [11.12689, 55.07448], [11.13882, 55.07424], [11.1247, 55.01071], [11.09391, 55.0], [11.06834, 55.00001], [11.09885, 55.07541], [11.10013, 55.08282]]]}}, {"type": "Feature", "properties": {"name": "Baltic Offshore Delta North", "layer": "windfarms"}, "geometry": {"type": "Polygon", "coordinates": [[[19.85353, 59.17533], [20.10521, 59.37814], [20.13655, 59.37685], [20.25624, 59.25837], [20.28312, 59.20939], [20.20448, 59.17263], [20.05122, 59.1422], [19.95132, 59.1353], [19.88926, 59.13502], [19.84762, 59.14216], [19.85353, 59.17533]]]}}, {"type": "Feature", "properties": {"name": "Aurum vindkraftspark", "layer": "windfarms"}, "geometry": {"type": "MultiPolygon", "coordinates": [[[[20.96344, 63.90688], [21.06185, 63.99372], [21.12161, 63.97106], [21.15605, 63.98452], [21.1708, 64.00041], [21.16701, 64.01722], [21.14413, 64.02554], [21.20945, 64.05435], [21.33576, 64.01214], [21.25488, 63.90873], [21.04083, 63.88382], [20.86488, 63.85491], [20.86554, 63.85652], [20.96344, 63.90688]]], [[[21.09644, 64.12285], [21.2515, 64.2287], [21.30599, 64.21606], [21.39107, 64.22173], [21.43213, 64.23918], [21.49255, 64.21381], [21.12561, 64.05579], [21.13909, 64.09842], [21.09644, 64.12285]]]]}}, {"type": "Feature", "properties": {"name": "Kattegatt Syd", "layer": "windfarms"}, "geometry": {"type": "Polygon", "coordinates": [[[12.10289, 56.74309], [12.09592, 56.74252], [12.0921, 56.74136], [12.0794, 56.74191], [12.06849, 56.73709], [12.0164, 56.67808], [12.00467, 56.69309], [11.99555, 56.7333], [11.99333, 56.73863], [11.94666, 56.81155], [11.99108, 56.88149], [12.03495, 56.8519], [12.10289, 56.74309]]]}}, {"type": "Feature", "properties": {"name": "PZP_43 (Baltex 2)", "layer": "windfarms"}, "geometry": {"type": "Polygon", "coordinates": [[[16.10629, 54.93193], [16.23093, 54.99506], [16.3095, 55.02577], [16.30865, 54.99504], [16.30516, 54.95653], [16.26881, 54.90793], [16.10614, 54.87316], [16.10629, 54.93193]]]}}, {"type": "Feature", "properties": {"name": "EO2", "layer": "windfarms"}, "geometry": {"type": "Polygon", "coordinates": [[[13.88959, 54.77255], [13.68797, 54.86752], [13.89325, 54.90548], [13.94219, 54.76027], [13.88959, 54.77255]]]}}, {"type": "Feature", "properties": {"name": "EO2-West", "layer": "windfarms"}, "geometry": {"type": "Polygon", "coordinates": [[[13.77619, 54.78285], [13.6221, 54.85526], [13.68798, 54.86751], [13.88892, 54.77287], [13.77619, 54.78285]]]}}, {"type": "Feature", "properties": {"name": "PZP_60", "layer": "windfarms"}, "geometry": {"type": "Polygon", "coordinates": [[[17.50688, 55.4922], [17.49602, 55.48627], [17.44188, 55.47822], [17.42225, 55.47731], [17.40853, 55.47453], [17.38921, 55.48286], [17.19103, 55.47887], [17.14585, 55.49819], [17.13429, 55.53116], [17.3791, 55.58758], [17.38002, 55.58692], [17.3038, 55.55796], [17.31255, 55.55384], [17.42185, 55.53123], [17.44912, 55.53322], [17.51909, 55.5592], [17.56655, 55.57562], [17.53065, 55.59775], [17.46717, 55.61562], [17.83382, 55.73124], [17.83138, 55.61355], [17.73362, 55.58416], [17.64216, 55.5107], [17.50688, 55.4922]]]}}, {"type": "Feature", "properties": {"name": "Saare Liivi 3", "layer": "windfarms"}, "geometry": {"type": "Polygon", "coordinates": [[[22.88802, 57.96863], [22.86068, 58.0467], [23.59089, 58.03885], [23.59103, 58.02654], [23.44773, 57.96353], [23.36262, 58.00184], [23.29824, 57.98918], [23.2475, 57.95985], [23.23334, 57.92545], [23.19368, 57.92433], [23.1509, 57.91525], [23.11323, 57.90091], [22.87573, 57.88582], [22.83317, 57.92414], [22.88802, 57.96863]]]}}, {"type": "Feature", "properties": {"name": "Aker Offshore", "layer": "windfarms"}, "geometry": {"type": "Polygon", "coordinates": [[[20.82138, 58.05917], [20.78735, 58.09005], [20.76181, 58.11937], [20.78043, 58.18148], [20.7756, 58.2184], [20.79879, 58.23678], [20.89771, 58.18283], [20.82138, 58.05917]]]}}, {"type": "Feature", "properties": {"name": "Windanker", "layer": "windfarms"}, "geometry": {"type": "Polygon", "coordinates": [[[14.07754, 54.88185], [14.01615, 54.85775], [14.00578, 54.88561], [14.00022, 54.88521], [13.98826, 54.91993], [14.02432, 54.92648], [14.07754, 54.88185]]]}}, {"type": "Feature", "properties": {"name": "Skåne havsvindpark", "layer": "windfarms"}, "geometry": {"type": "Polygon", "coordinates": [[[13.73011, 55.02059], [13.42269, 55.01885], [13.40801, 55.0354], [13.47322, 55.10876], [13.53077, 55.16092], [13.54791, 55.16608], [13.56403, 55.16937], [13.59189, 55.17776], [13.60283, 55.17478], [14.0078, 55.13474], [14.12357, 55.13439], [14.07149, 55.09434], [13.73011, 55.02059]]]}}, {"type": "Feature", "properties": {"name": "Arkona vindkraftpark", "layer": "windfarms"}, "geometry": {"type": "Polygon", "coordinates": [[[13.54548, 55.16583], [13.64969, 55.15161], [13.66413, 55.08306], [13.66325, 55.02734], [13.60168, 55.0192], [13.44056, 55.01658], [13.41437, 55.04682], [13.48825, 55.15015], [13.51558, 55.1566], [13.54548, 55.16583]]]}}, {"type": "Feature", "properties": {"name": "Warberg Offshore Wind", "layer": "windfarms"}, "geometry": {"type": "Polygon", "coordinates": [[[11.87558, 57.03661], [11.86952, 57.03087], [11.86382, 57.02984], [11.85523, 57.02694], [11.84674, 57.02253], [11.84047, 57.01478], [11.82771, 57.00205], [11.8172, 56.9984], [11.76472, 57.0826], [11.76768, 57.08391], [11.77433, 57.08408], [11.77653, 57.08635], [11.77748, 57.08952], [11.79948, 57.09955], [11.8014, 57.10354], [11.80906, 57.10796], [11.81338, 57.1125], [11.8202, 57.11718], [11.82285, 57.12638], [11.82361, 57.13585], [11.87863, 57.16721], [11.9564, 57.03528], [11.94374, 57.03521], [11.94031, 57.03743], [11.93687, 57.03739], [11.93235, 57.03955], [11.92477, 57.03988], [11.88101, 57.03794], [11.87558, 57.03661]]]}}, {"type": "Feature", "properties": {"name": "Gävle Öst Havsvindpark", "layer": "windfarms"}, "geometry": {"type": "Polygon", "coordinates": [[[18.60862, 61.31102], [18.59754, 61.32365], [18.65442, 61.37197], [18.7384, 61.37702], [18.79146, 61.40343], [18.9367, 61.28851], [18.93342, 61.04512], [18.76965, 61.05051], [18.74535, 61.0645], [18.71693, 61.16814], [18.72433, 61.19488], [18.7419, 61.21796], [18.77743, 61.2232], [18.84163, 61.31964], [18.85214, 61.35244], [18.78683, 61.37347], [18.76612, 61.334], [18.68885, 61.28897], [18.68054, 61.27497], [18.62424, 61.20577], [18.62294, 61.20559], [18.56652, 61.29724], [18.56909, 61.29941], [18.60862, 61.31102]]]}}, {"type": "Feature", "properties": {"name": "Baltic Edge", "layer": "windfarms"}, "geometry": {"type": "Polygon", "coordinates": [[[16.87032, 55.46154], [16.50941, 55.35519], [16.15857, 55.43674], [16.87032, 55.46154]]]}}, {"type": "Feature", "properties": {"name": "Baltic Offshore Epsilon", "layer": "windfarms"}, "geometry": {"type": "Polygon", "coordinates": [[[19.80147, 58.78849], [20.12833, 58.61692], [20.13476, 58.52609], [19.94874, 58.44558], [19.89693, 58.44773], [19.79152, 58.49889], [19.70034, 58.57905], [19.75668, 58.78397], [19.80147, 58.78849]]]}}, {"type": "Feature", "properties": {"name": "Blekinge Offshore", "layer": "windfarms"}, "geometry": {"type": "Polygon", "coordinates": [[[15.03506, 56.0106], [15.07629, 56.00007], [15.099, 55.99063], [15.1054, 55.98638], [15.01521, 55.85646], [14.9889, 55.85627], [14.88701, 55.91889], [14.95499, 56.01823], [14.99078, 56.01659], [15.03506, 56.0106]]]}}, {"type": "Feature", "properties": {"name": "Bothnia Offshore Kappa", "layer": "windfarms"}, "geometry": {"type": "Polygon", "coordinates": [[[21.44244, 63.70059], [21.45498, 63.72134], [21.46332, 63.74504], [21.46737, 63.78056], [21.73095, 63.94913], [21.91497, 63.98741], [21.4604, 63.65997], [21.41351, 63.67076], [21.43029, 63.68692], [21.44244, 63.70059]]]}}, {"type": "Feature", "properties": {"name": "Bothnia Offshore Lambda", "layer": "windfarms"}, "geometry": {"type": "Polygon", "coordinates": [[[17.98084, 61.5186], [18.03199, 61.62027], [18.06495, 61.6959], [18.31352, 61.74534], [18.39762, 61.70818], [18.55006, 61.59072], [18.55041, 61.58075], [18.47556, 61.55313], [18.22666, 61.4701], [18.15009, 61.46944], [18.06599, 61.47026], [18.00521, 61.47748], [17.98084, 61.5186]]]}}, {"type": "Feature", "properties": {"name": "Bothnia Offshore Omega", "layer": "windfarms"}, "geometry": {"type": "Polygon", "coordinates": [[[22.77878, 64.86323], [22.81516, 64.99127], [22.82547, 65.06577], [22.85637, 65.06344], [22.89688, 65.01592], [22.94082, 64.99271], [23.09463, 64.94943], [23.17361, 64.97297], [23.23609, 64.92441], [22.89277, 64.72169], [22.81997, 64.74832], [22.79183, 64.76213], [22.77878, 64.86323]]]}}, {"type": "Feature", "properties": {"name": "Bothnia Offshore Sigma", "layer": "windfarms"}, "geometry": {"type": "Polygon", "coordinates": [[[19.24391, 61.68791], [19.24323, 61.68075], [19.19791, 61.68271], [19.17114, 61.68922], [19.19517, 61.98639], [19.26727, 61.9893], [19.25079, 62.03376], [19.27138, 62.20587], [19.30297, 62.20651], [19.30023, 62.2628], [19.33457, 62.26281], [19.38537, 62.24491], [19.45679, 62.2577], [19.37439, 61.69248], [19.34897, 61.68042], [19.29473, 61.68499], [19.24391, 61.68791]]]}}, {"type": "Feature", "properties": {"name": "Cirrus", "layer": "windfarms"}, "geometry": {"type": "Polygon", "coordinates": [[[16.59967, 55.65159], [16.5958, 55.55653], [16.30324, 55.53831], [16.27321, 55.56412], [16.21592, 55.57839], [16.11415, 55.63642], [15.98146, 55.65505], [16.4359, 55.71753], [16.59967, 55.65159]]]}}, {"type": "Feature", "properties": {"name": "Dyning", "layer": "windfarms"}, "geometry": {"type": "Polygon", "coordinates": [[[17.75258, 57.99222], [17.76344, 58.31297], [17.916, 58.39269], [18.01988, 58.24179], [17.75258, 57.99222]]]}}, {"type": "Feature", "properties": {"name": "Erik Segersäll Vindkraftpark", "layer": "windfarms"}, "geometry": {"type": "Polygon", "coordinates": [[[19.22203, 58.78237], [19.45858, 59.00222], [19.89319, 58.76832], [20.02598, 58.69793], [19.75942, 58.55388], [19.3279, 58.72649], [19.22203, 58.78237]]]}}, {"type": "Feature", "properties": {"name": "Eystrasalt", "layer": "windfarms"}, "geometry": {"type": "Polygon", "coordinates": [[[19.15225, 61.81897], [19.13778, 61.79181], [19.12737, 61.77582], [19.08136, 61.73748], [19.0738, 61.71684], [19.04405, 61.70857], [19.03565, 61.7072], [19.05725, 61.69027], [19.0904, 61.66019], [19.09456, 61.63812], [19.09285, 61.61892], [19.02334, 61.61277], [18.99442, 61.61443], [18.99144, 61.60226], [18.97266, 61.61008], [18.96035, 61.61111], [18.94881, 61.61818], [18.92668, 61.61101], [18.92614, 61.63826], [18.91804, 61.64653], [18.83337, 61.66341], [18.79822, 61.66075], [18.76604, 61.66164], [18.71842, 61.68004], [18.68452, 61.71178], [18.60665, 61.79274], [18.64694, 61.82559], [18.64323, 61.83753], [18.64993, 61.86993], [18.63635, 61.89479], [18.62293, 61.9261], [18.62195, 61.95628], [18.65346, 61.97591], [18.7159, 61.99066], [18.82242, 62.01386], [18.90722, 62.02279], [18.96727, 62.00105], [19.00882, 61.97723], [19.05385, 61.96729], [19.08223, 61.95704], [19.13649, 61.87839], [19.15256, 61.84653], [19.15225, 61.81897]]]}}, {"type": "Feature", "properties": {"name": "Falkenberg-Halmstad", "layer": "windfarms"}, "geometry": {"type": "Polygon", "coordinates": [[[12.37444, 56.80944], [12.3833, 56.77281], [12.4668, 56.61286], [12.44323, 56.55838], [12.29948, 56.55951], [12.20223, 56.76439], [12.22338, 56.76538], [12.1899, 56.83867], [12.33455, 56.86014], [12.39302, 56.82829], [12.37444, 56.80944]]]}}, {"type": "Feature", "properties": {"name": "Herkules", "layer": "windfarms"}, "geometry": {"type": "Polygon", "coordinates": [[[18.93914, 56.34235], [19.69767, 57.11456], [19.81604, 57.14695], [19.28158, 56.34335], [18.93914, 56.34235]]]}}, {"type": "Feature", "properties": {"name": "Kapheira", "layer": "windfarms"}, "geometry": {"type": "Polygon", "coordinates": [[[18.10324, 58.26724], [18.11994, 57.98357], [17.98351, 57.86289], [17.91855, 57.868], [18.0041, 58.27207], [18.10324, 58.26724]]]}}, {"type": "Feature", "properties": {"name": "Kultje", "layer": "windfarms"}, "geometry": {"type": "Polygon", "coordinates": [[[17.7558, 57.1052], [17.77267, 57.04952], [17.7693, 57.01749], [17.75275, 56.93664], [17.74437, 56.85561], [17.70686, 56.81828], [17.40489, 56.77298], [17.62431, 57.17859], [17.67106, 57.14518], [17.7558, 57.1052]]]}}, {"type": "Feature", "properties": {"name": "Mareld", "layer": "windfarms"}, "geometry": {"type": "Polygon", "coordinates": [[[10.61601, 58.09318], [10.54525, 58.13823], [10.09537, 58.25138], [10.67885, 58.25276], [10.69053, 58.23917], [10.69887, 58.11895], [10.61601, 58.09318]]]}}, {"type": "Feature", "properties": {"name": "Neptuni", "layer": "windfarms"}, "geometry": {"type": "Polygon", "coordinates": [[[17.416, 57.48181], [17.66776, 57.52514], [17.66242, 57.50753], [17.63387, 57.4804], [17.53911, 57.3333], [17.347, 57.33325], [17.416, 57.48181]]]}}, {"type": "Feature", "properties": {"name": "Nya Utgrunden", "layer": "windfarms"}, "geometry": {"type": "Polygon", "coordinates": [[[16.30041, 56.4012], [16.31178, 56.38796], [16.3151, 56.3577], [16.3209, 56.32742], [16.27423, 56.32601], [16.25561, 56.37421], [16.28173, 56.40139], [16.30041, 56.4012]]]}}, {"type": "Feature", "properties": {"name": "Öland-Hoburg I", "layer": "windfarms"}, "geometry": {"type": "Polygon", "coordinates": [[[16.61902, 55.95541], [16.76654, 56.01049], [16.96205, 56.09158], [17.03928, 55.92976], [16.99771, 55.92398], [16.88165, 55.90534], [16.6614, 55.91335], [16.61902, 55.95541]]]}}, {"type": "Feature", "properties": {"name": "Öland-Hoburg II", "layer": "windfarms"}, "geometry": {"type": "Polygon", "coordinates": [[[18.0762, 56.36246], [18.15992, 56.19143], [17.68238, 56.01864], [17.66959, 56.01461], [17.67203, 56.14712], [18.0762, 56.36246]]]}}, {"type": "Feature", "properties": {"name": "Öland-Hoburg III", "layer": "windfarms"}, "geometry": {"type": "Polygon", "coordinates": [[[18.71801, 56.66843], [18.61709, 56.8112], [18.65127, 56.81916], [18.78967, 56.84629], [18.78519, 56.75829], [18.88291, 56.72174], [18.879, 56.60871], [18.82548, 56.53479], [18.62033, 56.42661], [18.5827, 56.43497], [18.71801, 56.66843]]]}}, {"type": "Feature", "properties": {"name": "Olof Skötkonung", "layer": "windfarms"}, "geometry": {"type": "Polygon", "coordinates": [[[18.02877, 60.90132], [18.03553, 60.91143], [18.00101, 60.9267], [18.01678, 60.95026], [18.14143, 60.96981], [18.34787, 60.91418], [18.43535, 60.90317], [18.48845, 60.90355], [18.64123, 60.94969], [18.61342, 60.75909], [18.47396, 60.7722], [18.23353, 60.81248], [18.01842, 60.88997], [18.02877, 60.90132]]]}}, {"type": "Feature", "properties": {"name": "Polargrund Offshore", "layer": "windfarms"}, "geometry": {"type": "Polygon", "coordinates": [[[23.50122, 65.18991], [23.57399, 65.24027], [23.45078, 65.36443], [23.37868, 65.40263], [23.37002, 65.42534], [23.44743, 65.44234], [23.46668, 65.43874], [23.54195, 65.43099], [23.61892, 65.4348], [23.68771, 65.4497], [23.69451, 65.45189], [23.73706, 65.47056], [23.87465, 65.34032], [23.51806, 65.0956], [23.48707, 65.16503], [23.50122, 65.18991]]]}}, {"type": "Feature", "properties": {"name": "Ran", "layer": "windfarms"}, "geometry": {"type": "Polygon", "coordinates": [[[19.27642, 57.76697], [19.46236, 57.75951], [19.48483, 57.73191], [19.16164, 57.49445], [19.07827, 57.58014], [19.27642, 57.76697]]]}}, {"type": "Feature", "properties": {"name": "Sjollen", "layer": "windfarms"}, "geometry": {"type": "Polygon", "coordinates": [[[12.92154, 55.66857], [12.93448, 55.64985], [12.93167, 55.64639], [12.91041, 55.63797], [12.89093, 55.63683], [12.89405, 55.64359], [12.84575, 55.69859], [12.82489, 55.71795], [12.84919, 55.72611], [12.8891, 55.69189], [12.92154, 55.66857]]]}}, {"type": "Feature", "properties": {"name": "Skagerrak Offshore Gamma", "layer": "windfarms"}, "geometry": {"type": "Polygon", "coordinates": [[[10.34214, 58.58496], [10.38284, 58.54921], [10.40943, 58.34503], [10.37301, 58.29875], [10.29068, 58.27315], [10.0847, 58.26557], [10.09224, 58.39757], [10.14504, 58.51092], [10.27728, 58.58526], [10.34214, 58.58496]]]}}, {"type": "Feature", "properties": {"name": "Skidbladner", "layer": "windfarms"}, "geometry": {"type": "Polygon", "coordinates": [[[19.81758, 58.80704], [20.08531, 58.66532], [20.10113, 58.47433], [19.9052, 58.39693], [19.69654, 58.41415], [19.69014, 58.42783], [19.67402, 58.44781], [19.6712, 58.45368], [19.65066, 58.47204], [19.64272, 58.47756], [19.62808, 58.4903], [19.60264, 58.50536], [19.56023, 58.52656], [19.53941, 58.53614], [19.52775, 58.53996], [19.52078, 58.54414], [19.49701, 58.55297], [19.46725, 58.56168], [19.4632, 58.56381], [19.45048, 58.56653], [19.42579, 58.57054], [19.39741, 58.57749], [19.38282, 58.57908], [19.35672, 58.58377], [19.33187, 58.58726], [19.29248, 58.59091], [19.25697, 58.59651], [19.24449, 58.59759], [19.2058, 58.59944], [19.17838, 58.59922], [19.16512, 58.59983], [19.13623, 58.59784], [19.28176, 58.68718], [19.81758, 58.80704]]]}}, {"type": "Feature", "properties": {"name": "Slite", "layer": "windfarms"}, "geometry": {"type": "Polygon", "coordinates": [[[19.47414, 57.76266], [19.50398, 57.73176], [19.28335, 57.56738], [19.33626, 57.5164], [19.17829, 57.411], [18.97239, 57.56892], [19.01121, 57.62372], [19.04201, 57.6696], [19.155, 57.72769], [19.17511, 57.78503], [19.42723, 57.77697], [19.42455, 57.76827], [19.47414, 57.76266]]]}}, {"type": "Feature", "properties": {"name": "Södra Victoria", "layer": "windfarms"}, "geometry": {"type": "Polygon", "coordinates": [[[16.98654, 55.66739], [16.99272, 55.68223], [17.00698, 55.70353], [17.03657, 55.69681], [17.05889, 55.70516], [17.06294, 55.70478], [17.06887, 55.70673], [17.19547, 55.7043], [17.19685, 55.70216], [17.18262, 55.6859], [17.17261, 55.6687], [17.16763, 55.65367], [17.16589, 55.63857], [17.1676, 55.6223], [17.17294, 55.60636], [17.18123, 55.59182], [17.19369, 55.57647], [17.02223, 55.56336], [17.00436, 55.5823], [16.99423, 55.59759], [16.98926, 55.60788], [16.98334, 55.6289], [16.98241, 55.6404], [16.98327, 55.65329], [16.98654, 55.66739]]]}}, {"type": "Feature", "properties": {"name": "Sundsvall", "layer": "windfarms"}, "geometry": {"type": "Polygon", "coordinates": [[[18.46865, 62.19697], [18.24856, 62.1102], [18.00447, 62.11016], [17.86653, 62.21156], [17.86605, 62.29408], [18.28225, 62.31229], [18.46865, 62.19697]]]}}, {"type": "Feature", "properties": {"name": "Sydkustens Vind", "layer": "windfarms"}, "geometry": {"type": "Polygon", "coordinates": [[[13.46008, 55.28192], [13.53218, 55.30815], [13.58462, 55.31278], [13.65568, 55.32141], [13.65067, 55.28298], [13.61543, 55.262], [13.55255, 55.26124], [13.46008, 55.28192]]]}}, {"type": "Feature", "properties": {"name": "Västvind", "layer": "windfarms"}, "geometry": {"type": "Polygon", "coordinates": [[[11.08577, 57.77663], [11.0474, 57.8163], [11.03829, 57.82209], [11.33534, 57.81967], [11.32127, 57.71366], [11.08577, 57.77663]]]}}, {"type": "Feature", "properties": {"name": "Vidar", "layer": "windfarms"}, "geometry": {"type": "Polygon", "coordinates": [[[10.59019, 58.76438], [10.62494, 58.58509], [10.27028, 58.58438], [10.59019, 58.76438]]]}}, {"type": "Feature", "properties": {"name": "Vindkraftpark Fyrskeppet", "layer": "windfarms"}, "geometry": {"type": "Polygon", "coordinates": [[[18.67844, 60.9637], [18.6799, 60.97028], [18.67149, 60.99396], [18.66786, 60.99907], [18.65855, 61.0046], [18.64007, 61.01972], [18.62366, 61.02778], [18.61193, 61.04099], [18.60614, 61.04517], [18.59499, 61.05057], [18.57909, 61.05607], [18.56591, 61.06287], [18.5514, 61.06787], [18.53, 61.0724], [18.52091, 61.07324], [18.50523, 61.07236], [18.49067, 61.07799], [18.47938, 61.08075], [18.46074, 61.08349], [18.45034, 61.08426], [18.43989, 61.08359], [18.42004, 61.08086], [18.40611, 61.07725], [18.37515, 61.06403], [18.28872, 61.06135], [18.31257, 61.09975], [18.32827, 61.12984], [18.3973, 61.1784], [18.50618, 61.20308], [18.54801, 61.19356], [18.62589, 61.20487], [18.67057, 61.25851], [18.68265, 61.27467], [18.69083, 61.28847], [18.76819, 61.33353], [18.78821, 61.37174], [18.84976, 61.35192], [18.83946, 61.31984], [18.77566, 61.22406], [18.7402, 61.21882], [18.7222, 61.19512], [18.71472, 61.1681], [18.74329, 61.06403], [18.78971, 61.03732], [18.81898, 60.9833], [18.79652, 60.97468], [18.75019, 60.98032], [18.66852, 60.95019], [18.67134, 60.95264], [18.67844, 60.9637]]]}}, {"type": "Feature", "properties": {"name": "Bores Krona", "layer": "windfarms"}, "geometry": {"type": "MultiPolygon", "coordinates": [[[[21.78728, 65.07498], [21.91587, 65.11538], [21.98776, 65.13073], [22.08532, 65.12663], [22.23935, 65.12885], [22.20644, 65.07165], [21.77317, 65.03166], [21.77061, 65.03458], [21.78728, 65.07498]]], [[[22.40617, 65.14304], [22.51222, 65.15962], [22.58964, 65.17495], [22.66599, 65.19424], [22.76309, 65.22116], [22.74404, 65.11792], [22.68203, 65.11281], [22.6754, 65.15631], [22.54768, 65.14017], [22.55638, 65.10271], [22.305, 65.08043], [22.33777, 65.13639], [22.40617, 65.14304]]], [[[22.85806, 65.22989], [22.9744, 65.18995], [22.97368, 65.15157], [22.95491, 65.14246], [22.93234, 65.13389], [22.84392, 65.12643], [22.85806, 65.22989]]]]}}, {"type": "Feature", "properties": {"name": "Störmskar", "layer": "windfarms"}, "geometry": {"type": "Polygon", "coordinates": [[[20.37572, 60.87587], [20.37992, 60.87561], [20.58844, 60.78507], [20.53479, 60.71666], [19.89289, 60.64125], [19.44513, 60.58406], [19.86862, 60.71437], [20.02517, 60.72756], [20.37572, 60.87587]]]}}, {"type": "Feature", "properties": {"name": "Väderskär", "layer": "windfarms"}, "geometry": {"type": "Polygon", "coordinates": [[[20.4212, 60.61058], [20.38792, 60.60232], [20.36455, 60.60575], [20.33928, 60.60823], [20.31364, 60.60952], [20.28787, 60.60962], [20.2622, 60.60852], [20.23685, 60.60623], [20.19583, 60.59981], [20.17246, 60.59449], [20.15022, 60.5881], [20.12931, 60.58071], [20.10991, 60.57238], [20.09221, 60.56319], [20.07635, 60.55321], [20.05398, 60.53467], [20.03705, 60.53944], [20.01361, 60.5448], [19.97258, 60.55123], [19.93, 60.55438], [19.89023, 60.5543], [19.88706, 60.56033], [19.88309, 60.57441], [20.47972, 60.64677], [20.45668, 60.61653], [20.4212, 60.61058]]]}}, {"type": "Feature", "properties": {"name": "Sprogo", "layer": "windfarms"}, "geometry": {"type": "Polygon", "coordinates": [[[10.93724, 55.34086], [10.9389, 55.34235], [10.98075, 55.34767], [10.98337, 55.34672], [10.98178, 55.34504], [10.93943, 55.33971], [10.93724, 55.34086]]]}}, {"type": "Feature", "properties": {"name": "Nysted", "layer": "windfarms"}, "geometry": {"type": "Polygon", "coordinates": [[[11.76105, 54.56189], [11.76105, 54.52726], [11.66864, 54.5367], [11.66865, 54.57132], [11.76105, 54.56189]]]}}, {"type": "Feature", "properties": {"name": "Mejl Flak", "layer": "windfarms"}, "geometry": {"type": "Polygon", "coordinates": [[[10.51445, 56.01143], [10.48805, 55.98941], [10.3538, 55.98941], [10.35366, 56.07135], [10.51445, 56.01143]]]}}, {"type": "Feature", "properties": {"name": "Trem Mkllebugt", "layer": "windfarms"}, "geometry": {"type": "Polygon", "coordinates": [[[10.6858, 56.71912], [10.66054, 56.72714], [10.77047, 56.84088], [10.83964, 56.80351], [10.6858, 56.71912]]]}}, {"type": "Feature", "properties": {"name": "Kadetbanke", "layer": "windfarms"}, "geometry": {"type": "Polygon", "coordinates": [[[12.6524, 54.85858], [12.67006, 54.86686], [12.71029, 54.84288], [12.6914, 54.83842], [12.5818, 54.79377], [12.41837, 54.72384], [12.53955, 54.83575], [12.55221, 54.83628], [12.58908, 54.84077], [12.60936, 54.84449], [12.63143, 54.85075], [12.6524, 54.85858]]]}}, {"type": "Feature", "properties": {"name": "Lillebklt Syd", "layer": "windfarms"}, "geometry": {"type": "Polygon", "coordinates": [[[9.85927, 55.17575], [9.72798, 55.16346], [9.72083, 55.18139], [9.79019, 55.23593], [9.81584, 55.21565], [9.85927, 55.17575]]]}}, {"type": "Feature", "properties": {"name": "Paludan Flak", "layer": "windfarms"}, "geometry": {"type": "Polygon", "coordinates": [[[10.62973, 55.69558], [10.58137, 55.6956], [10.58121, 55.73766], [10.62954, 55.73775], [10.62973, 55.69558]]]}}, {"type": "Feature", "properties": {"name": "windfarms-101", "layer": "windfarms"}, "geometry": {"type": "Polygon", "coordinates": [[[24.14104, 64.60505], [24.04129, 64.53513], [23.8789, 64.53799], [24.04651, 64.62176], [24.14104, 64.60505]]]}}, {"type": "Feature", "properties": {"name": "Frederikshavn", "layer": "windfarms"}, "geometry": {"type": "Polygon", "coordinates": [[[11.20833, 57.53808], [11.26688, 57.48034], [11.25082, 57.48036], [11.19451, 57.46052], [11.16357, 57.46189], [11.11867, 57.4614], [11.08068, 57.45778], [11.05346, 57.45304], [11.03193, 57.4535], [11.00794, 57.45291], [10.99921, 57.46098], [10.96464, 57.44862], [10.93179, 57.44241], [10.90878, 57.43617], [10.88909, 57.43383], [10.86458, 57.42963], [10.81284, 57.41687], [10.81436, 57.43527], [10.80875, 57.46427], [10.80286, 57.47778], [10.79442, 57.49199], [10.78128, 57.50939], [10.79686, 57.63419], [10.82162, 57.64615], [10.89032, 57.61496], [10.92104, 57.62962], [10.84972, 57.66281], [10.86507, 57.67489], [10.87728, 57.68712], [10.89167, 57.7078], [10.97022, 57.67906], [11.20833, 57.53808]]]}}, {"type": "Feature", "properties": {"name": "E2", "layer": "windfarms"}, "geometry": {"type": "Polygon", "coordinates": [[[20.64828, 56.0458], [20.64684, 56.04842], [20.62252, 56.06727], [20.52442, 56.16543], [20.7037, 56.16368], [20.70543, 56.16184], [20.70985, 56.06928], [20.70535, 56.06541], [20.705, 56.04899], [20.70678, 56.04544], [20.64828, 56.0458]]]}}, {"type": "Feature", "properties": {"name": "E3", "layer": "windfarms"}, "geometry": {"type": "Polygon", "coordinates": [[[20.81732, 56.77299], [20.81148, 56.77158], [20.67756, 56.76969], [20.64732, 56.80161], [20.60328, 56.85176], [20.48993, 56.98362], [20.49407, 56.98664], [20.92015, 56.91817], [20.92176, 56.91623], [20.89433, 56.87889], [20.88448, 56.86026], [20.81732, 56.77299]]]}}, {"type": "Feature", "properties": {"name": "Plotas B2", "layer": "windfarms"}, "geometry": {"type": "Polygon", "coordinates": [[[20.57659, 55.84061], [20.57519, 55.83814], [20.52335, 55.83882], [20.22612, 55.83658], [20.22432, 55.84757], [20.55498, 55.84649], [20.57659, 55.84061]]]}}, {"type": "Feature", "properties": {"name": "Plotas C2", "layer": "windfarms"}, "geometry": {"type": "Polygon", "coordinates": [[[20.52324, 55.83388], [20.5711, 55.83325], [20.55963, 55.81951], [20.30757, 55.82033], [20.22866, 55.82108], [20.22693, 55.83164], [20.52324, 55.83388]]]}}, {"type": "Feature", "properties": {"name": "Plotas B", "layer": "windfarms"}, "geometry": {"type": "Polygon", "coordinates": [[[20.22432, 55.84757], [20.21367, 55.90303], [20.30076, 55.94043], [20.33077, 55.92576], [20.46031, 55.89696], [20.47698, 55.85572], [20.53817, 55.84657], [20.22432, 55.84757]]]}}, {"type": "Feature", "properties": {"name": "I etapu vystomas plotas", "layer": "windfarms"}, "geometry": {"type": "Polygon", "coordinates": [[[20.4754, 55.90422], [20.34005, 55.93432], [20.31503, 55.94655], [20.4816, 56.01767], [20.50228, 55.97683], [20.57805, 55.9327], [20.57312, 55.91441], [20.57039, 55.89466], [20.57029, 55.87485], [20.57233, 55.85777], [20.53987, 55.85653], [20.49175, 55.86373], [20.4754, 55.90422]]]}}, {"type": "Feature", "properties": {"name": "Plotas A", "layer": "windfarms"}, "geometry": {"type": "Polygon", "coordinates": [[[20.21139, 55.91449], [20.20087, 55.96744], [20.19996, 55.98035], [20.20777, 56.00996], [20.20482, 56.02833], [20.20252, 56.0333], [20.47492, 56.03442], [20.47776, 56.02843], [20.21139, 55.91449]]]}}, {"type": "Feature", "properties": {"name": "Plotas C", "layer": "windfarms"}, "geometry": {"type": "Polygon", "coordinates": [[[20.46195, 55.74383], [20.21895, 55.78257], [20.21993, 55.80705], [20.22895, 55.8193], [20.22866, 55.82108], [20.30757, 55.82033], [20.55963, 55.81951], [20.49836, 55.74594], [20.46195, 55.74383]]]}}, {"type": "Feature", "properties": {"name": "Bockstigen II", "layer": "windfarms"}, "geometry": {"type": "Polygon", "coordinates": [[[18.09161, 57.0718], [18.13115, 57.07057], [18.15594, 57.01769], [18.08502, 57.01946], [18.09161, 57.0718]]]}}, {"type": "Feature", "properties": {"name": "Vidar öst", "layer": "windfarms"}, "geometry": {"type": "Polygon", "coordinates": [[[10.67966, 58.76556], [10.68229, 58.74774], [10.6951, 58.58336], [10.57502, 58.5835], [10.54643, 58.73517], [10.59308, 58.76096], [10.5935, 58.76217], [10.67966, 58.76556]]]}}, {"type": "Feature", "properties": {"name": "E1", "layer": "windfarms"}, "geometry": {"type": "Polygon", "coordinates": [[[20.43791, 56.0469], [19.84955, 56.04805], [19.84845, 56.04929], [19.91806, 56.16665], [20.17382, 56.16701], [20.31891, 56.16541], [20.43791, 56.0469]]]}}, {"type": "Feature", "properties": {"name": "E5", "layer": "windfarms"}, "geometry": {"type": "Polygon", "coordinates": [[[23.81017, 57.83483], [23.77506, 57.86831], [23.76691, 57.89366], [23.77401, 57.8993], [24.09514, 57.89923], [24.14047, 57.79905], [24.137, 57.79577], [24.12943, 57.7937], [23.81017, 57.83483]]]}}, {"type": "Feature", "properties": {"name": "E4", "layer": "windfarms"}, "geometry": {"type": "Polygon", "coordinates": [[[20.95695, 56.96494], [20.95138, 56.96515], [20.6678, 57.01073], [20.71374, 57.12573], [21.23899, 57.34685], [21.24532, 57.34858], [21.2575, 57.3503], [20.95905, 56.96624], [20.95695, 56.96494]]]}}, {"type": "Feature", "properties": {"name": "Hesselø", "layer": "windfarms"}, "geometry": {"type": "Polygon", "coordinates": [[[11.70639, 56.32333], [11.60528, 56.29347], [11.51302, 56.29349], [11.56412, 56.34464], [11.66473, 56.42874], [11.91832, 56.33536], [11.70639, 56.32333]]]}}, {"type": "Feature", "properties": {"name": "Mimer (B159)", "layer": "windfarms"}, "geometry": {"type": "Polygon", "coordinates": [[[18.76604, 61.66164], [18.79822, 61.66075], [18.83337, 61.66341], [18.91804, 61.64653], [18.92614, 61.63826], [18.92668, 61.61101], [18.94881, 61.61818], [18.96035, 61.61111], [18.97266, 61.61008], [18.99144, 61.60226], [18.99442, 61.61443], [18.99423, 61.55425], [18.74665, 61.54334], [18.59748, 61.65888], [18.61618, 61.78402], [18.71842, 61.68004], [18.76604, 61.66164]]]}}, {"type": "Feature", "properties": {"name": "windfarms-118", "layer": "windfarms"}, "geometry": {"type": "MultiPolygon", "coordinates": [[[[20.36352, 59.45478], [20.34377, 59.4542], [20.28997, 59.50711], [20.29001, 59.5514], [20.49894, 59.55138], [20.60497, 59.53815], [20.60805, 59.52755], [20.6096, 59.50261], [20.38393, 59.45762], [20.36352, 59.45478]]], [[[20.4733, 59.67672], [20.12084, 59.64659], [20.03355, 59.68896], [20.11788, 59.67273], [20.2215, 59.67858], [20.22647, 59.68118], [20.25011, 59.71366], [20.24921, 59.71766], [20.23998, 59.7248], [20.32203, 59.72503], [20.44138, 59.70332], [20.4733, 59.67672]], [[20.18951, 59.65709], [20.19123, 59.65736], [20.19074, 59.65806], [20.18895, 59.65803], [20.18951, 59.65709]], [[20.23789, 59.67673], [20.23934, 59.67662], [20.23905, 59.67805], [20.23764, 59.6776], [20.23789, 59.67673]], [[20.38504, 59.70552], [20.38328, 59.70543], [20.38342, 59.70472], [20.38518, 59.70481], [20.38504, 59.70552]], [[20.37423, 59.71326], [20.37533, 59.71314], [20.37551, 59.71405], [20.37423, 59.71326]], [[20.37453, 59.69021], [20.37633, 59.69012], [20.37612, 59.69119], [20.37465, 59.69136], [20.37453, 59.69021]], [[20.37205, 59.7009], [20.37032, 59.70063], [20.37082, 59.69994], [20.37224, 59.70015], [20.37205, 59.7009]], [[20.36092, 59.71385], [20.36004, 59.7147], [20.35898, 59.71465], [20.35898, 59.71375], [20.36092, 59.71385]], [[20.35732, 59.71583], [20.3558, 59.71629], [20.35562, 59.71538], [20.35732, 59.71583]], [[20.35322, 59.7131], [20.35499, 59.71319], [20.35524, 59.71374], [20.35377, 59.71391], [20.35322, 59.7131]], [[20.32951, 59.72108], [20.32976, 59.72163], [20.32831, 59.72174], [20.32951, 59.72108]], [[20.32715, 59.72042], [20.32535, 59.72051], [20.32553, 59.71961], [20.32698, 59.71965], [20.32715, 59.72042]], [[20.32758, 59.71467], [20.32614, 59.71478], [20.32589, 59.71423], [20.32758, 59.71467]], [[20.32279, 59.71191], [20.32331, 59.71283], [20.32296, 59.71282], [20.32279, 59.71191]], [[20.31022, 59.69631], [20.3116, 59.69656], [20.31071, 59.69741], [20.31022, 59.69631]]], [[[20.40093, 59.78326], [20.40646, 59.7812], [20.41315, 59.78262], [20.5595, 59.76723], [20.60551, 59.7528], [20.60942, 59.75214], [20.64731, 59.75062], [20.65159, 59.75167], [20.66125, 59.756], [20.69341, 59.75192], [20.69515, 59.74906], [20.7247, 59.72928], [20.72999, 59.72846], [20.7435, 59.72857], [20.74666, 59.7289], [20.75104, 59.73083], [20.76232, 59.72231], [20.77801, 59.71242], [20.79547, 59.70333], [20.81509, 59.69488], [20.80475, 59.68911], [20.63038, 59.70869], [20.57288, 59.71191], [20.42796, 59.77093], [20.4309, 59.77144], [20.43409, 59.7734], [20.43317, 59.77443], [20.42825, 59.77401], [20.42798, 59.77171], [20.42677, 59.77141], [20.39624, 59.78045], [20.39579, 59.78276], [20.40093, 59.78326]], [[20.61285, 59.74477], [20.61391, 59.74482], [20.6139, 59.74491], [20.61285, 59.74477]], [[20.51653, 59.75553], [20.51681, 59.7559], [20.51575, 59.75585], [20.51653, 59.75553]], [[20.53106, 59.75606], [20.52717, 59.75587], [20.5243, 59.75411], [20.52794, 59.75375], [20.53106, 59.75606]], [[20.46701, 59.76586], [20.46556, 59.76596], [20.4657, 59.76525], [20.46701, 59.76586]], [[20.48348, 59.77298], [20.48383, 59.773], [20.48376, 59.77336], [20.48348, 59.77298]], [[20.42878, 59.77674], [20.43031, 59.77717], [20.43002, 59.7777], [20.42817, 59.77743], [20.42878, 59.77674]], [[20.42284, 59.77608], [20.4204, 59.77577], [20.42128, 59.77492], [20.42306, 59.77515], [20.42284, 59.77608]], [[20.54976, 59.73141], [20.55047, 59.73144], [20.54991, 59.73249], [20.54976, 59.73141]], [[20.56084, 59.73501], [20.56141, 59.73576], [20.55925, 59.73584], [20.56084, 59.73501]], [[20.46362, 59.77037], [20.46019, 59.77146], [20.46016, 59.76984], [20.46213, 59.76886], [20.46362, 59.77037]]], [[[20.3699, 59.80927], [20.36843, 59.81243], [20.36577, 59.8132], [20.36506, 59.81136], [20.3677, 59.80888], [20.35597, 59.80405], [20.3497, 59.8059], [20.34931, 59.80426], [20.35157, 59.80194], [20.34532, 59.80009], [20.34033, 59.80092], [20.33431, 59.80061], [20.32989, 59.79948], [20.29201, 59.81033], [20.32918, 59.81663], [20.35188, 59.82208], [20.36799, 59.82681], [20.37301, 59.82346], [20.37789, 59.82172], [20.37888, 59.81679], [20.37759, 59.81141], [20.3699, 59.80927]]]]}}, {"type": "Feature", "properties": {"name": "windfarms-119", "layer": "windfarms"}, "geometry": {"type": "MultiPolygon", "coordinates": [[[[14.60001, 55.11932], [14.46837, 55.16544], [14.54866, 55.22456], [14.62318, 55.20165], [14.62062, 55.19502], [14.61986, 55.18786], [14.62327, 55.17367], [14.6264, 55.16687], [14.62592, 55.14733], [14.62723, 55.14002], [14.62143, 55.12843], [14.61484, 55.12217], [14.60971, 55.11502], [14.60001, 55.11932]]], [[[14.90235, 54.78517], [14.88729, 54.76981], [14.87578, 54.74686], [14.87327, 54.73949], [14.85238, 54.70024], [14.42025, 54.65993], [14.5042, 54.68572], [14.50351, 54.68609], [14.53329, 54.74077], [14.59988, 54.78287], [14.70439, 54.83944], [14.74225, 54.86918], [14.78029, 54.89001], [14.81908, 54.91535], [14.8889, 54.91549], [14.91556, 54.90778], [14.96369, 54.9155], [14.99765, 54.91548], [15.0474, 54.91703], [14.9304, 54.82308], [14.90235, 54.78517]]], [[[14.51283, 55.11503], [14.60452, 55.08468], [14.60999, 55.07505], [14.6215, 55.0645], [14.62092, 55.06372], [14.59269, 55.03951], [14.53464, 55.00276], [14.45982, 55.03533], [14.17141, 54.8121], [14.04597, 54.91676], [14.10444, 54.91667], [14.0866, 54.94641], [14.20374, 54.96895], [14.43463, 55.14053], [14.51459, 55.11439], [14.51283, 55.11503]]]]}}, {"type": "Feature", "properties": {"name": "windfarms-120", "layer": "windfarms"}, "geometry": {"type": "Polygon", "coordinates": [[[19.64017, 61.57425], [19.65197, 61.59711], [19.66468, 61.61766], [19.68049, 61.63938], [19.70127, 61.66419], [19.72575, 61.69016], [19.74495, 61.70812], [19.76757, 61.72651], [19.78941, 61.74163], [19.80952, 61.75365], [19.83347, 61.76501], [19.8518, 61.77189], [19.87355, 61.77747], [19.89343, 61.77974], [19.91014, 61.77937], [19.92734, 61.77585], [19.93769, 61.77173], [19.94887, 61.76486], [19.95558, 61.75917], [19.9615, 61.75198], [19.96824, 61.74131], [19.97201, 61.73241], [19.97723, 61.70553], [19.97589, 61.67514], [19.96886, 61.64347], [19.95695, 61.61124], [19.93997, 61.57783], [19.91937, 61.5456], [19.89532, 61.51463], [19.86703, 61.48431], [19.83857, 61.45907], [19.80805, 61.43672], [19.77607, 61.41836], [19.75888, 61.41066], [19.74482, 61.40552], [19.72943, 61.40118], [19.71376, 61.39843], [19.70268, 61.39756], [19.69174, 61.39786], [19.67924, 61.39935], [19.66754, 61.40193], [19.65667, 61.40576], [19.6477, 61.4103], [19.641, 61.41522], [19.63743, 61.41995], [19.62451, 61.44833], [19.61996, 61.47484], [19.62313, 61.51747], [19.63167, 61.55319], [19.64017, 61.57425]]]}}, {"type": "Feature", "properties": {"name": "Aurora", "layer": "windfarms"}, "geometry": {"type": "Polygon", "coordinates": [[[17.80005, 56.81207], [17.82494, 56.79029], [17.85679, 56.76912], [17.90358, 56.74582], [17.95079, 56.72859], [17.96367, 56.6977], [17.41806, 56.47042], [17.1682, 56.45221], [17.35039, 56.75401], [17.80005, 56.81207]]]}}, {"type": "Feature", "properties": {"name": "Baltic offshore Delta South", "layer": "windfarms"}, "geometry": {"type": "Polygon", "coordinates": [[[20.44658, 58.9066], [20.40816, 58.88522], [20.32621, 58.80237], [19.98301, 58.82492], [19.81024, 58.91261], [19.92134, 58.96634], [20.36723, 59.05329], [20.44658, 58.9066]]]}}, {"type": "Feature", "properties": {"name": "Ymer", "layer": "windfarms"}, "geometry": {"type": "Polygon", "coordinates": [[[16.44204, 55.64794], [16.43819, 55.54646], [16.3225, 55.53936], [15.81751, 55.5169], [15.50721, 55.58789], [16.28719, 55.69741], [16.44204, 55.64794]]]}}, {"type": "Feature", "properties": {"name": "Elinor", "layer": "windfarms"}, "geometry": {"type": "Polygon", "coordinates": [[[18.08881, 58.30221], [18.09075, 58.30151], [18.09325, 58.30168], [18.1313, 58.31505], [18.17109, 57.98659], [17.92683, 57.76015], [17.8977, 57.75175], [18.03273, 58.38918], [18.08881, 58.30221]]]}}, {"type": "Feature", "properties": {"name": "Gretas Klackar", "layer": "windfarms"}, "geometry": {"type": "Polygon", "coordinates": [[[17.59115, 61.52879], [17.61102, 61.57896], [17.70575, 61.6081], [17.85448, 61.52197], [17.80051, 61.44885], [17.63361, 61.46667], [17.59115, 61.52879]]]}}, {"type": "Feature", "properties": {"name": "Neptunus", "layer": "windfarms"}, "geometry": {"type": "Polygon", "coordinates": [[[16.31661, 55.50071], [16.101, 55.63114], [15.93891, 55.6492], [16.60503, 55.74102], [16.59453, 55.50001], [16.31661, 55.50071]]]}}, {"type": "Feature", "properties": {"name": "Pleione", "layer": "windfarms"}, "geometry": {"type": "Polygon", "coordinates": [[[19.68806, 57.52467], [19.70761, 57.3844], [19.62577, 57.29992], [19.52904, 57.3457], [19.57526, 57.504], [19.63555, 57.54541], [19.68806, 57.52467]]]}}, {"type": "Feature", "properties": {"name": "Triton", "layer": "windfarms"}, "geometry": {"type": "Polygon", "coordinates": [[[13.51918, 55.15799], [13.5452, 55.16595], [13.59358, 55.17869], [14.00138, 55.14077], [14.11924, 55.13723], [14.06795, 55.10002], [13.4515, 55.09995], [13.48751, 55.15043], [13.51918, 55.15799]]]}}, {"type": "Feature", "properties": {"name": "Utposten 2", "layer": "windfarms"}, "geometry": {"type": "Polygon", "coordinates": [[[17.62414, 61.07898], [17.60588, 61.07119], [17.64272, 61.06732], [17.63694, 61.056], [17.60819, 61.05777], [17.58316, 61.05284], [17.57304, 61.03275], [17.53367, 61.03416], [17.53347, 61.03782], [17.50662, 61.04798], [17.50052, 61.05639], [17.47932, 61.06568], [17.47803, 61.08781], [17.63519, 61.08587], [17.62414, 61.07898]]]}}, {"type": "Feature", "properties": {"name": "EO1", "layer": "windfarms"}, "geometry": {"type": "Polygon", "coordinates": [[[14.1844, 54.80742], [14.1684, 54.75507], [14.15812, 54.74541], [14.11069, 54.74836], [14.06776, 54.76326], [14.03894, 54.78181], [14.03184, 54.79147], [13.98669, 54.92273], [14.02156, 54.92918], [14.16642, 54.80839], [14.16974, 54.80741], [14.1844, 54.80742]]]}}, {"type": "Feature", "properties": {"name": "Bornholm I", "layer": "windfarms"}, "geometry": {"type": "Polygon", "coordinates": [[[14.51283, 55.11503], [14.60452, 55.08468], [14.61133, 55.07343], [14.62166, 55.06435], [14.59269, 55.03951], [14.53464, 55.00276], [14.45982, 55.03533], [14.17141, 54.8121], [14.04597, 54.91676], [14.10444, 54.91667], [14.0866, 54.94641], [14.20374, 54.96895], [14.43463, 55.14053], [14.51459, 55.11439], [14.51283, 55.11503]]]}}, {"type": "Feature", "properties": {"name": "Bornholm III", "layer": "windfarms"}, "geometry": {"type": "Polygon", "coordinates": [[[15.01611, 54.56667], [14.90139, 54.57778], [14.85544, 54.58455], [14.8517, 54.59715], [15.02968, 54.61362], [15.04879, 54.61186], [15.04868, 54.60423], [15.05702, 54.60423], [15.05702, 54.5959], [15.09868, 54.5959], [15.09868, 54.58756], [15.10502, 54.58757], [15.12509, 54.57818], [15.14838, 54.56889], [15.11722, 54.56667], [15.01611, 54.56667]]]}}, {"type": "Feature", "properties": {"name": "Bornholm II", "layer": "windfarms"}, "geometry": {"type": "Polygon", "coordinates": [[[14.90235, 54.78517], [14.88729, 54.76981], [14.87578, 54.74686], [14.87327, 54.73949], [14.85238, 54.70024], [14.41544, 54.65948], [14.41544, 54.66255], [14.41305, 54.66255], [14.41304, 54.68762], [14.4202, 54.68836], [14.46967, 54.69993], [14.47668, 54.70318], [14.47936, 54.70757], [14.47939, 54.73604], [14.47572, 54.73512], [14.47356, 54.75007], [14.47584, 54.75641], [14.44675, 54.78769], [14.44184, 54.79085], [14.43422, 54.7924], [14.41304, 54.79249], [14.41304, 54.8119], [14.43871, 54.83311], [14.44656, 54.83829], [14.44579, 54.83893], [14.54929, 54.92376], [14.57559, 54.91277], [14.6211, 54.89709], [14.644, 54.89021], [14.66978, 54.88401], [14.69828, 54.8789], [14.74159, 54.8692], [14.78187, 54.89178], [14.81828, 54.91534], [14.8889, 54.91549], [14.91556, 54.90778], [14.96369, 54.9155], [14.99765, 54.91548], [15.0474, 54.91703], [14.9304, 54.82308], [14.90235, 54.78517]], [[14.56306, 54.88532], [14.53023, 54.88544], [14.5, 54.85985], [14.50002, 54.84401], [14.4988, 54.84392], [14.4962, 54.84713], [14.48439, 54.85096], [14.48501, 54.82327], [14.48018, 54.79698], [14.52489, 54.7776], [14.52907, 54.80729], [14.55296, 54.80107], [14.55813, 54.80031], [14.56367, 54.80062], [14.60574, 54.80771], [14.61189, 54.81073], [14.6146, 54.81511], [14.61408, 54.81823], [14.57974, 54.88919], [14.56306, 54.88532]]]}}, {"type": "Feature", "properties": {"name": "Bornholm I", "layer": "windfarms"}, "geometry": {"type": "Polygon", "coordinates": [[[14.60001, 55.11932], [14.46837, 55.16544], [14.54866, 55.22456], [14.62318, 55.20165], [14.62062, 55.19502], [14.61986, 55.18786], [14.62327, 55.17367], [14.6264, 55.16687], [14.62592, 55.14733], [14.62723, 55.14002], [14.62143, 55.12843], [14.61484, 55.12217], [14.60971, 55.11502], [14.60001, 55.11932]]]}}, {"type": "Feature", "properties": {"name": "windfarms-135", "layer": "windfarms"}, "geometry": {"type": "Polygon", "coordinates": [[[23.84111, 64.55934], [23.78054, 64.53964], [23.59429, 64.54258], [23.89764, 64.64791], [23.9668, 64.63578], [23.95697, 64.61535], [23.84111, 64.55934]]]}}, {"type": "Feature", "properties": {"name": "Jammerbugt", "layer": "windfarms"}, "geometry": {"type": "Polygon", "coordinates": [[[9.25288, 57.33017], [9.22459, 57.32631], [9.18581, 57.31925], [9.16423, 57.32407], [9.13464, 57.32939], [9.09132, 57.33534], [9.04233, 57.33835], [9.01035, 57.33827], [9.02242, 57.35994], [9.0874, 57.38275], [9.27997, 57.38271], [9.28828, 57.38389], [9.29442, 57.38717], [9.29669, 57.39166], [9.2967, 57.4167], [9.2945, 57.42116], [9.28841, 57.42447], [9.28078, 57.42568], [9.21496, 57.42733], [9.4594, 57.51211], [9.43115, 57.47528], [9.41099, 57.45791], [9.38922, 57.43276], [9.36463, 57.41078], [9.34815, 57.39408], [9.2918, 57.34691], [9.25288, 57.33017]]]}}, {"type": "Feature", "properties": {"name": "Krigers Flak Nord", "layer": "windfarms"}, "geometry": {"type": "Polygon", "coordinates": [[[12.73604, 55.20695], [12.79371, 55.16606], [12.87264, 55.13538], [12.71964, 55.10138], [12.70022, 55.09523], [12.68993, 55.10177], [12.67174, 55.11141], [12.67725, 55.21851], [12.67639, 55.24192], [12.67821, 55.24504], [12.73459, 55.20516], [12.73604, 55.20695]]]}}, {"type": "Feature", "properties": {"name": "windfarms-138", "layer": "windfarms"}, "geometry": {"type": "Polygon", "coordinates": [[[21.13265, 62.11279], [21.14811, 62.03066], [21.02596, 62.02836], [21.00616, 62.12224], [21.07786, 62.12347], [21.13265, 62.11279]]]}}, {"type": "Feature", "properties": {"name": "windfarms-139", "layer": "windfarms"}, "geometry": {"type": "Polygon", "coordinates": [[[24.22328, 64.81738], [24.22426, 64.96577], [24.26547, 64.97589], [24.36758, 64.961], [24.37463, 64.93911], [24.38325, 64.89213], [24.34821, 64.84394], [24.2964, 64.8106], [24.22328, 64.81738]]]}}, {"type": "Feature", "properties": {"name": "Kattegat I", "layer": "windfarms"}, "geometry": {"type": "Polygon", "coordinates": [[[11.46071, 56.96579], [11.60749, 56.96569], [11.60749, 56.96224], [11.61511, 56.95133], [11.60465, 56.94493], [11.31204, 56.85178], [11.31048, 56.796], [11.2919, 56.78005], [11.28102, 56.76753], [11.27454, 56.75782], [11.23355, 56.74959], [11.2097, 56.75383], [11.19487, 56.75527], [11.15656, 56.7561], [11.13466, 56.75467], [11.11497, 56.75088], [11.09672, 56.74468], [11.08137, 56.73645], [11.07054, 56.72752], [11.04637, 56.72841], [10.8318, 56.8515], [10.86525, 56.90819], [10.86593, 56.90765], [10.86593, 56.90935], [10.90037, 56.96753], [10.9442, 56.97879], [11.03538, 56.91432], [11.40746, 57.118], [11.41585, 57.1126], [11.45751, 57.10001], [11.46022, 57.09856], [11.46071, 56.96579]], [[11.41383, 57.05941], [11.437, 57.0596], [11.422, 57.0691], [11.4004, 57.0688], [11.4005, 57.0593], [11.41383, 57.05941]]]}}, {"type": "Feature", "properties": {"name": "windfarms-141", "layer": "windfarms"}, "geometry": {"type": "Polygon", "coordinates": [[[23.9609, 64.89389], [23.99657, 64.90725], [24.02912, 64.91759], [24.16152, 64.95033], [24.15463, 64.82372], [23.86173, 64.85036], [23.9609, 64.89389]]]}}, {"type": "Feature", "properties": {"name": "windfarms-142", "layer": "windfarms"}, "geometry": {"type": "Polygon", "coordinates": [[[23.93914, 64.91879], [23.90817, 64.90703], [23.82046, 64.86587], [23.65016, 64.92954], [23.64103, 65.0083], [23.71234, 65.02193], [23.94714, 65.00995], [24.01069, 64.93865], [23.93914, 64.91879]]]}}, {"type": "Feature", "properties": {"name": "windfarms-143", "layer": "windfarms"}, "geometry": {"type": "Polygon", "coordinates": [[[20.65487, 61.8157], [20.65569, 61.82884], [20.65944, 61.84201], [20.6661, 61.85504], [20.67493, 61.86677], [20.68419, 61.87516], [20.69457, 61.88038], [20.70749, 61.88365], [20.72577, 61.88531], [20.74669, 61.88481], [20.7707, 61.88226], [20.79805, 61.87757], [20.83947, 61.86781], [20.88796, 61.85341], [20.8954, 61.84915], [20.89981, 61.845], [20.9049, 61.83237], [20.90538, 61.81901], [20.90106, 61.79791], [20.89439, 61.78492], [20.88619, 61.77499], [20.87678, 61.76829], [20.86117, 61.76213], [20.84222, 61.75767], [20.8259, 61.75613], [20.81092, 61.75753], [20.76675, 61.76869], [20.69662, 61.78269], [20.68064, 61.78741], [20.66895, 61.79252], [20.66116, 61.79818], [20.65722, 61.80421], [20.65487, 61.8157]]]}}, {"type": "Feature", "properties": {"name": "Krigers Flak Syd", "layer": "windfarms"}, "geometry": {"type": "Polygon", "coordinates": [[[13.03519, 54.91697], [12.72374, 54.84524], [12.70818, 54.85226], [12.73315, 54.86946], [12.74779, 54.88268], [12.76457, 54.90136], [12.77696, 54.92041], [12.85559, 54.91511], [12.86925, 54.91497], [12.92678, 54.91911], [12.94294, 54.92227], [12.95876, 54.92745], [12.97498, 54.92463], [12.99193, 54.92353], [13.04707, 54.9267], [13.03519, 54.91697]]]}}, {"type": "Feature", "properties": {"name": "Hesselk", "layer": "windfarms"}, "geometry": {"type": "Polygon", "coordinates": [[[11.84938, 56.5819], [11.89214, 56.61753], [11.90899, 56.40184], [11.97149, 56.3518], [11.91883, 56.33517], [11.66473, 56.42874], [11.84938, 56.5819]]]}}, {"type": "Feature", "properties": {"name": "NW Grund", "layer": "windfarms"}, "geometry": {"type": "Polygon", "coordinates": [[[15.16667, 55.34], [15.14333, 55.34], [15.14333, 55.35], [15.16667, 55.35], [15.16667, 55.34]]]}}, {"type": "Feature", "properties": {"name": "windfarms-147", "layer": "windfarms"}, "geometry": {"type": "Polygon", "coordinates": [[[21.03093, 61.7114], [21.02138, 61.73068], [21.02026, 61.73835], [21.02185, 61.74201], [21.02498, 61.74502], [21.03331, 61.75013], [21.04053, 61.75275], [21.04761, 61.75334], [21.05673, 61.75257], [21.10053, 61.74427], [21.12929, 61.73686], [21.15398, 61.72812], [21.16982, 61.7204], [21.18088, 61.71249], [21.18775, 61.70351], [21.19207, 61.69214], [21.19335, 61.6772], [21.19041, 61.66293], [21.18375, 61.65122], [21.17377, 61.64294], [21.16503, 61.63963], [21.15217, 61.63782], [21.1349, 61.63751], [21.11351, 61.6387], [21.08875, 61.64139], [21.06398, 61.64515], [21.02526, 61.6523], [21.01005, 61.65668], [21.00416, 61.6599], [20.99991, 61.6645], [20.99704, 61.67107], [20.99745, 61.67529], [21.00253, 61.68121], [21.02418, 61.69567], [21.03069, 61.70271], [21.03093, 61.7114]]]}}, {"type": "Feature", "properties": {"name": "windfarms-148", "layer": "windfarms"}, "geometry": {"type": "Polygon", "coordinates": [[[20.96094, 61.24739], [20.97581, 61.25043], [20.98619, 61.2556], [21.00843, 61.27136], [21.01524, 61.27406], [21.02236, 61.27503], [21.03242, 61.27442], [21.04328, 61.27255], [21.06441, 61.26598], [21.07194, 61.26209], [21.07884, 61.25708], [21.0836, 61.25203], [21.08588, 61.24741], [21.08404, 61.23678], [21.07215, 61.21851], [21.06029, 61.20574], [21.04566, 61.19463], [21.02523, 61.18381], [20.9995, 61.17351], [20.97469, 61.16618], [20.95407, 61.16288], [20.94487, 61.16317], [20.93597, 61.16543], [20.92647, 61.16989], [20.91717, 61.17632], [20.90858, 61.18436], [20.90101, 61.19388], [20.89564, 61.20331], [20.89221, 61.21303], [20.89116, 61.22142], [20.89224, 61.22931], [20.89516, 61.2356], [20.90122, 61.24275], [20.90442, 61.24431], [20.90935, 61.2451], [20.93476, 61.24507], [20.96094, 61.24739]]]}}, {"type": "Feature", "properties": {"name": "windfarms-149", "layer": "windfarms"}, "geometry": {"type": "Polygon", "coordinates": [[[21.46546, 63.64394], [21.4704, 63.65708], [22.1703, 63.82674], [22.18374, 63.82892], [22.19268, 63.82842], [22.20132, 63.82521], [22.20637, 63.81863], [22.24847, 63.7393], [22.2455, 63.73326], [22.23632, 63.72895], [21.46546, 63.64394]]]}}, {"type": "Feature", "properties": {"name": "PZP_45", "layer": "windfarms"}, "geometry": {"type": "Polygon", "coordinates": [[[17.08193, 54.98977], [16.97631, 55.0091], [16.97519, 55.01403], [16.85987, 55.03507], [16.84805, 55.03533], [16.77326, 55.10242], [16.74361, 55.1184], [16.78563, 55.12361], [16.8413, 55.13174], [16.8929, 55.13481], [16.92212, 55.13824], [16.94999, 55.13669], [16.95369, 55.11875], [17.03111, 55.11867], [17.2287, 55.10478], [17.27713, 55.11365], [17.28242, 55.05825], [17.32055, 55.05759], [17.38405, 55.05949], [17.38024, 55.10184], [17.56219, 55.10715], [17.62163, 55.11084], [17.675, 55.11087], [17.675, 54.99878], [17.63344, 54.99166], [17.59002, 54.98222], [17.56418, 54.97764], [17.43934, 54.96645], [17.41322, 54.95684], [17.37852, 54.95262], [17.33142, 54.94979], [17.28262, 54.94512], [17.23347, 55.04337], [17.20908, 55.0374], [17.18409, 55.03867], [17.08772, 55.00401], [17.08193, 54.98977]]]}}, {"type": "Feature", "properties": {"name": "PZP_44", "layer": "windfarms"}, "geometry": {"type": "Polygon", "coordinates": [[[16.60555, 55.10833], [16.70472, 55.13111], [16.7289, 55.11397], [16.67867, 55.09258], [16.66714, 55.07546], [16.65845, 55.07056], [16.63193, 55.0478], [16.44964, 55.00539], [16.44175, 55.00178], [16.3929, 54.97097], [16.3796, 55.01572], [16.36776, 55.04848], [16.4978, 55.09898], [16.54517, 55.10592], [16.60555, 55.10833]]]}}, {"type": "Feature", "properties": {"name": "PZP_14", "layer": "windfarms"}, "geometry": {"type": "Polygon", "coordinates": [[[15.06479, 54.56668], [15.11722, 54.56667], [15.22694, 54.57444], [15.31444, 54.58889], [15.33162, 54.59229], [15.3645, 54.51954], [15.3645, 54.49833], [15.37409, 54.49833], [15.39449, 54.45319], [15.12679, 54.36304], [14.94588, 54.45091], [15.06479, 54.56668]]]}}, {"type": "Feature", "properties": {"name": "windfarms-153", "layer": "windfarms"}, "geometry": {"type": "Polygon", "coordinates": [[[20.60055, 62.55518], [20.55851, 62.60294], [20.5477, 62.63732], [20.54524, 62.67323], [20.5511, 62.69714], [20.55757, 62.71429], [20.55578, 62.72417], [20.54317, 62.74378], [20.52975, 62.76134], [20.52495, 62.77714], [20.52611, 62.79752], [20.54567, 62.80911], [20.73972, 62.8179], [20.78877, 62.81909], [20.77715, 62.86079], [20.77293, 62.9184], [20.96429, 62.87615], [20.96095, 62.85596], [20.93942, 62.82064], [20.88138, 62.81451], [20.89458, 62.64985], [20.82022, 62.64385], [20.89217, 62.52961], [20.88774, 62.44827], [20.78191, 62.44235], [20.73402, 62.47295], [20.61796, 62.54331], [20.60055, 62.55518]]]}}, {"type": "Feature", "properties": {"name": "windfarms-154", "layer": "windfarms"}, "geometry": {"type": "Polygon", "coordinates": [[[24.63244, 65.24608], [24.58088, 65.24553], [24.54562, 65.24624], [24.521, 65.24929], [24.50551, 65.25232], [24.47219, 65.25996], [24.43126, 65.27197], [24.31552, 65.31243], [24.26322, 65.3257], [24.23749, 65.33835], [24.21684, 65.35218], [24.20264, 65.36667], [24.19839, 65.38608], [24.2015, 65.39379], [24.22469, 65.41605], [24.257, 65.43435], [24.29082, 65.45134], [24.32761, 65.4642], [24.36515, 65.46996], [24.39183, 65.47042], [24.41828, 65.46887], [24.44716, 65.46417], [24.47886, 65.4586], [24.5416, 65.4437], [24.56876, 65.43384], [24.59391, 65.42058], [24.59915, 65.41307], [24.5994, 65.39789], [24.5971, 65.38575], [24.59803, 65.37556], [24.60219, 65.36115], [24.60955, 65.34893], [24.62679, 65.33426], [24.65086, 65.31898], [24.67452, 65.30819], [24.69858, 65.30074], [24.71848, 65.29178], [24.72957, 65.28464], [24.73716, 65.27219], [24.73779, 65.26502], [24.73155, 65.25853], [24.71788, 65.25286], [24.6966, 65.2494], [24.63244, 65.24608]]]}}, {"type": "Feature", "properties": {"name": "windfarms-155", "layer": "windfarms"}, "geometry": {"type": "Polygon", "coordinates": [[[21.70126, 59.58674], [21.7073, 59.59207], [21.73207, 59.5978], [21.76602, 59.61102], [21.78997, 59.61823], [21.80735, 59.62101], [21.84622, 59.62431], [21.87324, 59.62554], [21.89604, 59.62535], [21.92262, 59.62355], [21.93912, 59.62139], [21.95185, 59.61809], [21.96483, 59.61256], [21.98122, 59.60225], [21.99818, 59.58744], [22.00734, 59.57586], [22.00952, 59.5671], [22.00626, 59.56179], [21.99667, 59.55688], [21.97951, 59.55193], [21.96216, 59.54914], [21.91547, 59.54778], [21.84733, 59.54831], [21.79381, 59.54663], [21.77136, 59.54671], [21.75837, 59.54757], [21.74652, 59.54924], [21.7363, 59.55173], [21.72781, 59.55494], [21.71625, 59.5608], [21.70853, 59.56629], [21.7018, 59.57301], [21.69928, 59.57879], [21.70126, 59.58674]]]}}, {"type": "Feature", "properties": {"name": "windfarms-156", "layer": "windfarms"}, "geometry": {"type": "Polygon", "coordinates": [[[21.03045, 59.28819], [21.02168, 59.2801], [21.01204, 59.27442], [21.00187, 59.27125], [20.98884, 59.27008], [20.96871, 59.2704], [20.92866, 59.27453], [20.91859, 59.27654], [20.9141, 59.27861], [20.90342, 59.28667], [20.88079, 59.29461], [20.8592, 59.3049], [20.83674, 59.31797], [20.826, 59.32624], [20.81881, 59.33589], [20.81768, 59.3464], [20.82116, 59.356], [20.8306, 59.36593], [20.84045, 59.37268], [20.85384, 59.37982], [20.86744, 59.38563], [20.88046, 59.38982], [20.8942, 59.39322], [20.90532, 59.39453], [20.91382, 59.39451], [20.92279, 59.39269], [20.92915, 59.38979], [20.94296, 59.38098], [20.96413, 59.36235], [20.97394, 59.35538], [20.98587, 59.34942], [21.01836, 59.33605], [21.03831, 59.32509], [21.04395, 59.31876], [21.04597, 59.31296], [21.04452, 59.30771], [21.03045, 59.28819]]]}}, {"type": "Feature", "properties": {"name": "PZP_46", "layer": "windfarms"}, "geometry": {"type": "Polygon", "coordinates": [[[17.93371, 55.10315], [18.01766, 55.10518], [18.05571, 55.10681], [18.15545, 55.06149], [18.15554, 55.04086], [18.0001, 55.035], [17.91648, 55.02974], [17.83679, 55.02204], [17.675, 54.99878], [17.675, 55.11087], [17.77119, 55.11086], [17.77646, 55.08868], [17.93371, 55.10315]]]}}, {"type": "Feature", "properties": {"name": "PZP_53", "layer": "windfarms"}, "geometry": {"type": "Polygon", "coordinates": [[[16.66163, 55.36875], [16.58302, 55.37561], [16.88495, 55.46588], [16.99207, 55.43182], [16.82913, 55.35414], [16.66163, 55.36875]]]}}, {"type": "Feature", "properties": {"name": "windfarms-159", "layer": "windfarms"}, "geometry": {"type": "Polygon", "coordinates": [[[21.70712, 57.9439], [21.69145, 58.00699], [21.50777, 58.07217], [21.4451, 58.06564], [21.40802, 58.07822], [21.26545, 58.09006], [21.08363, 58.15011], [21.06884, 58.15117], [21.01484, 58.19619], [21.01372, 58.21647], [21.18844, 58.30674], [21.26274, 58.2978], [21.35921, 58.32713], [21.38304, 58.34435], [21.45629, 58.35023], [21.4568, 58.3432], [21.5753, 58.32438], [21.58064, 58.29747], [21.60252, 58.26855], [21.63932, 58.24283], [21.65883, 58.22559], [21.69698, 58.2034], [21.74291, 58.18926], [21.76644, 58.18615], [21.79905, 58.17088], [21.8431, 58.15512], [21.8737, 58.14838], [21.90037, 58.14795], [21.91273, 58.13583], [21.91325, 58.12704], [21.87389, 58.11758], [21.85595, 58.05654], [21.85385, 58.03626], [21.82386, 58.0111], [21.80843, 57.99235], [21.81049, 57.95894], [21.81503, 57.93877], [21.77132, 57.89664], [21.69848, 57.84691], [21.65391, 57.89714], [21.70712, 57.9439]]]}}]}